Item	Item2	Country	State	Name	Latitude	Longitude	DistanceFromSource	IWDay	IWHr	IWMin	TTHr	TTMin	MWDay	MWHr	MMWMin	MaxWaterHeight	MaxInundationDistance	Type	Per	1st	Mtn	z1	z2
* 		ANTARCTICA 		CASEY STATION (AUSTRALIA) 	-66.27000 	110.52000 	7829 	26 	12 	0 	11 	1 				.44 		2 		R 												
* 		ANTARCTICA 		DAVIS STATION (AUSTRALIA) 	-68.57000 	77.97000 	8113 	26 	13 	10 	12 	11 				.47 		2 		R 												
* 		ANTARCTICA 		DUMONT D'URVILLE STATION (FRANCE) 	-66.63000 	140.01000 	8525 	26 	13 	48 	12 	49 				.16 		2 		R 												
* 		ANTARCTICA 		MAWSON STATION (AUSTRALIA) 	-67.60000 	62.87000 	8297 	26 	13 	10 	12 	11 				.43 		2 		R 												
* 		ANTARCTICA 		ROTHERA STATION (UK) 	-67.56900 	-68.12000 	12770 	27 	0 	15 	23 	16 				.02 		2 	60 													
* 		ANTARCTICA 		SCOTT BASE (NEW ZEALAND) 	-77.85000 	166.76700 	9933 	27 	0 	30 	23 	1 				.05 		2 														
* 		ANTARCTICA 		SYOWA STATION (JAPAN) 	-69.00000 	39.57000 	9086 	26 	13 	40 	12 	41 				.39 		2 		R 												
* 		ANTARCTICA 		ZHONG SHAN STATION (AUSTRALIA) 	-69.38000 	76.37000 	8220 	26 	13 	20 	12 	21 				.28 		2 		R 												
* 		ARGENTINA 		SANTA TERESITA 	-36.53330 	-56.66660 	15377 	27 	0 	48 	23 	49 	27 	8 	36 	.14 		2 														
* 		AUSTRALIA 		COCOS ISLAND (KEELING) 	-12.11700 	96.88300 	1720 	26 	3 	17 	2 	18 				.30 		2 		R 												
* 		AUSTRALIA 		DELAMBRE IS., DAMPIER ARCHIPELAGO 	-20.45000 	117.08000 	3515 									.30 		1 														
* 		AUSTRALIA 		ESPERANCE 	-33.87089 	121.89536 	4956 	26 	8 	57 	7 	58 				.80 		2 														
* 		AUSTRALIA 		HILLARYS HARBOUR 	-31.82000 	115.73000 	4437 	26 	7 	14 	6 	15 				.54 		2 		R 												
* 		AUSTRALIA 		PORTLAND 	-38.34340 	141.61320 	6597 	26 	10 	48 	9 	49 				.85 		2 														
* 		AUSTRALIA 		ROSSLYN BAY 	-23.16100 	150.79000 	6640 									.25 		2 														
* 		BANGLADESH 		AKILPOOR, BANSBARIA 	22.40000 	91.80000 	2167 									2.40 		1 														
* 		BANGLADESH 		ALL OF BANGLADESH 														1 			2 	1 					500 	4 				
* 		BANGLADESH 		ST. MARTIN'S ISLAND 	20.63000 	92.32000 	1963 				2 	12 				.31 		2 														
* 		BERMUDA (UK TERRITORY) 		BERMUDA 	32.36660 	-64.70000 	15553 	27 	5 	5 	28 	6 				.12 		2 														
* 		BRAZIL 		ARRAIAL DO CABO 	-22.97300 	-42.01200 	14989 	26 	22 	57 						.50 		2 														
* 		BRAZIL 		IMBITUBA PORT, SANTA CATARINA 	-28.21700 	-48.65000 	15353 	27 	3 	0 						.60 		2 	30 													
* 		CANADA 	BC 	BAMFIELD, BRITISH COLUMBIA 	48.83700 	-125.13700 	13002 	27 	13 	45 						.03 		2 														
* 		CANADA 	BC 	BELLA BELLA, BRITISH COLUMBIA 	52.16300 	-128.14300 	12597 	27 	10 	20 	33 	21 				.05 		2 														
* 		CANADA 	BC 	PORT HARDY, BRITISH COLUMBIA 	50.72200 	-127.48800 	12737 	27 	14 	40 						.06 		2 														
* 		CANADA 	BC 	TOFINO, BRITISH COLUMBIA 	49.15300 	-125.91300 	12937 	27 	9 	0 	32 	1 				.08 		2 														
* 		CANADA 	BC 	VICTORIA, BRITISH COLUMBIA 	48.42500 	-123.37200 	13128 	27 	14 	20 	37 	21 				.06 		2 														
* 		CANADA 	BC 	WINTER HARBOR, BRITISH COLUMBIA 	50.51300 	-128.02800 	12723 	27 	8 	45 	31 	46 				.11 		2 														
* 		CANADA 	NS 	HALIFAX, NOVA SCOTIA 	44.66700 	-63.58300 	14306 	27 	8 	30 	31 	31 				.22 		2 	45 													
* 		CHILE 	ANTARCTICA CHILENA 	PUERTO WILLIAMS 	-54.93300 	-67.63300 	14089 									.15 		2 														
* 		CHILE 	ANTOFAGASTA 	ANTOFAGASTA 	-23.65000 	-70.40400 	17320 	27 	3 	25 	26 	26 				.14 		2 														
* 		CHILE 	ARICA 	ARICA 	-18.47580 	-70.32320 	17761 	27 	4 	2 	27 	3 				.36 		2 														
* 		CHILE 	CHILOE 	PUNTA CORONA 	-41.78300 	-73.88000 	15622 	27 	1 	45 						.03 		2 	20 													
* 		CHILE 	CONCEPCION 	TALCAHUANO 	-36.69530 	-73.10630 	16140 	27 	1 	35 	24 	36 				.22 		2 														
* 		CHILE 	COPIAPO 	CALDERA 	-27.06440 	-70.82470 	17023 	27 	3 	16 	26 	17 				.11 		2 														
* 		CHILE 	ELQUI 	COQUIMBO 	-29.95000 	-71.33530 	16766 	27 	1 	53 	24 	54 				.18 		2 														
* 		CHILE 	IQUIQUE 	IQUIQUE 	-20.21700 	-70.15600 	17605 	27 	3 	35 	26 	36 				.12 		2 														
* 		CHILE 	SAN ANTONIO 	SAN ANTONIO 	-33.58330 	-71.61890 	16412 	27 	0 	12 	23 	13 				.08 		2 														
* 		CHILE 	VALDIVIA 	CORRAL 	-39.87830 	-73.42280 	15813 	27 	1 	49 	24 	50 				.15 		2 														
* 		CHILE 	VALPARAISO 	VALPARAISO 	-33.03300 	-71.63300 	16468 	27 	1 	4 	24 	5 				.09 		2 														
* 		COMOROS 		ACOUA, MAYOTTE 	-12.72528 	45.05615 	5887 									2.40 		5 														
* 		COMOROS 		BAMBAO, ANJOUAN 	-12.20240 	44.52037 	5930 									2.50 		5 														
* 		COMOROS 		BANGOMA - PORT, MOHELI 	-12.29015 	43.75282 	6013 									3.80 		5 														
* 		COMOROS 		BANGOUA KOUNI, GRANDE COMORE 	-11.36983 	43.36338 	6032 									1.50 		5 														
* 		COMOROS 		BIMBINI, ANJOUAN 	-12.19175 	44.23317 	5960 									2.90 		5 														
* 		COMOROS 		BOUNI MOSQUE 1, GRANDE COMORE 	-11.48882 	43.39847 	6031 									6.00 		5 										1 				
* 		COMOROS 		BOUNI MOSQUE 2, GRANDE COMORE 	-11.48938 	43.39917 	6031 									6.90 		5 														
* 		COMOROS 		BOUÃ‰NI, MAYOTTE 	-12.90602 	45.07742 	5890 									3.30 		5 														
* 		COMOROS 		CHICONI, MAYOTTE 	-12.83640 	45.11225 	5885 									2.45 		5 														
* 		COMOROS 		CHOMONI, GRANDE COMORE 	-11.64477 	43.39508 	6035 									3.20 		5 														
* 		COMOROS 		DJOYEZI, MOHELI 	-12.30595 	43.77660 	6011 									2.80 		5 														
* 		COMOROS 		DOMONI - NORTH, ANJOUAN 	-12.25923 	44.53119 	5930 									1.90 		5 														
* 		COMOROS 		DOMONI - SOUTH, ANJOUAN 	-12.26172 	44.53260 	5930 									1.70 		5 														
* 		COMOROS 		FOMBONI OUEST, MOHELI 	-12.27940 	43.73847 	6015 									2.10 		5 														
* 		COMOROS 		GNAMBO-YAMAORE, MOHELI 	-12.25638 	43.67012 	6021 									2.20 		5 														
* 		COMOROS 		HAGNAMOUADA, MOHELI 	-12.33963 	43.84248 	6005 									3.00 		5 														
* 		COMOROS 		HAJOHO, ANJOUAN 	-12.12090 	44.48885 	5931 									2.30 		5 														
* 		COMOROS 		HAMJAGO, MAYOTTE 	-12.68767 	45.07335 	5885 									1.00 		5 														
* 		COMOROS 		HANTSIDZI, GRANDE COMORE 	-11.43047 	43.41280 	6028 									2.40 		5 														
* 		COMOROS 		KOUHANI, GRANDE COMORE 	-11.57127 	43.39837 	6033 									4.00 		5 														
* 		COMOROS 		KOUNGOU, EAST, MAYOTTE 	-12.73480 	45.20755 	5872 									2.95 		5 														
* 		COMOROS 		KOUNGOU, EAST, MAYOTTE 	-12.73467 	45.20828 	5872 									4.05 		5 														
* 		COMOROS 		MAJIKAVO-KOROPA, MAYOTTE 	-12.74395 	45.22052 	5871 									2.65 		5 														
* 		COMOROS 		MIRINGONI, MOHELI 	-12.30400 	43.63465 	6026 									3.50 		5 														1
* 		COMOROS 		MIRONTSI, ANJOUAN 	-12.15693 	44.41515 	5940 									2.10 		5 														
* 		COMOROS 		MITSAMIOULI, GRANDE COMORE 	-11.38980 	43.28947 	6040 									2.30 		5 														
* 		COMOROS 		MOUTSAMOUDOU, MAYOTTE 	-12.96285 	45.17673 	5881 									2.20 		5 														
* 		COMOROS 		MTAKOUDJA, MOHELI 	-12.26802 	43.70543 	6018 									2.80 		5 														
* 		COMOROS 		MTSAHARA, MAYOTTE 	-12.68162 	45.08042 	5884 									2.95 		5 														
* 		COMOROS 		MTSAMBORO, MAYOTTE 	-12.69817 	45.06762 	5886 									1.25 		5 														
* 		COMOROS 		MTSAMDOU - HILL, GRANDE COMORE 	-11.60860 	43.39197 	6035 									5.60 		5 														
* 		COMOROS 		MTSAMDOU - SEAWALL, GRANDE COMORE 	-11.60905 	43.39170 	6035 									5.80 		5 														
* 		COMOROS 		MTSANGADOUA, MAYOTTE 	-12.71112 	45.05005 	5888 									2.90 		5 														
* 		COMOROS 		MTSANGAMBOUA, MAYOTTE 	-12.69002 	45.11142 	5881 									2.00 		5 														
* 		COMOROS 		MZOUAZIA, MAYOTTE 	-12.92863 	45.10238 	5888 									1.30 		5 														
* 		COMOROS 		NDROUDE, ILE DE LA TORTUE 	-11.41733 	43.41175 	6028 									.65 		5 														
* 		COMOROS 		ONGONI, ANJOUAN 	-12.17223 	44.50653 	5931 									2.70 		5 														
* 		COMOROS 		SADA, MAYOTTE 	-12.84942 	45.09867 	5886 									1.30 		5 														
* 		COMOROS 		SELEYANI, GRANDE COMORE 	-11.50363 	43.39957 	6031 									5.00 		5 										1 				
* 		COMOROS 		SOUTH OF BOUNI, ROAD 	-11.49425 	43.39805 	6031 									6.00 		5 														
* 		ECUADOR 	GALAPAGOS ISLANDS 	BALTRA ISLAND 	-.43300 	-90.28300 	19267 	27 	6 	26 	29 	27 				.18 		2 														
* 		EL SALVADOR 	SONSONATE 	ACAJUTLA 	13.57390 	-89.83830 	18040 	27 	8 	55 	31 	56 				.16 		2 														
* 		FIJI 		SUVA, KING'S WHARF 	-18.13420 	178.42360 	9342 									.03 		2 														
* 		FRANCE 		BREST 	48.38300 	-4.50000 	10495 	27 	7 	59 	31 	0 				.20 		2 	25 													
* 		FRANCE 		CONCARNEAU 	47.86800 	-3.91300 	10461 	27 	9 	20 	32 	21 				.50 		2 														
* 		FRANCE 		LES SABLES D'OLONNE 	46.49600 	-1.79500 	10326 	27 	9 	0 	32 	1 				.29 		2 														
* 		FRENCH POLYNESIA 	MARQUESAS ISLANDS 	NUKU HIVA ISLAND, MARQUESAS ISLANDS 	-8.91480 	-140.09580 	13807 									.03 		2 														
* 		FRENCH SOUTHERN AND ANTARCTIC TERRITORIES 	CROZET ARCHIPELAGO 	LA BAIE DU MARIN, POSSESSION ISLAND 	-46.42500 	51.86000 	7013 										225.00 	5 														
* 		FRENCH SOUTHERN AND ANTARCTIC TERRITORIES 		ILE SAINT-PAUL 	-38.72000 	77.54000 	5040 	26 	7 	30 	6 	30 				.08 		2 		R 												
* 		FRENCH SOUTHERN AND ANTARCTIC TERRITORIES 		KERGUELEN 	-49.35000 	70.22000 	6357 	26 	10 	0 	9 	0 				.34 		2 		R 												
* 		GHANA 		TAKORADI 	4.88000 	-1.74000 	10819 	27 	1 	38 	24 	39 	28 	0 	15 	.21 		2 		F 												
* 		INDIA 	ANDAMAN AND NICOBAR 	BAMBOO FLAT (2), PORT BLAIR 	11.69956 	92.71481 	995 									3.80 	20.60 	5 														
* 		INDIA 	ANDAMAN AND NICOBAR 	BAMBOO FLAT, PORT BLAIR 	11.70072 	92.71542 	995 									3.80 	18.40 	5 														
* 		INDIA 	ANDAMAN AND NICOBAR 	BRAK WATER JETTY 2, LITTLE ANDARNAN 	10.58167 	92.56050 	886 									10.40 	312.00 	5 														
* 		INDIA 	ANDAMAN AND NICOBAR 	BRAK WATER JETTY, LITTLE ANDAMAN 	10.58167 	92.56050 	886 									13.90 	135.50 	5 														
* 		INDIA 	ANDAMAN AND NICOBAR 	BRAK WATER JETTY, LITTLE ANDARNAN 	10.58167 	92.56050 	886 									13.90 	135.50 	5 														
* 		INDIA 	ANDAMAN AND NICOBAR 	BUTTERFLY BAY (2), LITTLE ANDAMAN 	10.66544 	92.57469 	894 									15.00 	99.40 	5 														
* 		INDIA 	ANDAMAN AND NICOBAR 	BUTTERFLY BAY, LITTLE ANDAMAN 	10.66544 	92.57469 	894 									10.50 	88.70 	5 														
* 		INDIA 	ANDAMAN AND NICOBAR 	CAR NICOBAR ISLAND, NICOBAR ISLANDS 	9.16700 	92.78300 	734 											1 														
* 		INDIA 	ANDAMAN AND NICOBAR 	CHIDIYATOPU, PORT BLAIR 	11.49931 	92.71664 	974 									3.20 	500.00 	5 														
* 		INDIA 	ANDAMAN AND NICOBAR 	DAMAGED CULVERT, LITTLE ANDAMAN 	10.61897 	92.54236 	891 									10.90 	99.20 	5 														
* 		INDIA 	ANDAMAN AND NICOBAR 	GANDHI GHAT JETTY, BARATONG 	12.30250 	92.78933 	1055 									2.50 	36.40 	5 														
* 		INDIA 	ANDAMAN AND NICOBAR 	GOVINDA NAGAR, HAVELOCK ISLAND 	12.03017 	92.98914 	1019 									3.40 	140.00 	5 														
* 		INDIA 	ANDAMAN AND NICOBAR 	GREAT NICOBAR IS., NICOBAR ISLANDS 	7.00000 	93.83300 	467 											1 														
* 		INDIA 	ANDAMAN AND NICOBAR 	HARBOUR AREA, HAVELOCK ISLAND 	12.03503 	92.98317 	1020 									3.10 	300.00 	5 														
* 		INDIA 	ANDAMAN AND NICOBAR 	HARMINDER BAY, LITTLE ANDAMAN 	10.05239 	92.55108 	833 									7.40 	227.80 	5 														
* 		INDIA 	ANDAMAN AND NICOBAR 	NETAJI NAGAR (2), LITTLE ANDAMAN 	10.63344 	92.55172 	892 									8.60 	74.30 	5 														
* 		INDIA 	ANDAMAN AND NICOBAR 	NETAJI NAGAR (3), LITTLE ANDAMAN 	10.63344 	92.55172 	892 									6.80 	166.00 	5 														
* 		INDIA 	ANDAMAN AND NICOBAR 	NETAJI NAGAR, LITTLE ANDAMAN 	10.63344 	92.55172 	892 									8.00 	61.10 	5 														
* 		INDIA 	ANDAMAN AND NICOBAR 	NILAMPURI JETTY, BARATON 	12.16503 	92.76169 	1041 									2.90 	20.00 	5 														
* 		INDIA 	ANDAMAN AND NICOBAR 	PASSENGER JETTY 2, LITTLE ANDARNAN 	10.58167 	92.58167 	885 									13.10 	143.60 	5 														
* 		INDIA 	ANDAMAN AND NICOBAR 	PASSENGER JETTY, LITTLE ANDARNAN 	10.58167 	92.56050 	886 									17.30 	144.80 	5 														
* 		INDIA 	ANDAMAN AND NICOBAR 	PORT BLAIR, ANDAMAN ISLANDS 	11.68000 	92.77000 	990 	26 	1 	14 	0 	15 				1.75 		2 		R 												
* 		INDIA 	ANDAMAN AND NICOBAR 	RADHA NAGAR, HAVELOCK ISLAND 	11.97931 	92.95172 	1015 									2.00 	100.00 	5 														
* 		INDIA 	ANDAMAN AND NICOBAR 	SOUTH ANDAMAN 	11.49745 	92.70620 	974 									6.11 		5 														
* 		INDIA 	ANDAMAN AND NICOBAR 	SOUTH ANDAMAN 	11.65525 	92.75662 	988 									2.82 		5 														
* 		INDIA 	ANDAMAN AND NICOBAR 	SOUTH ANDAMAN 	11.52792 	92.72562 	976 									3.98 		5 														
* 		INDIA 	ANDAMAN AND NICOBAR 	SOUTH ANDAMAN 	11.64208 	92.74862 	987 									2.30 		5 														
* 		INDIA 	ANDAMAN AND NICOBAR 	SOUTH ANDAMAN 	11.67237 	92.73870 	991 									2.73 		5 														
* 		INDIA 	ANDAMAN AND NICOBAR 	SOUTH ANDAMAN 	11.67183 	92.73825 	991 									2.84 		5 														
* 		INDIA 	ANDAMAN AND NICOBAR 	SOUTH ANDAMAN 	11.49045 	92.71112 	973 									2.46 		5 														
* 		INDIA 	ANDAMAN AND NICOBAR 	SOUTH ANDAMAN 	11.55525 	92.73242 	979 									3.03 		5 														
* 		INDIA 	ANDAMAN AND NICOBAR 	SOUTH POINT MAGAR PAREL, PORT BLAIR 	11.65239 	92.70292 	990 									10.00 	500.00 	5 														
* 		INDIA 	ANDAMAN AND NICOBAR 	VIJAYA NAGAR, HAVELOCK ISLAND 	12.00111 	93.00603 	1016 									3.50 	200.00 	5 														
* 		INDIA 	ANDAMAN AND NICOBAR 	VIJAYA NAGAR, HAVELOCK ISLAND 	12.01331 	93.00800 	1017 									1.70 	200.00 	5 														
* 		INDIA 	ANDAMAN AND NICOBAR 	WANDOOR JETTY (2), PORT BLAIR 	11.59078 	92.60744 	987 									2.40 	300.00 	5 														
* 		INDIA 	ANDAMAN AND NICOBAR 	WANDOOR JETTY, PORT BLAIR 	11.58167 	92.61475 	986 									2.70 	36.70 	5 														
* 		INDIA 	ANDHRA PRADESH 	ADDANKI (SINGRAIKONDA) 	15.81670 	79.98330 	2225 											1 														
* 		INDIA 	ANDHRA PRADESH 	KAVALI, ANDHRA PRADESH 	14.92000 	80.05000 	2160 									2.00 	1000.00 	1 										1 				
* 		INDIA 	ANDHRA PRADESH 	KRISHNA DISTRICT 	16.17000 	81.13000 	2153 											1 			27 	1 								1 		
* 		INDIA 	ANDHRA PRADESH 	MACHALIPATTANAM 	16.16670 	81.13330 	2153 											1 														1
* 		INDIA 	ANDHRA PRADESH 	MYPADU-NELLORE 	14.50525 	80.17853 	2123 									4.53 		5 														
* 		INDIA 	ANDHRA PRADESH 	PALIPAN-KOTTAPATNAM 	15.43305 	80.17367 	2183 									3.22 		5 														
* 		INDIA 	ANDHRA PRADESH 	PALIPAN-KOTTAPATNAM 	15.43538 	80.17622 	2183 									2.93 		5 														
* 		INDIA 	ANDHRA PRADESH 	PALIPAN-KOTTAPATNAM 	15.43795 	80.18092 	2183 									3.14 		5 														
* 		INDIA 	ANDHRA PRADESH 	PRAKASHAM 	15.50000 	80.05000 	2198 											1 			35 	1 										
* 		INDIA 	ANDHRA PRADESH 	VISAKHAPATNAM, ANDHRA PRADESH 	17.65000 	83.28000 	2103 	26 	3 	35 	2 	36 				1.46 		2 		R 								1 				
* 		INDIA 	ANDHRA PRADESH 	VODAREVU 	15.79188 	80.41272 	2187 									1.78 		5 														
* 		INDIA 	ANDHRA PRADESH 	VODAREVU 	15.79200 	80.41087 	2187 									1.80 		5 														
* 		INDIA 	ANDHRA PRADESH 	VODAREVU 	15.79350 	80.41338 	2187 									2.69 		5 														
* 		INDIA 	GOA 	MORMUGAO, GOA 	15.42000 	73.80000 	2765 	26 	6 	53 	5 	54 				.79 		2 		R 												
* 		INDIA 	GUJARAT 	OKHA, GUJARAT 	22.50000 	69.10000 	3587 	26 	9 	3 	8 	4 				.23 		2 		R 												
* 		INDIA 	KARNATAKA 	MANGALORE, KARNATAKA 	12.90000 	74.85000 	2544 											1 														
* 		INDIA 	KARNATAKA 	SURATKAL, KARNATAKA 	12.99000 	74.80833 	2552 											1 														
* 		INDIA 	KERALA 	ALLAPPAD 	9.08330 	76.48330 	2235 											1 			130 	3 								1 		
* 		INDIA 	KERALA 	ALLAPUZHA 	9.49000 	76.33000 	2264 											1 														
* 		INDIA 	KERALA 	ALLAPUZHA 	9.49000 	76.33000 	2264 									3.00 	1000.00 	5 														
* 		INDIA 	KERALA 	ALLAPUZHA 	9.49000 	76.33000 	2264 									4.00 	1000.00 	4 														
* 		INDIA 	KERALA 	ALLEPPEY 	9.49444 	76.31833 	2265 									3.00 		4 														
* 		INDIA 	KERALA 	ANDAKARANAZHI 	9.74778 	76.28417 	2277 									3.50 		4 														
* 		INDIA 	KERALA 	ARATTUPUZHA, ALLAPUZHA 	10.43279 	76.22622 	2306 											1 			28 	1 										
* 		INDIA 	KERALA 	AZHIKKAL 	9.13518 	76.46391 	2239 									4.75 		4 														
* 		INDIA 	KERALA 	AZHIKKAL 	9.10917 	76.47556 	2236 									5.00 		4 														
* 		INDIA 	KERALA 	BEYPORE (CALICUT) 	11.22306 	75.78083 	2381 									2.00 		4 														
* 		INDIA 	KERALA 	CHOOTAD (CANNANORE) 	12.02250 	75.22583 	2469 									3.50 		4 														
* 		INDIA 	KERALA 	DHARMADAM (TELLICHERY) 	11.76917 	75.47222 	2434 									2.50 		4 														
* 		INDIA 	KERALA 	EDAVANAKAD (COCHIN) 	10.07556 	76.19556 	2297 									4.50 		4 														
* 		INDIA 	KERALA 	ERNAKULAM 	9.98000 	76.28000 	2285 									4.00 	1000.00 	4 														
* 		INDIA 	KERALA 	ERNAKULAM 	9.98000 	76.28000 	2285 									2.40 	1000.00 	5 														
* 		INDIA 	KERALA 	ERNAKULAM, EDAVANAKKAD 	10.01500 	76.22000 	2292 											1 			5 	1 							50 	1 	350 	3
* 		INDIA 	KERALA 	KOCHI, KERALA 	9.97000 	76.27000 	2285 	26 	5 	41 	4 	42 				.75 		2 		R 												
* 		INDIA 	KERALA 	KOLLAM 	8.88000 	76.60000 	2217 									4.00 	1000.00 	4 														
* 		INDIA 	KERALA 	KOLLAM 	8.88000 	76.60000 	2217 									3.00 	1000.00 	5 														
* 		INDIA 	KERALA 	NEENDAKARA 	8.93000 	76.54000 	2224 	26 	5 	8 	4 	9 				1.09 		2 		R 												
* 		INDIA 	KERALA 	PARAVUR 	8.81167 	76.64861 	2209 									2.50 		4 														
* 		INDIA 	KERALA 	PONNANI 	10.78111 	75.91556 	2351 									1.00 		4 														
* 		INDIA 	KERALA 	THANGASSERI (QUILON) 	8.88278 	76.56889 	2220 									3.00 		4 														
* 		INDIA 	KERALA 	THIRUVANANTHAPURAM, SINGARATHOP 	8.50690 	76.95690 	2168 											1 														
* 		INDIA 	KERALA 	VALIAZHIKKAL (KAYAMKULAM) 	9.14028 	76.46194 	2239 									5.00 		4 														
* 		INDIA 	KERALA 	VIZHINJAM (TRIVANDRUM) 	8.37639 	76.99222 	2161 									2.50 		4 														
* 		INDIA 	ORISSA 	PARADIP, ORISSA 	20.26000 	86.70000 	2130 	26 	3 	27 	2 	28 				1.59 		2 		R 												
* 		INDIA 	PUDUCHERRY 	KARAIKAL 	10.91670 	79.83330 	1959 											1 			265 	3 										1
* 		INDIA 	PUDUCHERRY 	PUTTUPATTNAM 	11.86030 	79.81543 	2006 									2.64 		5 														
* 		INDIA 	TAMIL NADU 	AARIYANATUTHERU KUPPAM 	10.76333 	79.84861 	1950 									4.68 	1000.00 	5 														
* 		INDIA 	TAMIL NADU 	AKKARAIPETTAI 	10.74278 	79.84944 	1949 									4.02 	500.00 	5 														
* 		INDIA 	TAMIL NADU 	ALAMPARAI 	12.27111 	80.01944 	2007 									4.75 	100.00 	5 														
* 		INDIA 	TAMIL NADU 	ANNAN KOVIL 	11.50417 	79.77028 	1993 									11.12 	400.00 	5 														
* 		INDIA 	TAMIL NADU 	ARCATTUTHURAI/VEDARAYAN 	10.39328 	79.86690 	1932 									3.36 		5 														
* 		INDIA 	TAMIL NADU 	ARUKKATUTHURAI (TOPPUTURAI) 	10.39389 	79.86944 	1932 									6.00 	700.00 	5 														
* 		INDIA 	TAMIL NADU 	ATIRAMPATTINAM 	10.31333 	79.39556 	1976 									2.97 	1000.00 	5 														
* 		INDIA 	TAMIL NADU 	BESANT NAGAR (ELLIOTS BEACH) 	12.99639 	80.27056 	2024 									2.76 	200.00 	5 														
* 		INDIA 	TAMIL NADU 	CHENNAI 	13.08389 	80.27000 	2029 									2.00 	200.00 	5 														
* 		INDIA 	TAMIL NADU 	CHENNAI 	13.10437 	80.30988 	2026 									5.56 		5 			310 	3 						1 				
* 		INDIA 	TAMIL NADU 	CHENNAI 	13.02105 	80.27870 	2024 									2.69 		5 														
* 		INDIA 	TAMIL NADU 	CHENNAI (MADRAS), TAMIL NADU 	13.10000 	80.32000 	2025 	26 	3 	33 	2 	34 				1.62 		2 		R 												
* 		INDIA 	TAMIL NADU 	CHENNAI LIGHT HOUSE 	13.04694 	80.27861 	2026 									2.27 	400.00 	5 														
* 		INDIA 	TAMIL NADU 	CHENNAI, CHERAIN NAGAR 	13.17033 	80.31342 	2030 									4.00 	200.00 	5 														1
* 		INDIA 	TAMIL NADU 	CHINNAKUPPARN 	13.21000 	80.32222 	2031 									3.08 	50.00 	5 														
* 		INDIA 	TAMIL NADU 	COVELONG 	12.78972 	80.25278 	2014 									5.71 	75.00 	5 														
* 		INDIA 	TAMIL NADU 	COVELONG BEACH (NORTH) 	12.79417 	80.25056 	2014 										75.00 	5 														
* 		INDIA 	TAMIL NADU 	COVELONG BEACH (SOUTH) 	12.79111 	80.25250 	2014 										75.00 	5 														
* 		INDIA 	TAMIL NADU 	CUDDALORE 	11.75000 	79.75000 	2007 									4.00 	250.00 	5 														
* 		INDIA 	TAMIL NADU 	CUDDALORE 	11.76167 	79.79056 	2003 									9.08 	1000.00 	5 														
* 		INDIA 	TAMIL NADU 	CUDDALORE 	11.75000 	79.75000 	2007 									9.00 	250.00 	4 														
* 		INDIA 	TAMIL NADU 	CUDDALORE, DEVANAMKUPPAM 	11.73850 	79.78806 	2002 									7.00 	1000.00 	5 														1
* 		INDIA 	TAMIL NADU 	CUDDALORE, KUDDUKULLAM 	11.52536 	79.76306 	1994 									9.00 	500.00 	5 												1 		
* 		INDIA 	TAMIL NADU 	CUDDALORE, MELAMANAKUDI 	11.75000 	79.75000 	2007 											1 			150 	3 						1 				
* 		INDIA 	TAMIL NADU 	CUDDALORE, TALENGUDA 	11.76506 	79.79436 	2003 									6.00 	1000.00 	5 														1
* 		INDIA 	TAMIL NADU 	DEVANAANPATTINAM 	11.74647 	79.78975 	2003 									2.95 		5 														
* 		INDIA 	TAMIL NADU 	DEVANAANPATTINAM 	11.74953 	79.78888 	2003 									2.19 	160.00 	5 														
* 		INDIA 	TAMIL NADU 	DEVANAANPATTINAM 	11.74215 	79.78208 	2003 										340.00 	5 														
* 		INDIA 	TAMIL NADU 	DEVANAANPATTINAM 	11.74278 	79.78862 	2003 									8.89 		5 														1
* 		INDIA 	TAMIL NADU 	DEVANAANPATTINAM 	11.74595 	79.78817 	2003 									4.59 		5 														
* 		INDIA 	TAMIL NADU 	DEVANAANPATTINAM 	11.74293 	79.78717 	2003 									2.51 		5 														
* 		INDIA 	TAMIL NADU 	DEVANAMPATTINAM FISHING VILLAGE 	11.74722 	79.78833 	2003 									11.25 	1000.00 	5 														
* 		INDIA 	TAMIL NADU 	FORESHORE ESTATE 	13.03056 	80.27639 	2025 									4.51 	400.00 	5 														
* 		INDIA 	TAMIL NADU 	KALAPAKKOM 	12.50545 	80.16000 	2007 									3.19 	360.00 	5 														
* 		INDIA 	TAMIL NADU 	KALAPAKKOM 	12.50663 	80.15825 	2007 									2.34 		5 														
* 		INDIA 	TAMIL NADU 	KALAPAKKOM 	12.50630 	80.16147 	2007 									4.11 		5 														
* 		INDIA 	TAMIL NADU 	KALLAR VILLAGE 	10.82722 	79.84278 	1954 									4.30 	1500.00 	5 														
* 		INDIA 	TAMIL NADU 	KALPAKKAM BEACH 	12.53056 	80.16639 	2007 										200.00 	5 														
* 		INDIA 	TAMIL NADU 	KALPAKKAM, KANCHEEPURAM 	12.51300 	80.15670 	2007 									2.00 	1000.00 	5 														
* 		INDIA 	TAMIL NADU 	KALPAKKAM, KANCHEEPURAM 	12.51300 	80.15670 	2007 									4.00 	1000.00 	4 														
* 		INDIA 	TAMIL NADU 	KAMESHWARAM 	10.62417 	79.85389 	1943 									6.64 	600.00 	5 														
* 		INDIA 	TAMIL NADU 	KANNIYAKUMARI BEACH 	8.09028 	77.55833 	2093 										700.00 	5 														
* 		INDIA 	TAMIL NADU 	KANNIYAKUMARI, KOLACHEL 	8.17000 	77.24000 	2129 											1 			300 	3 										
* 		INDIA 	TAMIL NADU 	KANYAKUMARI 	8.07800 	77.54100 	2094 									2.40 	400.00 	5 														
* 		INDIA 	TAMIL NADU 	KANYAKUMARI 	8.07800 	77.54100 	2094 									10.00 	400.00 	4 										1 				
* 		INDIA 	TAMIL NADU 	KANYAKUMARI, COLACHAL 	8.17519 	77.30628 	2122 									11.00 	2000.00 	5 														
* 		INDIA 	TAMIL NADU 	KANYAKUMARI, HARBOR 	8.07886 	77.55336 	2093 									7.00 	500.00 	5 														1
* 		INDIA 	TAMIL NADU 	KANYAKUMARI, KEELAMANAKUDY 	8.08831 	77.48650 	2100 									12.00 	2000.00 	5 														1
* 		INDIA 	TAMIL NADU 	KANYAKUMARI, MEELAMANAKUDY 	8.10803 	77.40372 	2110 									12.00 	2000.00 	5 												1 		
* 		INDIA 	TAMIL NADU 	KARAIKAL BEACH 	10.90861 	79.84861 	1957 									4.48 	1000.00 	5 														
* 		INDIA 	TAMIL NADU 	KARUKALACHERI, CUDDALORE 														1 			25 	1 								1 		1
* 		INDIA 	TAMIL NADU 	KAVERIPOOMPATTINAM 	11.14333 	79.85667 	1967 									5.72 	1000.00 	5 														
* 		INDIA 	TAMIL NADU 	KOLACHEL PORT 	8.19028 	77.25139 	2128 										800.00 	5 														
* 		INDIA 	TAMIL NADU 	KORAIKUPPARN 	13.38139 	80.33417 	2040 									3.20 	200.00 	5 														
* 		INDIA 	TAMIL NADU 	KOTTIVAKKAM 	12.96444 	80.26333 	2023 									4.85 	300.00 	5 														
* 		INDIA 	TAMIL NADU 	KOVALAM 	12.79092 	80.25005 	2014 									4.34 	180.00 	5 														
* 		INDIA 	TAMIL NADU 	KOVALAM 	12.79092 	80.25005 	2014 									3.15 		5 														
* 		INDIA 	TAMIL NADU 	KOVALAM 	12.78873 	80.25390 	2014 									2.71 		5 														
* 		INDIA 	TAMIL NADU 	KOVALAM 	12.78718 	80.25343 	2013 									3.35 		5 														
* 		INDIA 	TAMIL NADU 	KOVALAM 	12.78338 	80.25075 	2014 									5.43 		5 														
* 		INDIA 	TAMIL NADU 	MAMALLAPURAM (SHORE TEMPLE) 	12.61417 	80.19750 	2009 										150.00 	5 														
* 		INDIA 	TAMIL NADU 	MANAKUDY VILLAGE 	8.09000 	77.48750 	2100 										1500.00 	5 														
* 		INDIA 	TAMIL NADU 	MARINA BEACH 	13.04028 	80.28000 	2025 									2.23 	200.00 	5 														
* 		INDIA 	TAMIL NADU 	MARITIME BOARD PO, CUDDALORE 	11.70778 	79.77500 	2002 									2.76 	250.00 	5 														
* 		INDIA 	TAMIL NADU 	MUTTUKADU 	12.83167 	80.24750 	2017 									4.10 	30.00 	5 														
* 		INDIA 	TAMIL NADU 	N AGAPPATTINAM PORT 	10.75778 	79.84722 	1950 									4.59 	500.00 	5 														
* 		INDIA 	TAMIL NADU 	NAGAPATTINAM 	10.77000 	79.83000 	1952 									10.00 	1000.00 	4 			6051 	4 										
* 		INDIA 	TAMIL NADU 	NAGAPATTINAM 	10.77000 	79.83000 	1952 									5.00 	1000.00 	5 														
* 		INDIA 	TAMIL NADU 	NAGAPATTINAM , BEACH 	10.78208 	79.85161 	1951 									12.00 	3000.00 	5 														1
* 		INDIA 	TAMIL NADU 	NAGAPATTINAM PORT 	10.76308 	79.84880 	1950 									5.16 		5 														
* 		INDIA 	TAMIL NADU 	NAGAPATTINAM PORT 	10.76308 	79.84880 	1950 									7.16 		5 														
* 		INDIA 	TAMIL NADU 	NAGAPATTINAM VILLAGE 	10.77462 	79.84650 	1951 									4.34 	800.00 	5 														
* 		INDIA 	TAMIL NADU 	NAGAPATTINAM, AKKARAIPETTAI 	10.76670 	79.83330 	1952 											1 										1 				1
* 		INDIA 	TAMIL NADU 	NAGAPATTINAM, HARBOR 	10.76164 	79.85072 	1950 									12.00 	2000.00 	5 														1
* 		INDIA 	TAMIL NADU 	NAGAPATTINAM, NAGORE 	10.82000 	79.85000 	1953 											1 												4 		4
* 		INDIA 	TAMIL NADU 	NAGAPATTINAM, SERUTHUR 	10.67400 	79.85100 	1946 											1 			131 	3 										
* 		INDIA 	TAMIL NADU 	NAGAPATTINAM, VELANKANNI 	10.70000 	79.80000 	1952 										1000.00 	1 			2000 	4 										1
* 		INDIA 	TAMIL NADU 	NAGORE 	10.82222 	79.84917 	1953 									5.81 	1000.00 	5 														
* 		INDIA 	TAMIL NADU 	NEAR PALAR RIVER MOUTH 	12.45056 	80.14333 	2005 										400.00 	5 														
* 		INDIA 	TAMIL NADU 	NETTUKUPPARN 	13.23167 	80.33000 	2032 									3.16 	70.00 	5 														
* 		INDIA 	TAMIL NADU 	NORTH OF CUDDALORE 	11.80611 	79.80639 	2004 										500.00 	5 														
* 		INDIA 	TAMIL NADU 	NORTH OF MAMALLAPURAM 	12.67556 	80.21611 	2011 										100.00 	5 														
* 		INDIA 	TAMIL NADU 	NORTH OF TIRUMULLAIVASAL 	11.33417 	79.86139 	1975 										700.00 	5 														
* 		INDIA 	TAMIL NADU 	ONDIKUPPAM (KASIMEDU) 	13.15417 	80.30472 	2030 									3.81 	100.00 	5 														
* 		INDIA 	TAMIL NADU 	PATTINAOAKKAM 	13.01745 	80.27710 	2024 									3.01 	140.00 	5 														
* 		INDIA 	TAMIL NADU 	PERANGIPETTINAM 	11.51640 	79.76665 	1994 									3.40 		5 														
* 		INDIA 	TAMIL NADU 	PERANGIPETTINAM 	11.51608 	79.76578 	1994 									2.80 		5 														
* 		INDIA 	TAMIL NADU 	PERANGIPETTINAM 	11.50780 	79.76653 	1993 									2.82 		5 														
* 		INDIA 	TAMIL NADU 	PERANGIPETTINAM 	11.51638 	79.76632 	1994 									2.90 		5 														
* 		INDIA 	TAMIL NADU 	PERIAKALAPET 	12.02600 	79.86500 	2010 									3.90 		5 														
* 		INDIA 	TAMIL NADU 	PERIAKALAPET 	12.02573 	79.86480 	2010 									2.63 		5 														
* 		INDIA 	TAMIL NADU 	PERIAKALAPET 	12.02847 	79.86583 	2010 									5.57 	170.00 	5 														
* 		INDIA 	TAMIL NADU 	PERIYAKALAPETTAIKUPPAM 	12.02583 	79.86639 	2009 									6.93 	400.00 	5 														
* 		INDIA 	TAMIL NADU 	PERUNTHURAVU 	12.37750 	80.09194 	2006 									4.59 	50.00 	5 														
* 		INDIA 	TAMIL NADU 	PETTAIKUPPAM 	12.13611 	79.92917 	2009 									3.29 	100.00 	5 														
* 		INDIA 	TAMIL NADU 	PIYAKUPPAM 	12.44528 	80.14333 	2005 									5.67 	600.00 	5 														
* 		INDIA 	TAMIL NADU 	PONDICHERRY BEACH 	11.93611 	79.83639 	2008 										25.00 	5 														
* 		INDIA 	TAMIL NADU 	PONDICHERRY, CHINAPATTAM 	12.00964 	79.85403 	2010 									5.00 	2000.00 	5 			51 	2 										1
* 		INDIA 	TAMIL NADU 	PORTO NOVA 	11.49111 	79.76556 	1992 									2.32 	1500.00 	5 														
* 		INDIA 	TAMIL NADU 	PULICAT 	13.38360 	80.33278 	2040 									2.67 	160.00 	5 														
* 		INDIA 	TAMIL NADU 	PULICAT 	13.41662 	80.32813 	2043 									4.07 		5 														
* 		INDIA 	TAMIL NADU 	PULICAT 	13.38303 	80.33225 	2040 									1.32 		5 														
* 		INDIA 	TAMIL NADU 	PULICAT 	13.38262 	80.33292 	2040 									3.44 		5 														
* 		INDIA 	TAMIL NADU 	PULICAT LAKE LIGHT HOUSE 	13.41972 	80.32889 	2043 									2.90 	100.00 	5 														
* 		INDIA 	TAMIL NADU 	PUMANKUPPAM 	11.87528 	79.84750 	2004 										75.00 	5 														
* 		INDIA 	TAMIL NADU 	RAMESWARAM, TAMIL NADU 	9.30000 	79.31700 	1945 											1 														
* 		INDIA 	TAMIL NADU 	SILVER BEACH, CUDDALORE 	11.75000 	79.75000 	2007 											1 			37 	1 						2 				
* 		INDIA 	TAMIL NADU 	SILVER BEACH, DEVANAMPATTINAM 	11.74722 	79.78806 	2003 									7.55 	1000.00 	5 														
* 		INDIA 	TAMIL NADU 	SOTHAVILAI 	8.07800 	77.54100 	2094 											1 			200 	3 										
* 		INDIA 	TAMIL NADU 	SOUTH OF ALAPPAKAM 	11.58667 	79.73611 	2000 										500.00 	5 														
* 		INDIA 	TAMIL NADU 	SUNNANKUPPARN 	13.39472 	80.33222 	2041 									3.12 	350.00 	5 														
* 		INDIA 	TAMIL NADU 	TARANGAMBADI 	11.02556 	79.85583 	1961 									8.56 	100.00 	5 														
* 		INDIA 	TAMIL NADU 	TARANGAMBADI 	11.02700 	79.85583 	1961 									4.40 	400.00 	5 														
* 		INDIA 	TAMIL NADU 	TARANGAMBADI FISHING VILLAGE 	11.03000 	79.85639 	1962 									4.61 	100.00 	5 														
* 		INDIA 	TAMIL NADU 	THAZHANGUDA ( CUDDALORE) 	11.76139 	79.79111 	2003 									3.66 	1000.00 	5 														
* 		INDIA 	TAMIL NADU 	TIRUMULLAIVASAL 	11.24194 	79.84361 	1973 									5.22 	1000.00 	5 														
* 		INDIA 	TAMIL NADU 	TIRUVANMIYUR 	12.97667 	80.26944 	2023 									3.23 	100.00 	5 														
* 		INDIA 	TAMIL NADU 	TIRUVANMIYUR BEACH 	12.97083 	80.26500 	2023 									3.65 	100.00 	5 														
* 		INDIA 	TAMIL NADU 	TUTICORIN, PORT 	8.74961 	78.19653 	2044 									3.00 	200.00 	5 														
* 		INDIA 	TAMIL NADU 	TUTICORIN, TAMIL NADU 	8.75000 	78.20000 	2043 	26 	4 	24 	3 	25 				.91 		2 		R 												
* 		INDIA 	TAMIL NADU 	VELANGANNI 	10.67472 	79.84722 	1946 									4.90 	1500.00 	5 														
* 		INDIA 	TAMIL NADU 	VENPURASHAM (NEAR MAMALLAPURAM) 	12.59833 	80.19083 	2009 									5.74 	200.00 	5 														
* 		INDIA 	TAMIL NADU 	VGP GOLDEN BEACH 	12.91111 	80.25528 	2020 									3.20 	100.00 	5 														
* 		INDIA 	TAMIL NADU 	WEST OF KALLIMODU 	10.50167 	79.86194 	1937 										400.00 	5 														
* 		INDIA 	TAMIL NADU 	WEST OF TIRUPPORUR 	12.74694 	80.24250 	2012 										100.00 	5 														
* 		INDIA 	TAMIL NADU 	WEST OF TIRUPPORUR 	12.74750 	80.24333 	2012 										100.00 	5 														
* 		INDIA 		ALL OF INDIA 												17.30 		5 			16269 	4 					1022.8 	4 	235377 	4 		
* 		INDONESIA 	ACEH 	ACEH, SUMATRA 	5.43300 	95.23600 	245 									26.10 		5 														
* 		INDONESIA 	ACEH 	ACEH, SUMATRA 	5.56900 	95.34100 	257 									6.10 		5 														
* 		INDONESIA 	ACEH 	ACEH, SUMATRA 	5.60200 	95.38300 	260 									10.70 		5 														
* 		INDONESIA 	ACEH 	ACEH, SUMATRA 	5.61000 	95.39700 	260 									11.00 		5 														
* 		INDONESIA 	ACEH 	ACEH, SUMATRA 	5.28600 	95.24400 	229 									11.10 		5 														
* 		INDONESIA 	ACEH 	ACEH, SUMATRA 	5.64900 	95.41600 	264 									4.20 		5 														
* 		INDONESIA 	ACEH 	ACEH, SUMATRA 	5.64800 	95.41500 	264 									4.90 		5 														
* 		INDONESIA 	ACEH 	ACEH, SUMATRA 	5.62100 	95.39800 	261 									6.00 		5 														
* 		INDONESIA 	ACEH 	ACEH, SUMATRA 	5.64700 	95.41500 	264 									7.00 		5 														
* 		INDONESIA 	ACEH 	ACEH, SUMATRA 	5.64800 	95.41500 	264 									7.10 		5 														
* 		INDONESIA 	ACEH 	ACEH, SUMATRA 	5.64900 	95.41600 	264 									7.20 		5 														
* 		INDONESIA 	ACEH 	ACEH, SUMATRA 	5.64800 	95.41500 	264 									7.20 		5 														
* 		INDONESIA 	ACEH 	ACEH, SUMATRA 	5.65000 	95.42200 	264 									7.50 		5 														
* 		INDONESIA 	ACEH 	ACEH, SUMATRA 	5.60900 	95.39800 	260 									7.70 		5 														
* 		INDONESIA 	ACEH 	ACEH, SUMATRA 	5.64700 	95.41400 	264 									8.20 		5 														
* 		INDONESIA 	ACEH 	ACEH, SUMATRA 	5.60000 	95.37900 	259 									8.60 		5 														
* 		INDONESIA 	ACEH 	ACEH, SUMATRA 	5.28600 	95.25100 	229 									10.40 		5 														
* 		INDONESIA 	ACEH 	ACEH, SUMATRA 	5.56600 	95.32700 	257 									4.60 		5 														
* 		INDONESIA 	ACEH 	ACEH, SUMATRA 	5.56600 	95.32700 	257 									4.60 		5 														
* 		INDONESIA 	ACEH 	ACEH, SUMATRA 	5.57000 	95.33400 	257 									4.70 		5 														
* 		INDONESIA 	ACEH 	ACEH, SUMATRA 	5.56500 	95.33000 	257 									4.90 		5 														
* 		INDONESIA 	ACEH 	ACEH, SUMATRA 	5.47700 	95.26500 	249 									4.90 		5 														
* 		INDONESIA 	ACEH 	ACEH, SUMATRA 	5.56500 	95.31200 	257 									4.90 		5 														
* 		INDONESIA 	ACEH 	ACEH, SUMATRA 	5.63100 	95.40400 	262 									5.00 		5 														
* 		INDONESIA 	ACEH 	ACEH, SUMATRA 	5.57200 	95.34400 	257 									5.10 		5 														
* 		INDONESIA 	ACEH 	ACEH, SUMATRA 	5.57100 	95.32800 	258 									7.80 		5 														
* 		INDONESIA 	ACEH 	ACEH, SUMATRA 	5.57300 	95.32800 	258 									7.90 		5 														
* 		INDONESIA 	ACEH 	ACEH, SUMATRA 	5.55300 	95.30900 	256 									8.00 		5 														
* 		INDONESIA 	ACEH 	ACEH, SUMATRA 	5.48900 	95.26300 	250 									8.00 		5 														
* 		INDONESIA 	ACEH 	ACEH, SUMATRA 	5.57500 	95.32500 	258 									8.00 		5 														
* 		INDONESIA 	ACEH 	ACEH, SUMATRA 	5.59500 	95.37100 	259 									8.00 		5 														
* 		INDONESIA 	ACEH 	ACEH, SUMATRA 	5.55700 	95.31500 	256 									8.10 		5 														
* 		INDONESIA 	ACEH 	ACEH, SUMATRA 	5.55200 	95.30900 	256 									8.10 		5 														
* 		INDONESIA 	ACEH 	ACEH, SUMATRA 	5.48000 	95.24300 	250 									8.10 		5 														
* 		INDONESIA 	ACEH 	ACEH, SUMATRA 	5.59400 	95.37200 	259 									8.10 		5 														
* 		INDONESIA 	ACEH 	ACEH, SUMATRA 	5.59300 	95.37100 	259 									8.10 		5 														
* 		INDONESIA 	ACEH 	ACEH, SUMATRA 	5.56200 	95.31700 	257 									8.20 		5 														
* 		INDONESIA 	ACEH 	ACEH, SUMATRA 	5.53000 	95.28600 	254 									8.20 		5 														
* 		INDONESIA 	ACEH 	ACEH, SUMATRA 	5.51400 	95.27000 	253 									8.20 		5 														
* 		INDONESIA 	ACEH 	ACEH, SUMATRA 	5.53300 	95.29400 	254 									8.20 		5 														
* 		INDONESIA 	ACEH 	ACEH, SUMATRA 	5.52600 	95.27300 	254 									8.20 		5 														
* 		INDONESIA 	ACEH 	ACEH, SUMATRA 	5.59500 	95.37200 	259 									8.20 		5 														
* 		INDONESIA 	ACEH 	ACEH, SUMATRA 	5.57100 	95.32700 	258 									8.50 		5 														
* 		INDONESIA 	ACEH 	ACEH, SUMATRA 	5.54600 	95.29800 	256 									8.50 		5 														
* 		INDONESIA 	ACEH 	ACEH, SUMATRA 	5.57100 	95.32800 	258 									8.50 		5 														
* 		INDONESIA 	ACEH 	ACEH, SUMATRA 	5.60500 	95.38800 	260 									8.50 		5 														
* 		INDONESIA 	ACEH 	ACEH, SUMATRA 	5.61000 	95.38900 	260 									8.50 		5 														
* 		INDONESIA 	ACEH 	ACEH, SUMATRA 	5.59300 	95.37100 	259 									8.70 		5 														
* 		INDONESIA 	ACEH 	ACEH, SUMATRA 	5.58300 	95.35100 	258 									8.80 		5 														
* 		INDONESIA 	ACEH 	ACEH, SUMATRA 	5.48000 	95.26700 	249 									8.80 		5 														
* 		INDONESIA 	ACEH 	ACEH, SUMATRA 	5.54800 	95.30500 	256 									8.80 		5 														
* 		INDONESIA 	ACEH 	ACEH, SUMATRA 	5.48600 	95.22800 	251 									23.50 		5 														
* 		INDONESIA 	ACEH 	ACEH, SUMATRA 	5.46500 	95.24200 	248 									24.10 		5 														
* 		INDONESIA 	ACEH 	ACEH, SUMATRA 	5.44500 	95.24300 	246 									24.50 		5 														
* 		INDONESIA 	ACEH 	ACEH, SUMATRA 	5.46000 	95.24600 	248 									24.80 		5 														
* 		INDONESIA 	ACEH 	ACEH, SUMATRA 	5.31400 	95.24000 	232 									25.20 		5 														
* 		INDONESIA 	ACEH 	ACEH, SUMATRA 	5.28300 	95.24700 	229 									25.50 		5 														
* 		INDONESIA 	ACEH 	ACEH, SUMATRA 	5.35500 	95.24200 	237 									25.60 		5 														
* 		INDONESIA 	ACEH 	ACEH, SUMATRA 	5.43600 	95.23500 	246 									26.30 		5 														
* 		INDONESIA 	ACEH 	ACEH, SUMATRA 	5.46300 	95.24200 	248 									26.50 		5 														
* 		INDONESIA 	ACEH 	ACEH, SUMATRA 	5.50000 	95.22700 	253 									26.80 		5 														
* 		INDONESIA 	ACEH 	ACEH, SUMATRA 	5.47200 	95.24300 	249 									27.00 		5 														
* 		INDONESIA 	ACEH 	ACEH, SUMATRA 	5.47200 	95.24300 	249 									27.00 		5 														
* 		INDONESIA 	ACEH 	ACEH, SUMATRA 	5.43300 	95.23100 	245 									27.10 		5 														
* 		INDONESIA 	ACEH 	ACEH, SUMATRA 	5.43000 	95.23300 	245 									27.60 		5 														
* 		INDONESIA 	ACEH 	ACEH, SUMATRA 	5.45000 	95.24200 	247 									27.80 		5 														
* 		INDONESIA 	ACEH 	ACEH, SUMATRA 	5.46100 	95.24500 	248 									28.20 		5 														
* 		INDONESIA 	ACEH 	ACEH, SUMATRA 	5.49800 	95.22800 	252 									29.30 		5 														
* 		INDONESIA 	ACEH 	ACEH, SUMATRA 	5.35400 	95.24300 	237 									29.60 		5 														
* 		INDONESIA 	ACEH 	ACEH, SUMATRA 	5.45100 	95.24300 	247 									29.70 		5 														
* 		INDONESIA 	ACEH 	ACEH, SUMATRA 	5.46000 	95.24600 	248 									29.80 		5 														
* 		INDONESIA 	ACEH 	ACEH, SUMATRA 	5.48500 	95.22800 	251 									30.50 		5 														
* 		INDONESIA 	ACEH 	ACEH, SUMATRA 	5.49600 	95.22900 	252 									30.60 		5 														
* 		INDONESIA 	ACEH 	ACEH, SUMATRA 	5.49900 	95.22900 	253 									34.70 		5 														
* 		INDONESIA 	ACEH 	ACEH, SUMATRA 	5.45600 	95.24600 	247 									35.70 		5 														
* 		INDONESIA 	ACEH 	ACEH, SUMATRA 	5.35100 	95.24600 	236 									40.20 		5 														
* 		INDONESIA 	ACEH 	ACEH, SUMATRA 	5.42900 	95.23400 	245 									50.90 		5 														
* 		INDONESIA 	ACEH 	ACEH, SUMATRA 	5.63100 	95.40500 	262 									2.10 		5 														
* 		INDONESIA 	ACEH 	ACEH, SUMATRA 	5.56200 	95.34400 	256 									2.90 		5 														
* 		INDONESIA 	ACEH 	ACEH, SUMATRA 	5.56200 	95.34400 	256 									3.10 		5 														
* 		INDONESIA 	ACEH 	ACEH, SUMATRA 	5.55800 	95.32100 	256 									3.40 		5 														
* 		INDONESIA 	ACEH 	ACEH, SUMATRA 	5.56700 	95.34400 	257 									3.50 		5 														
* 		INDONESIA 	ACEH 	ACEH, SUMATRA 	5.56700 	95.34300 	257 									3.60 		5 														
* 		INDONESIA 	ACEH 	ACEH, SUMATRA 	5.56600 	95.34100 	257 									3.70 		5 														
* 		INDONESIA 	ACEH 	ACEH, SUMATRA 	5.56200 	95.32600 	257 									4.00 		5 														
* 		INDONESIA 	ACEH 	ACEH, SUMATRA 	5.55700 	95.32000 	256 									4.00 		5 														
* 		INDONESIA 	ACEH 	ACEH, SUMATRA 	5.59000 	95.39200 	258 									4.10 		5 														
* 		INDONESIA 	ACEH 	ACEH, SUMATRA 	5.57100 	95.34500 	257 									4.50 		5 														
* 		INDONESIA 	ACEH 	ACEH, SUMATRA 	5.59000 	95.39200 	258 									4.50 		5 														
* 		INDONESIA 	ACEH 	ACEH, SUMATRA 	5.48600 	95.22800 	251 									17.50 		5 														
* 		INDONESIA 	ACEH 	ACEH, SUMATRA 	5.38100 	95.26000 	239 									17.80 		5 														
* 		INDONESIA 	ACEH 	ACEH, SUMATRA 	5.42700 	95.23500 	245 									18.20 		5 														
* 		INDONESIA 	ACEH 	ACEH, SUMATRA 	5.44200 	95.24100 	246 									18.30 		5 														
* 		INDONESIA 	ACEH 	ACEH, SUMATRA 	5.44200 	95.24100 	246 									18.40 		5 														
* 		INDONESIA 	ACEH 	ACEH, SUMATRA 	5.49900 	95.22300 	253 									18.50 		5 														
* 		INDONESIA 	ACEH 	ACEH, SUMATRA 	5.47600 	95.23700 	250 									18.90 		5 														
* 		INDONESIA 	ACEH 	ACEH, SUMATRA 	5.45200 	95.24400 	247 									19.50 		5 														
* 		INDONESIA 	ACEH 	ACEH, SUMATRA 	5.42000 	95.24800 	243 									19.50 		5 														
* 		INDONESIA 	ACEH 	ACEH, SUMATRA 	5.48500 	95.22800 	251 									19.70 		5 														
* 		INDONESIA 	ACEH 	ACEH, SUMATRA 	5.20100 	95.28400 	219 									20.00 		5 														
* 		INDONESIA 	ACEH 	ACEH, SUMATRA 	5.55800 	95.23500 	259 									20.00 		5 														
* 		INDONESIA 	ACEH 	ACEH, SUMATRA 	5.47200 	95.23800 	249 									20.20 		5 														
* 		INDONESIA 	ACEH 	ACEH, SUMATRA 	5.47600 	95.23800 	250 									20.70 		5 														
* 		INDONESIA 	ACEH 	ACEH, SUMATRA 	5.20000 	95.28400 	219 									21.00 		5 														
* 		INDONESIA 	ACEH 	ACEH, SUMATRA 	5.31600 	95.23800 	233 									21.20 		5 														
* 		INDONESIA 	ACEH 	ACEH, SUMATRA 	5.49700 	95.22800 	252 									21.50 		5 														
* 		INDONESIA 	ACEH 	ACEH, SUMATRA 	5.42800 	95.24000 	245 									21.50 		5 														
* 		INDONESIA 	ACEH 	ACEH, SUMATRA 	5.46800 	95.24200 	249 									21.60 		5 														
* 		INDONESIA 	ACEH 	ACEH, SUMATRA 	5.49900 	95.22600 	253 									21.70 		5 														
* 		INDONESIA 	ACEH 	ACEH, SUMATRA 	5.43500 	95.23400 	246 									21.70 		5 														
* 		INDONESIA 	ACEH 	ACEH, SUMATRA 	5.63100 	95.39700 	262 									21.80 		5 														
* 		INDONESIA 	ACEH 	ACEH, SUMATRA 	5.47600 	95.23600 	250 									22.50 		5 														
* 		INDONESIA 	ACEH 	ACEH, SUMATRA 	5.43200 	95.23500 	245 									22.60 		5 														
* 		INDONESIA 	ACEH 	ACEH, SUMATRA 	5.46400 	95.24700 	248 									23.10 		5 														
* 		INDONESIA 	ACEH 	ACEH, SUMATRA 	5.31400 	95.24100 	232 									23.50 		5 														
* 		INDONESIA 	ACEH 	ACEH, SUMATRA 	5.53300 	95.30400 	254 									5.70 		5 														
* 		INDONESIA 	ACEH 	ACEH, SUMATRA 	5.59600 	95.39400 	259 									5.70 		5 														
* 		INDONESIA 	ACEH 	ACEH, SUMATRA 	5.58000 	95.35000 	258 									5.80 		5 														
* 		INDONESIA 	ACEH 	ACEH, SUMATRA 	5.57100 	95.34400 	257 									5.90 		5 														
* 		INDONESIA 	ACEH 	ACEH, SUMATRA 	5.52000 	95.27200 	253 									5.90 		5 														
* 		INDONESIA 	ACEH 	ACEH, SUMATRA 	5.54000 	95.30700 	255 									6.00 		5 														
* 		INDONESIA 	ACEH 	ACEH, SUMATRA 	5.57900 	95.35100 	258 									6.00 		5 														
* 		INDONESIA 	ACEH 	ACEH, SUMATRA 	5.47800 	95.26500 	249 									6.00 		5 														
* 		INDONESIA 	ACEH 	ACEH, SUMATRA 	5.59500 	95.38500 	259 									6.20 		5 														
* 		INDONESIA 	ACEH 	ACEH, SUMATRA 	5.57300 	95.34200 	257 									6.30 		5 														
* 		INDONESIA 	ACEH 	ACEH, SUMATRA 	5.59400 	95.37100 	259 									6.30 		5 														
* 		INDONESIA 	ACEH 	ACEH, SUMATRA 	5.48000 	95.24400 	250 									6.50 		5 														
* 		INDONESIA 	ACEH 	ACEH, SUMATRA 	5.53100 	95.28800 	254 									6.60 		5 														
* 		INDONESIA 	ACEH 	ACEH, SUMATRA 	5.59400 	95.37100 	259 									6.60 		5 														
* 		INDONESIA 	ACEH 	ACEH, SUMATRA 	5.59800 	95.39000 	259 									6.60 		5 														
* 		INDONESIA 	ACEH 	ACEH, SUMATRA 	5.57900 	95.35100 	258 									6.70 		5 														
* 		INDONESIA 	ACEH 	ACEH, SUMATRA 	5.57500 	95.32500 	258 									6.80 		5 														
* 		INDONESIA 	ACEH 	ACEH, SUMATRA 	5.53000 	95.28700 	254 									6.80 		5 														
* 		INDONESIA 	ACEH 	ACEH, SUMATRA 	5.59600 	95.38500 	259 									6.90 		5 														
* 		INDONESIA 	ACEH 	ACEH, SUMATRA 	5.48800 	95.26700 	250 									7.00 		5 														
* 		INDONESIA 	ACEH 	ACEH, SUMATRA 	5.48700 	95.26400 	250 									7.10 		5 														
* 		INDONESIA 	ACEH 	ACEH, SUMATRA 	5.53600 	95.30500 	254 									7.10 		5 														
* 		INDONESIA 	ACEH 	ACEH, SUMATRA 	5.59600 	95.38500 	259 									7.10 		5 														
* 		INDONESIA 	ACEH 	ACEH, SUMATRA 	5.55600 	95.31500 	256 									7.20 		5 														
* 		INDONESIA 	ACEH 	ACEH, SUMATRA 	5.59400 	95.37100 	259 									7.20 		5 														
* 		INDONESIA 	ACEH 	ACEH, SUMATRA 	5.57500 	95.32800 	258 									7.30 		5 														
* 		INDONESIA 	ACEH 	ACEH, SUMATRA 	5.61400 	95.39900 	261 									7.30 		5 														
* 		INDONESIA 	ACEH 	ACEH, SUMATRA 	5.59700 	95.38500 	259 									7.40 		5 														
* 		INDONESIA 	ACEH 	ACEH, SUMATRA 	5.59600 	95.39300 	259 									7.40 		5 														
* 		INDONESIA 	ACEH 	ACEH, SUMATRA 	5.57500 	95.34100 	258 									7.50 		5 														
* 		INDONESIA 	ACEH 	ACEH, SUMATRA 	5.57500 	95.34200 	258 									7.50 		5 														
* 		INDONESIA 	ACEH 	ACEH, SUMATRA 	5.57400 	95.34500 	257 									7.60 		5 														
* 		INDONESIA 	ACEH 	ACEH, SUMATRA 	5.48000 	95.24300 	250 									7.60 		5 														
* 		INDONESIA 	ACEH 	ACEH, SUMATRA 	5.57500 	95.32500 	258 									7.70 		5 														
* 		INDONESIA 	ACEH 	ACEH, SUMATRA 	5.57500 	95.32500 	258 									7.70 		5 														
* 		INDONESIA 	ACEH 	ACEH, SUMATRA 	5.48100 	95.24400 	250 									7.80 		5 														
* 		INDONESIA 	ACEH 	ACEH, SUMATRA 	5.55800 	95.31100 	257 									7.80 		5 														
* 		INDONESIA 	ACEH 	ACEH, SUMATRA 	5.57100 	95.32800 	258 									7.80 		5 														
* 		INDONESIA 	ACEH 	ACEH, SUMATRA 	5.57700 	95.32900 	258 									12.40 		5 														
* 		INDONESIA 	ACEH 	ACEH, SUMATRA 	5.55600 	95.29300 	257 									12.60 		5 														
* 		INDONESIA 	ACEH 	ACEH, SUMATRA 	5.55100 	95.30100 	256 									12.70 		5 														
* 		INDONESIA 	ACEH 	ACEH, SUMATRA 	5.53200 	95.28900 	254 									12.70 		5 														
* 		INDONESIA 	ACEH 	ACEH, SUMATRA 	5.54300 	95.24700 	257 									12.80 		5 														
* 		INDONESIA 	ACEH 	ACEH, SUMATRA 	5.55500 	95.30600 	256 									13.00 		5 														
* 		INDONESIA 	ACEH 	ACEH, SUMATRA 	5.47300 	95.25500 	249 									13.00 		5 														
* 		INDONESIA 	ACEH 	ACEH, SUMATRA 	5.61000 	95.39700 	260 									13.40 		5 														
* 		INDONESIA 	ACEH 	ACEH, SUMATRA 	5.48900 	95.23300 	251 									13.50 		5 														
* 		INDONESIA 	ACEH 	ACEH, SUMATRA 	5.54000 	95.29800 	255 									13.70 		5 														
* 		INDONESIA 	ACEH 	ACEH, SUMATRA 	5.53400 	95.29200 	254 									13.80 		5 														
* 		INDONESIA 	ACEH 	ACEH, SUMATRA 	5.53900 	95.25600 	256 									14.00 		5 														
* 		INDONESIA 	ACEH 	ACEH, SUMATRA 	5.50200 	95.22900 	253 									14.40 		5 														
* 		INDONESIA 	ACEH 	ACEH, SUMATRA 	5.47900 	95.24300 	250 									14.80 		5 														
* 		INDONESIA 	ACEH 	ACEH, SUMATRA 	5.53900 	95.25700 	256 									14.80 		5 														
* 		INDONESIA 	ACEH 	ACEH, SUMATRA 	5.65000 	95.42000 	264 									14.80 		5 														
* 		INDONESIA 	ACEH 	ACEH, SUMATRA 	5.61100 	95.38900 	260 									14.90 		5 														
* 		INDONESIA 	ACEH 	ACEH, SUMATRA 	5.59300 	95.33600 	260 									15.00 		5 														
* 		INDONESIA 	ACEH 	ACEH, SUMATRA 	5.50700 	95.26000 	252 									15.40 		5 														
* 		INDONESIA 	ACEH 	ACEH, SUMATRA 	5.55600 	95.28500 	257 									15.50 		5 														
* 		INDONESIA 	ACEH 	ACEH, SUMATRA 	5.55500 	95.28600 	257 									16.10 		5 														
* 		INDONESIA 	ACEH 	ACEH, SUMATRA 	5.61000 	95.39700 	260 									16.20 		5 														
* 		INDONESIA 	ACEH 	ACEH, SUMATRA 	5.61100 	95.39000 	260 									16.60 		5 														
* 		INDONESIA 	ACEH 	ACEH, SUMATRA 	5.47900 	95.24500 	250 									16.70 		5 														
* 		INDONESIA 	ACEH 	ACEH, SUMATRA 	5.47900 	95.24200 	250 									16.70 		5 														
* 		INDONESIA 	ACEH 	ACEH, SUMATRA 	5.47900 	95.24200 	250 									16.80 		5 														
* 		INDONESIA 	ACEH 	ACEH, SUMATRA 	5.47900 	95.24100 	250 									16.90 		5 														
* 		INDONESIA 	ACEH 	ACEH, SUMATRA 	5.47800 	95.24100 	250 									16.90 		5 														
* 		INDONESIA 	ACEH 	ACEH, SUMATRA 	5.47800 	95.24800 	250 									17.00 		5 														
* 		INDONESIA 	ACEH 	ACEH, SUMATRA 	5.47800 	95.24600 	250 									17.20 		5 														
* 		INDONESIA 	ACEH 	ACEH, SUMATRA 	5.47900 	95.24200 	250 									17.50 		5 														
* 		INDONESIA 	ACEH 	ACEH, SUMATRA 	5.54700 	95.23900 	257 									17.80 		5 														
* 		INDONESIA 	ACEH 	ACEH, SUMATRA 	5.47800 	95.24100 	250 									18.40 		5 														
* 		INDONESIA 	ACEH 	ACEH, SUMATRA 	5.55300 	95.23400 	258 									18.70 		5 														
* 		INDONESIA 	ACEH 	ACEH, SUMATRA 	5.55600 	95.23700 	258 									18.70 		5 														
* 		INDONESIA 	ACEH 	ACEH, SUMATRA 	5.54700 	95.23600 	257 									18.90 		5 														
* 		INDONESIA 	ACEH 	ACEH, SUMATRA 	5.54600 	95.23400 	257 									19.30 		5 														
* 		INDONESIA 	ACEH 	ACEH, SUMATRA 	5.47800 	95.24000 	250 									19.50 		5 														
* 		INDONESIA 	ACEH 	ACEH, SUMATRA 	5.55500 	95.23600 	258 									19.60 		5 														
* 		INDONESIA 	ACEH 	ACEH, SUMATRA 	5.47100 	95.25300 	249 									19.80 		5 														
* 		INDONESIA 	ACEH 	ACEH, SUMATRA 	5.50000 	95.24600 	252 									20.30 		5 														
* 		INDONESIA 	ACEH 	ACEH, SUMATRA 	5.48900 	95.23500 	251 									20.40 		5 														
* 		INDONESIA 	ACEH 	ACEH, SUMATRA 	5.54300 	95.24200 	257 									21.10 		5 														
* 		INDONESIA 	ACEH 	ACEH, SUMATRA 	5.50100 	95.23300 	253 									21.20 		5 														
* 		INDONESIA 	ACEH 	ACEH, SUMATRA 	5.47400 	95.25500 	249 									23.40 		5 														
* 		INDONESIA 	ACEH 	ACEH, SUMATRA 	5.49600 	95.23500 	252 									27.70 		5 														
* 		INDONESIA 	ACEH 	ACEH, SUMATRA 	5.49400 	95.23500 	252 									29.00 		5 														
* 		INDONESIA 	ACEH 	ACEH, SUMATRA 	5.47400 	95.24400 	249 									29.00 		5 														
* 		INDONESIA 	ACEH 	ACEH, SUMATRA 	5.61000 	95.39700 	260 									11.20 		5 														
* 		INDONESIA 	ACEH 	ACEH, SUMATRA 	5.55600 	95.23600 	258 									12.30 		5 														
* 		INDONESIA 	ACEH 	ACEH, SUMATRA 	5.55700 	95.28400 	257 									12.50 		5 														
* 		INDONESIA 	ACEH 	ACEH, SUMATRA 	5.56400 	95.23500 	259 									12.60 		5 														
* 		INDONESIA 	ACEH 	ACEH, SUMATRA 	5.38200 	95.25600 	239 									12.80 		5 														
* 		INDONESIA 	ACEH 	ACEH, SUMATRA 	5.63300 	95.40000 	263 									13.30 		5 														
* 		INDONESIA 	ACEH 	ACEH, SUMATRA 	5.55300 	95.23500 	258 									13.70 		5 														
* 		INDONESIA 	ACEH 	ACEH, SUMATRA 	5.39700 	95.25300 	241 									14.20 		5 														
* 		INDONESIA 	ACEH 	ACEH, SUMATRA 	5.63400 	95.40100 	263 									14.20 		5 														
* 		INDONESIA 	ACEH 	ACEH, SUMATRA 	5.44300 	95.24100 	246 									15.50 		5 														
* 		INDONESIA 	ACEH 	ACEH, SUMATRA 	5.49200 	95.23100 	252 									15.50 		5 														
* 		INDONESIA 	ACEH 	ACEH, SUMATRA 	5.44300 	95.24100 	246 									16.00 		5 														
* 		INDONESIA 	ACEH 	ACEH, SUMATRA 	5.42900 	95.24300 	245 									16.50 		5 														
* 		INDONESIA 	ACEH 	ACEH, SUMATRA 	5.25100 	95.25300 	225 									16.70 		5 														
* 		INDONESIA 	ACEH 	ACEH, SUMATRA 	5.44200 	95.24000 	246 									16.90 		5 														
* 		INDONESIA 	ACEH 	ACEH, SUMATRA 	5.44100 	95.23900 	246 									17.10 		5 														
* 		INDONESIA 	ACEH 	ACEH, SUMATRA 	5.49000 	95.26400 	251 									8.90 		5 														
* 		INDONESIA 	ACEH 	ACEH, SUMATRA 	5.48900 	95.26500 	250 									9.00 		5 														
* 		INDONESIA 	ACEH 	ACEH, SUMATRA 	5.52100 	95.27100 	254 									9.00 		5 														
* 		INDONESIA 	ACEH 	ACEH, SUMATRA 	5.60500 	95.38900 	260 									9.00 		5 														
* 		INDONESIA 	ACEH 	ACEH, SUMATRA 	5.60700 	95.39600 	260 									9.00 		5 														
* 		INDONESIA 	ACEH 	ACEH, SUMATRA 	5.61400 	95.39900 	261 									9.00 		5 														
* 		INDONESIA 	ACEH 	ACEH, SUMATRA 	5.59600 	95.37300 	259 									9.10 		5 														
* 		INDONESIA 	ACEH 	ACEH, SUMATRA 	5.55900 	95.30900 	257 									9.20 		5 														
* 		INDONESIA 	ACEH 	ACEH, SUMATRA 	5.48700 	95.26900 	250 									9.20 		5 														
* 		INDONESIA 	ACEH 	ACEH, SUMATRA 	5.55300 	95.30400 	256 									9.30 		5 														
* 		INDONESIA 	ACEH 	ACEH, SUMATRA 	5.59700 	95.38500 	259 									9.30 		5 														
* 		INDONESIA 	ACEH 	ACEH, SUMATRA 	5.53200 	95.27400 	255 									9.40 		5 														
* 		INDONESIA 	ACEH 	ACEH, SUMATRA 	5.57800 	95.34400 	258 									9.40 		5 														
* 		INDONESIA 	ACEH 	ACEH, SUMATRA 	5.57800 	95.34300 	258 									9.50 		5 														
* 		INDONESIA 	ACEH 	ACEH, SUMATRA 	5.54700 	95.30100 	256 									9.50 		5 														
* 		INDONESIA 	ACEH 	ACEH, SUMATRA 	5.56000 	95.31700 	257 									9.50 		5 														
* 		INDONESIA 	ACEH 	ACEH, SUMATRA 	5.49700 	95.26200 	251 									9.50 		5 														
* 		INDONESIA 	ACEH 	ACEH, SUMATRA 	5.49700 	95.26200 	251 									9.50 		5 														
* 		INDONESIA 	ACEH 	ACEH, SUMATRA 	5.57500 	95.32500 	258 									9.50 		5 														
* 		INDONESIA 	ACEH 	ACEH, SUMATRA 	5.59400 	95.37100 	259 									9.50 		5 														
* 		INDONESIA 	ACEH 	ACEH, SUMATRA 	5.54100 	95.30500 	255 									9.60 		5 														
* 		INDONESIA 	ACEH 	ACEH, SUMATRA 	5.57600 	95.34500 	258 									9.80 		5 														
* 		INDONESIA 	ACEH 	ACEH, SUMATRA 	5.48100 	95.24400 	250 									9.80 		5 														
* 		INDONESIA 	ACEH 	ACEH, SUMATRA 	5.61100 	95.39100 	260 									9.80 		5 														
* 		INDONESIA 	ACEH 	ACEH, SUMATRA 	5.61400 	95.39800 	261 									9.80 		5 														
* 		INDONESIA 	ACEH 	ACEH, SUMATRA 	5.50100 	95.24600 	252 									10.00 		5 														
* 		INDONESIA 	ACEH 	ACEH, SUMATRA 	5.61400 	95.39800 	261 									10.00 		5 														
* 		INDONESIA 	ACEH 	ACEH, SUMATRA 	5.58800 	95.35800 	259 									10.00 		5 														
* 		INDONESIA 	ACEH 	ACEH, SUMATRA 	5.59000 	95.38900 	258 									10.00 		5 														
* 		INDONESIA 	ACEH 	ACEH, SUMATRA 	5.48900 	95.26400 	250 									10.10 		5 														
* 		INDONESIA 	ACEH 	ACEH, SUMATRA 	5.53600 	95.28200 	255 									10.20 		5 														
* 		INDONESIA 	ACEH 	ACEH, SUMATRA 	5.47900 	95.24900 	250 									10.20 		5 														
* 		INDONESIA 	ACEH 	ACEH, SUMATRA 	5.57200 	95.32500 	258 									10.40 		5 														
* 		INDONESIA 	ACEH 	ACEH, SUMATRA 	5.58400 	95.34700 	258 									10.40 		5 														
* 		INDONESIA 	ACEH 	ACEH, SUMATRA 	5.57100 	95.32500 	258 									10.40 		5 														
* 		INDONESIA 	ACEH 	ACEH, SUMATRA 	5.57500 	95.32600 	258 									10.50 		5 														
* 		INDONESIA 	ACEH 	ACEH, SUMATRA 	5.59300 	95.36700 	259 									10.60 		5 														
* 		INDONESIA 	ACEH 	ACEH, SUMATRA 	5.55000 	95.30400 	256 									10.80 		5 														
* 		INDONESIA 	ACEH 	ACEH, SUMATRA 	5.56200 	95.31700 	257 									10.80 		5 														
* 		INDONESIA 	ACEH 	ACEH, SUMATRA 	5.59400 	95.33500 	260 									10.80 		5 														
* 		INDONESIA 	ACEH 	ACEH, SUMATRA 	5.58800 	95.36100 	259 									10.80 		5 														
* 		INDONESIA 	ACEH 	ACEH, SUMATRA 	5.55200 	95.29400 	256 									11.00 		5 														
* 		INDONESIA 	ACEH 	ACEH, SUMATRA 	5.53700 	95.28400 	255 									11.00 		5 														
* 		INDONESIA 	ACEH 	ACEH, SUMATRA 	5.60500 	95.38700 	260 									11.00 		5 														
* 		INDONESIA 	ACEH 	ACEH, SUMATRA 	5.58400 	95.34900 	258 									11.10 		5 														
* 		INDONESIA 	ACEH 	ACEH, SUMATRA 	5.56100 	95.31100 	257 									11.20 		5 														
* 		INDONESIA 	ACEH 	ACEH, SUMATRA 	5.54900 	95.30200 	256 									11.20 		5 														
* 		INDONESIA 	ACEH 	ACEH, SUMATRA 	5.48200 	95.26500 	250 									11.20 		5 														
* 		INDONESIA 	ACEH 	ACEH, SUMATRA 	5.57600 	95.32700 	258 									11.30 		5 														
* 		INDONESIA 	ACEH 	ACEH, SUMATRA 	5.59500 	95.37100 	259 									11.30 		5 														
* 		INDONESIA 	ACEH 	ACEH, SUMATRA 	5.56100 	95.31100 	257 									11.50 		5 														
* 		INDONESIA 	ACEH 	ACEH, SUMATRA 	5.56500 	95.31700 	257 									11.50 		5 														
* 		INDONESIA 	ACEH 	ACEH, SUMATRA 	5.55000 	95.30700 	256 									11.50 		5 														
* 		INDONESIA 	ACEH 	ACEH, SUMATRA 	5.59700 	95.37600 	259 									11.50 		5 														
* 		INDONESIA 	ACEH 	ACEH, SUMATRA 	5.48300 	95.26400 	250 									11.50 		5 														
* 		INDONESIA 	ACEH 	ACEH, SUMATRA 	5.47800 	95.24000 	250 									11.60 		5 														
* 		INDONESIA 	ACEH 	ACEH, SUMATRA 	5.54400 	95.29500 	255 									11.90 		5 														
* 		INDONESIA 	ACEH 	ACEH, SUMATRA 	5.53400 	95.27200 	255 									11.90 		5 														
* 		INDONESIA 	ACEH 	ACEH, SUMATRA 	5.50000 	95.23300 	252 									12.00 		5 														
* 		INDONESIA 	ACEH 	ACEH, SUMATRA 	5.55600 	95.31200 	256 									12.20 		5 														
* 		INDONESIA 	ACEH 	ACEH, SUMATRA 	5.57100 	95.32100 	258 									12.20 		5 														
* 		INDONESIA 	ACEH 	ACEH, SUMATRA 	5.52700 	95.27600 	254 									12.20 		5 														
* 		INDONESIA 	ACEH 	ACEH, SUMATRA 	5.55300 	95.29800 	256 									12.40 		5 														
* 		INDONESIA 	ACEH 	ACEH, SUMATRA 	5.57800 	95.32900 	258 									12.40 		5 														
* 		INDONESIA 	ACEH 	ALUS ALUS, SUMATRA 	2.34927 	96.37575 	122 									1.10 	100.20 	5 														
* 		INDONESIA 	ACEH 	ARONGHAN, MEULABOH, SUMATRA 	4.29700 	95.94800 	110 									15.00 	5000.00 	4 														
* 		INDONESIA 	ACEH 	ARONGHAN, MEULABOH, SUMATRA 	4.30000 	95.98700 	110 									9.00 	5000.00 	4 														
* 		INDONESIA 	ACEH 	ARONGHAN, MEULABOH, SUMATRA 	4.29700 	95.94700 	110 									15.00 	5000.00 	4 														
* 		INDONESIA 	ACEH 	ARONGHAN, MEULABOH, SUMATRA 	4.30800 	95.97200 	111 										5000.00 	4 														
* 		INDONESIA 	ACEH 	BANDA ACEH 	5.56194 	95.30556 	257 									8.10 		5 														
* 		INDONESIA 	ACEH 	BANDA ACEH 	5.56056 	95.30750 	257 									8.00 		5 														
* 		INDONESIA 	ACEH 	BANDA ACEH 	5.56531 	95.32958 	257 									2.00 		5 														
* 		INDONESIA 	ACEH 	BANDA ACEH 	5.56989 	95.32964 	257 									3.25 		5 														
* 		INDONESIA 	ACEH 	BANDA ACEH 	5.57569 	95.34506 	258 									3.55 		5 														
* 		INDONESIA 	ACEH 	BANDA ACEH 	5.56344 	95.31697 	257 									5.20 		5 														
* 		INDONESIA 	ACEH 	BANDA ACEH 	5.56803 	95.31681 	257 									6.00 		5 														
* 		INDONESIA 	ACEH 	BANDA ACEH 	5.56150 	95.31683 	257 									6.00 		5 														
* 		INDONESIA 	ACEH 	BANDA ACEH 	5.54686 	95.31169 	255 									4.00 		5 														
* 		INDONESIA 	ACEH 	BANDA ACEH 	5.47839 	95.24544 	250 									5.80 		5 														
* 		INDONESIA 	ACEH 	BANDA ACEH 	5.53392 	95.28136 	255 									6.10 		5 														
* 		INDONESIA 	ACEH 	BANDA ACEH 	5.58175 	95.36403 	258 									2.70 		5 														
* 		INDONESIA 	ACEH 	BANDA ACEH 	5.59972 	95.39100 	259 									3.20 		5 														
* 		INDONESIA 	ACEH 	BANDA ACEH 	5.60286 	95.39631 	259 									3.00 		5 														
* 		INDONESIA 	ACEH 	BANDA ACEH 	5.60469 	95.38775 	260 									6.10 		5 														
* 		INDONESIA 	ACEH 	BANDA ACEH 	5.59722 	95.39667 	259 									.25 		5 														
* 		INDONESIA 	ACEH 	BANDA ACEH 	5.55736 	95.28556 	257 									9.00 		5 														
* 		INDONESIA 	ACEH 	BREUH ISLAND 	5.67000 	95.12960 	274 									20.10 		5 										2 		2 		2
* 		INDONESIA 	ACEH 	BUSUNG, SIMEULUE 	2.39300 	96.33700 	116 									1.50 	500.00 	4 														
* 		INDONESIA 	ACEH 	BUSUNG, SUMATRA 	2.38757 	96.33693 	116 									3.10 	82.00 	5 														
* 		INDONESIA 	ACEH 	BUSUNG, SUMATRA 	2.38467 	96.33572 	117 									4.10 	130.00 	5 														
* 		INDONESIA 	ACEH 	CENTER OF BANDA ACEH, SUMATRA 	5.55600 	95.28400 	257 									12.00 		4 														
* 		INDONESIA 	ACEH 	CENTER OF BANDA ACEH, SUMATRA 	5.55300 	95.31600 	256 									3.96 		4 														
* 		INDONESIA 	ACEH 	CENTER OF BANDA ACEH, SUMATRA 	5.54900 	95.31600 	255 									4.64 		4 														
* 		INDONESIA 	ACEH 	CENTER OF BANDA ACEH, SUMATRA 	5.54900 	95.31700 	255 									4.64 		4 														
* 		INDONESIA 	ACEH 	CENTER OF BANDA ACEH, SUMATRA 	5.55400 	95.31900 	256 									5.01 		4 														
* 		INDONESIA 	ACEH 	CENTER OF BANDA ACEH, SUMATRA 	5.55100 	95.30400 	256 									7.04 		4 														
* 		INDONESIA 	ACEH 	CENTER OF BANDA ACEH, SUMATRA 	5.55100 	95.30400 	256 									6.26 		4 														
* 		INDONESIA 	ACEH 	CENTER OF BANDA ACEH, SUMATRA 	5.55000 	95.31700 	256 									4.50 		4 														
* 		INDONESIA 	ACEH 	CENTER OF BANDA ACEH, SUMATRA 	5.55200 	95.31700 	256 									4.58 		4 														
* 		INDONESIA 	ACEH 	CENTER OF BANDA ACEH, SUMATRA 	5.55300 	95.31700 	256 									4.52 		4 														
* 		INDONESIA 	ACEH 	CENTER OF BANDA ACEH, SUMATRA 	5.55300 	95.31700 	256 									4.56 		4 														
* 		INDONESIA 	ACEH 	CENTER OF BANDA ACEH, SUMATRA 	5.55300 	95.31700 	256 									4.67 		4 														
* 		INDONESIA 	ACEH 	CENTER OF BANDA ACEH, SUMATRA 	5.54700 	95.31700 	255 									4.43 		4 														
* 		INDONESIA 	ACEH 	CENTER OF BANDA ACEH, SUMATRA 	5.55200 	95.30300 	256 									6.11 		4 														
* 		INDONESIA 	ACEH 	CENTER OF BANDA ACEH, SUMATRA 	5.55300 	95.30400 	256 									6.76 		4 														
* 		INDONESIA 	ACEH 	CENTER OF BANDA ACEH, SUMATRA 	5.55000 	95.30700 	256 									6.58 		4 														
* 		INDONESIA 	ACEH 	CENTER OF BANDA ACEH, SUMATRA 	5.55100 	95.30700 	256 									6.59 		4 														
* 		INDONESIA 	ACEH 	CENTER OF BANDA ACEH, SUMATRA 	5.54800 	95.31600 	255 									4.73 		4 														
* 		INDONESIA 	ACEH 	CENTER OF BANDA ACEH, SUMATRA 	5.54800 	95.31500 	255 									5.16 		4 														
* 		INDONESIA 	ACEH 	CENTER OF BANDA ACEH, SUMATRA 	5.54800 	95.31400 	255 									5.56 		4 														
* 		INDONESIA 	ACEH 	CENTER OF BANDA ACEH, SUMATRA 	5.54800 	95.31300 	255 									5.55 		4 														
* 		INDONESIA 	ACEH 	CENTER OF BANDA ACEH, SUMATRA 	5.54900 	95.31300 	256 									5.53 		4 														
* 		INDONESIA 	ACEH 	CENTER OF BANDA ACEH, SUMATRA 	5.54900 	95.31200 	256 									5.61 		4 														
* 		INDONESIA 	ACEH 	CENTER OF BANDA ACEH, SUMATRA 	5.55300 	95.31700 	256 									4.70 		4 														
* 		INDONESIA 	ACEH 	CENTER OF BANDA ACEH, SUMATRA 	5.55300 	95.31600 	256 									4.68 		4 														
* 		INDONESIA 	ACEH 	CENTER OF BANDA ACEH, SUMATRA 	5.55300 	95.31600 	256 									4.79 		4 														
* 		INDONESIA 	ACEH 	CENTER OF BANDA ACEH, SUMATRA 	5.55300 	95.31600 	256 									5.49 		4 														
* 		INDONESIA 	ACEH 	CENTER OF BANDA ACEH, SUMATRA 	5.54900 	95.30600 	256 									6.43 		4 														
* 		INDONESIA 	ACEH 	CENTER OF BANDA ACEH, SUMATRA 	5.55100 	95.30700 	256 									5.87 		4 														
* 		INDONESIA 	ACEH 	CENTER OF BANDA ACEH, SUMATRA 	5.55000 	95.30800 	256 									6.78 		4 														
* 		INDONESIA 	ACEH 	CENTER OF BANDA ACEH, SUMATRA 	5.55900 	95.28400 	257 									12.19 		4 														
* 		INDONESIA 	ACEH 	CENTER OF BANDA ACEH, SUMATRA 	5.54900 	95.31100 	256 									6.21 		4 														
* 		INDONESIA 	ACEH 	CENTER OF BANDA ACEH, SUMATRA 	5.54200 	95.28500 	256 									5.04 		4 														
* 		INDONESIA 	ACEH 	CENTER OF BANDA ACEH, SUMATRA 	5.54100 	95.28700 	255 									6.87 		4 														
* 		INDONESIA 	ACEH 	CENTER OF BANDA ACEH, SUMATRA 	5.54100 	95.28200 	255 									4.70 		4 														
* 		INDONESIA 	ACEH 	CENTER OF BANDA ACEH, SUMATRA 	5.54700 	95.27800 	256 									7.68 		4 														
* 		INDONESIA 	ACEH 	CENTER OF BANDA ACEH, SUMATRA 	5.53600 	95.28300 	255 									7.78 		4 														
* 		INDONESIA 	ACEH 	CENTER OF BANDA ACEH, SUMATRA 	5.60400 	95.34600 	261 									7.12 		4 														
* 		INDONESIA 	ACEH 	CENTER OF BANDA ACEH, SUMATRA 	5.58300 	95.35000 	258 									6.58 		4 														
* 		INDONESIA 	ACEH 	CENTER OF BANDA ACEH, SUMATRA 	5.55300 	95.31500 	256 									5.48 		4 														
* 		INDONESIA 	ACEH 	CENTER OF BANDA ACEH, SUMATRA 	5.55300 	95.31500 	256 									5.52 		4 														
* 		INDONESIA 	ACEH 	CENTER OF BANDA ACEH, SUMATRA 	5.55300 	95.31500 	256 									5.35 		4 														
* 		INDONESIA 	ACEH 	CENTER OF BANDA ACEH, SUMATRA 	5.54900 	95.31100 	256 									5.98 		4 														
* 		INDONESIA 	ACEH 	CENTER OF BANDA ACEH, SUMATRA 	5.54900 	95.31100 	256 									5.96 		4 														
* 		INDONESIA 	ACEH 	CENTER OF BANDA ACEH, SUMATRA 	5.55000 	95.31000 	256 									6.47 		4 														
* 		INDONESIA 	ACEH 	CENTER OF BANDA ACEH, SUMATRA 	5.54900 	95.31100 	256 									6.20 		4 														
* 		INDONESIA 	ACEH 	CENTER OF BANDA ACEH, SUMATRA 	5.55400 	95.29100 	257 									9.00 		4 														
* 		INDONESIA 	ACEH 	DEUDAP ISLAND 	5.60200 	95.14000 	266 									10.70 		5 										2 		2 		2
* 		INDONESIA 	ACEH 	E OF BANDA ACEH, SUMATRA 	5.65125 	95.42310 	264 									8.00 	4000.00 	5 										3 				
* 		INDONESIA 	ACEH 	EAST BANDA ACEH, SUMATRA 	5.64700 	95.41400 	264 									8.20 		5 														
* 		INDONESIA 	ACEH 	GANTING, SIMEULUE 	2.55000 	96.33000 	100 									3.00 	2000.00 	4 														
* 		INDONESIA 	ACEH 	GANTING, SIMEULUE 	2.54900 	96.33500 	101 									1.75 	1500.00 	4 														1
* 		INDONESIA 	ACEH 	IDI, SUMATRA 	4.96653 	97.77177 	281 									2.50 	500.00 	5 										1 		1 		1
* 		INDONESIA 	ACEH 	JANTANG, SUMATRA 	5.27621 	95.25104 	228 									19.70 	627.30 	4 														
* 		INDONESIA 	ACEH 	JANTANG, SUMATRA 	5.27572 	95.24976 	228 									18.10 	476.30 	4 														
* 		INDONESIA 	ACEH 	JANTANG, SUMATRA 	5.27622 	95.25139 	228 									19.70 	664.60 	5 														
* 		INDONESIA 	ACEH 	KARIYA BAKTI, SUMATRA 	2.63827 	95.80293 	76 									4.10 	158.90 	4 														
* 		INDONESIA 	ACEH 	KREUNG RAYA, SUMATRA 	5.58915 	95.36097 	259 									5.00 	1000.00 	4 										1 				
* 		INDONESIA 	ACEH 	KRUENG RAYA PORT, SUMATRA 	5.59500 	95.52700 	256 									5.92 		4 														
* 		INDONESIA 	ACEH 	KRUENG RAYA PORT, SUMATRA 	5.59600 	95.52600 	256 									5.10 		4 														
* 		INDONESIA 	ACEH 	KRUENG RAYA PORT, SUMATRA 	5.58800 	95.52500 	255 									6.71 		5 														
* 		INDONESIA 	ACEH 	KUALA BUBAN BAY, MEULABOH, SUMATRA 	4.20800 	96.03900 	101 									10.00 	5000.00 	4 														
* 		INDONESIA 	ACEH 	KUALA MEURISI, SUMATRA 	4.62082 	95.63249 	147 									12.90 	1820.00 	5 														
* 		INDONESIA 	ACEH 	KUALA MEURISI, SUMATRA 	4.61370 	95.62491 	147 									13.50 	644.00 	4 														
* 		INDONESIA 	ACEH 	KUALA MEURISI, SUMATRA 	4.61644 	95.62812 	147 									17.20 	1112.30 	4 														
* 		INDONESIA 	ACEH 	KUALA MEURISI, SUMATRA 	4.61974 	95.63080 	147 									13.60 	1591.40 	4 														
* 		INDONESIA 	ACEH 	KUALA MEURISI, SUMATRA 	4.62073 	95.63235 	147 									11.30 	1799.20 	4 														
* 		INDONESIA 	ACEH 	KUALA TADU, MEULABOH, SUMATRA 	3.96600 	96.31000 	88 									15.00 	5000.00 	4 														
* 		INDONESIA 	ACEH 	LABUHAN BAKTI, SIMEULUE 	2.40400 	96.48200 	123 									2.50 	1500.00 	4 														
* 		INDONESIA 	ACEH 	LABUHAN BAKTI, SIMEULUE 	2.40200 	96.48100 	123 									2.50 	1500.00 	4 														
* 		INDONESIA 	ACEH 	LABUHAN BAKTI, SIMEULUE 	2.40200 	96.48100 	123 									2.50 	1500.00 	4 												1 		
* 		INDONESIA 	ACEH 	LABUHAN BAKTI, SIMEULUE 	2.40700 	96.48300 	123 									4.00 	1500.00 	4 														
* 		INDONESIA 	ACEH 	LABUHAN BAKTI, SIMEULUE 	2.40800 	96.48200 	123 										1500.00 	4 														
* 		INDONESIA 	ACEH 	LABUHAN BAKTI, SIMEULUE 	2.40300 	96.48100 	123 										1500.00 	4 														1
* 		INDONESIA 	ACEH 	LABUHAN, NW COAST OF SUMATRA 	5.43300 	95.23600 	245 									26.10 		5 														
* 		INDONESIA 	ACEH 	LANGI FIELD, SUMATRA 	2.82580 	95.74737 	56 									3.00 	441.40 	4 														
* 		INDONESIA 	ACEH 	LANGI FIELD, SUMATRA 	2.82765 	95.74719 	56 									7.80 	234.90 	4 														
* 		INDONESIA 	ACEH 	LANGI ISLAND, SUMATRA 	2.83004 	95.76647 	55 									7.00 	308.40 	4 														
* 		INDONESIA 	ACEH 	LANGI ISLAND, SUMATRA 	2.83054 	95.76745 	55 									13.90 	418.80 	4 														
* 		INDONESIA 	ACEH 	LANGI VILLAGE, SUMATRA 	2.82344 	95.75611 	56 									10.90 	294.20 	4 														
* 		INDONESIA 	ACEH 	LANGI VILLAGE, SUMATRA 	2.82358 	95.75631 	56 									9.90 	276.80 	4 														
* 		INDONESIA 	ACEH 	LANGI, SUMATRA 	2.82056 	95.75992 	56 									7.30 	334.70 	5 														
* 		INDONESIA 	ACEH 	LANGI, SUMATRA 	2.82175 	95.75933 	56 									8.10 	202.30 	4 														
* 		INDONESIA 	ACEH 	LANTIK, SIMEULUE 	2.43200 	96.26000 	108 									1.50 	500.00 	4 														
* 		INDONESIA 	ACEH 	LAUBANG, SIMEULUE 	2.43200 	96.26000 	108 									1.50 	500.00 	4 														
* 		INDONESIA 	ACEH 	LEPUNG, ACEH, SUMATRA 	5.39500 	95.25600 	241 									21.39 	340.00 	5 														
* 		INDONESIA 	ACEH 	LEPUNG, ACEH, SUMATRA 	5.39600 	95.26100 	241 									18.70 		5 														
* 		INDONESIA 	ACEH 	LEPUNG, ACEH, SUMATRA 	5.39500 	95.25600 	241 									17.59 	350.00 	5 														
* 		INDONESIA 	ACEH 	LEUPUNG, NW. COAST OF SUMATRA 	5.38100 	95.26000 	239 									17.80 		5 														
* 		INDONESIA 	ACEH 	LEUPUNG, NW. COAST OF SUMATRA 	5.42000 	95.24800 	243 									19.50 		5 														
* 		INDONESIA 	ACEH 	LHOK KRUET, SUMATRA 	4.90034 	95.40256 	183 									17.90 	491.60 	5 														
* 		INDONESIA 	ACEH 	LHOK KRUET, SUMATRA 	4.90010 	95.40208 	183 									17.10 	437.20 	4 														
* 		INDONESIA 	ACEH 	LHOK KRUET, SUMATRA 	4.89754 	95.40444 	183 									16.70 	275.10 	4 														
* 		INDONESIA 	ACEH 	LHOK NGA, NW. COAST OF SUMATRA 	5.44200 	95.24100 	246 									18.40 		5 														
* 		INDONESIA 	ACEH 	LHOK NGA, NW. COAST OF SUMATRA 	5.45100 	95.24300 	247 									29.70 		5 														
* 		INDONESIA 	ACEH 	LHOK NGA, NW. COAST OF SUMATRA 	5.45600 	95.24600 	247 									35.70 		5 														
* 		INDONESIA 	ACEH 	LHOK NGA, NW. COAST OF SUMATRA 	5.46100 	95.24500 	248 									28.20 		5 														
* 		INDONESIA 	ACEH 	LHOK NGA, NW. COAST OF SUMATRA 	5.44500 	95.24300 	246 									24.50 		5 														
* 		INDONESIA 	ACEH 	LHOK NGA, NW. COAST OF SUMATRA 	5.46400 	95.24700 	248 									23.10 		5 														
* 		INDONESIA 	ACEH 	LHOK NGA, NW. COAST OF SUMATRA 	5.49900 	95.22600 	253 									21.70 		5 														
* 		INDONESIA 	ACEH 	LHOKNGA, SUMATRA 	5.45777 	95.24513 	248 									31.00 	1000.00 	5 										1 				
* 		INDONESIA 	ACEH 	LHOKSEUMAWE, SUMATRA 	5.24900 	96.91300 	245 									2.90 		5 														
* 		INDONESIA 	ACEH 	LHOKSEUMAWE, SUMATRA 	5.23500 	97.06000 	252 									1.70 		5 														
* 		INDONESIA 	ACEH 	LHOONG, NW. COAST OF SUMATRA 	5.31500 	95.24000 	233 									25.20 		5 														
* 		INDONESIA 	ACEH 	LHOONG, NW. COAST OF SUMATRA 	5.35400 	95.24300 	237 									29.60 		5 														
* 		INDONESIA 	ACEH 	LHOONG, NW. COAST OF SUMATRA 	5.28300 	95.24700 	229 									25.50 		5 														
* 		INDONESIA 	ACEH 	MEULABOH PORT, SUMATRA 	4.20900 	96.03700 	101 									15.00 		4 														
* 		INDONESIA 	ACEH 	MEULABOH PORT, SUMATRA 	4.12900 	96.12900 	95 									15.00 	5000.00 	4 												1 		
* 		INDONESIA 	ACEH 	PANTERAJA, SUMATRA 	5.26110 	96.18528 	219 									4.70 	1000.00 	5 										1 				
* 		INDONESIA 	ACEH 	PULAU BREUH, SUMATRA 	5.68131 	95.06303 	277 									21.10 	421.30 	4 														
* 		INDONESIA 	ACEH 	PULAU BREUH, SUMATRA 	5.68139 	95.06414 	277 									22.10 	652.30 	5 														
* 		INDONESIA 	ACEH 	PULAU BREUH, SUMATRA 	5.68139 	95.06414 	277 									22.10 	534.20 	4 														
* 		INDONESIA 	ACEH 	PULAU BREUH, SUMATRA 	5.68099 	95.06124 	277 									22.20 	222.00 	4 														
* 		INDONESIA 	ACEH 	PULAU SALAUT, SUMATRA 	2.98473 	95.39311 	63 									4.90 	161.90 	4 														
* 		INDONESIA 	ACEH 	PULAU SALAUT, SUMATRA 	2.98483 	95.39325 	63 									6.50 	124.50 	4 														
* 		INDONESIA 	ACEH 	PULUT, SUMATRA 	5.36333 	95.25212 	237 									16.50 	495.30 	5 														
* 		INDONESIA 	ACEH 	PULUT, SUMATRA 	5.36600 	95.24950 	238 									32.50 		4 														
* 		INDONESIA 	ACEH 	RHITING, ACEH, SUMATRA 	5.42900 	95.23400 	245 									48.86 	70.00 	5 														
* 		INDONESIA 	ACEH 	SABANG, SUMATRA 	5.82600 	95.34700 	285 									3.02 		4 														
* 		INDONESIA 	ACEH 	SABANG, SUMATRA 	5.88200 	95.32400 	291 									3.15 		4 														
* 		INDONESIA 	ACEH 	SABANG, SUMATRA 	5.83900 	95.29900 	287 									6.20 		5 														
* 		INDONESIA 	ACEH 	SALUR, SIMEULUE 	2.44200 	96.24300 	106 									1.50 	500.00 	4 														
* 		INDONESIA 	ACEH 	SEMEN ANDALAS CEMENT PLANT, SUMATRA 	5.45100 	95.24500 	247 									34.50 		5 				3 					100 	4 	35 	1 		
* 		INDONESIA 	ACEH 	SENEBU VILLAGE, SIMEULUE 	2.55700 	96.30100 	98 									2.00 	1500.00 	4 														
* 		INDONESIA 	ACEH 	SENEBU VILLAGE, SIMEULUE 	2.34400 	96.46800 	128 									2.50 	1500.00 	4 														
* 		INDONESIA 	ACEH 	SENEBU VILLAGE, SIMEULUE 	2.38600 	96.48900 	125 										1500.00 	4 														1
* 		INDONESIA 	ACEH 	SIGLI, ACEH, SUMATRA 	5.38400 	95.96800 	230 									4.82 		4 														
* 		INDONESIA 	ACEH 	SIGLI, ACEH, SUMATRA 	5.38900 	95.96000 	231 									4.40 		4 														
* 		INDONESIA 	ACEH 	SIGLI, ACEH, SUMATRA 	5.38500 	95.96600 	230 									4.24 		4 														
* 		INDONESIA 	ACEH 	SIGLI, ACEH, SUMATRA 	5.38800 	95.96200 	231 									3.10 		5 														
* 		INDONESIA 	ACEH 	SIGLI, ACEH, SUMATRA 	5.38800 	95.96200 	231 									3.50 		5 														
* 		INDONESIA 	ACEH 	SIGLI, ACEH, SUMATRA 	5.38800 	95.96300 	231 									4.00 		5 														
* 		INDONESIA 	ACEH 	SIGLI, ACEH, SUMATRA 	5.38700 	95.96400 	231 									4.40 		5 														
* 		INDONESIA 	ACEH 	SIMEULUE ISLAND 	2.57500 	96.26900 	94 									.30 	10.00 	4 														
* 		INDONESIA 	ACEH 	SIMEULUE ISLAND 	2.55800 	96.30800 	98 									4.00 	2000.00 	4 														
* 		INDONESIA 	ACEH 	SKONEDA, MEULABOH, SUMATRA 	4.20800 	96.04000 	101 									15.00 	5000.00 	4 														
* 		INDONESIA 	ACEH 	SKONEDA, MEULABOH, SUMATRA 	4.20900 	96.04000 	101 									15.00 		4 														
* 		INDONESIA 	ACEH 	SUAKTIMAH, MEULABOH, SUMATRA 	4.21100 	96.06500 	102 									15.00 		4 										3 		3 		
* 		INDONESIA 	ACEH 	TANJUN RAYA, SIMEULUE 	2.56500 	96.28800 	96 									1.90 		4 														
* 		INDONESIA 	ACEH 	ULEELHEULE, SUMATRA 	5.55580 	95.28430 	257 									9.00 	4000.00 	4 										3 				
* 		INDONESIA 	ACEH 	WEST BANDA ACEH, SUMATRA 	5.56400 	95.23500 	259 									12.60 		5 														
* 		INDONESIA 	ACEH 	WEST BANDA ACEH, SUMATRA 	5.55800 	95.23500 	259 									20.00 		5 														
* 		INDONESIA 	ACEH 	WEST COAST OF ACEH, SUMATRA 	5.47700 	95.24500 	250 									12.42 		4 														
* 		INDONESIA 	ACEH 	WEST COAST OF ACEH, SUMATRA 	5.44300 	95.24200 	246 									27.86 		5 														
* 		INDONESIA 	ACEH 	WEST COAST OF ACEH, SUMATRA 	5.45800 	95.24700 	248 									34.85 		5 														
* 		INDONESIA 	ACEH 	WEST COAST OF ACEH, SUMATRA 	5.45200 	95.24400 	247 									18.79 		4 														
* 		INDONESIA 	ACEH 	WEST COAST OF ACEH, SUMATRA 	5.45100 	95.24300 	247 									21.56 		5 														
* 		INDONESIA 	ACEH 	WEST COAST OF ACEH, SUMATRA 	5.46000 	95.24600 	248 									31.91 		5 														
* 		INDONESIA 	ACEH 	WEST COAST OF ACEH, SUMATRA 	5.40500 	95.25400 	242 									20.13 		4 														
* 		INDONESIA 	ACEH 	WEST COAST OF ACEH, SUMATRA 	5.41400 	95.24900 	243 									17.04 		4 														
* 		INDONESIA 	ACEH 	WEST COAST OF ACEH, SUMATRA 	5.49200 	95.23100 	252 									17.48 		4 														
* 		INDONESIA 	ACEH 	WEST COAST OF ACEH, SUMATRA 	5.48500 	95.22800 	251 									32.72 		4 														
* 		INDONESIA 	ACEH 	WEST COAST OF ACEH, SUMATRA 	5.48200 	95.23600 	250 									15.42 		4 														
* 		INDONESIA 	ACEH 	WEST COAST OF ACEH, SUMATRA 	5.47700 	95.23500 	250 									18.06 		4 														
* 		INDONESIA 	ACEH 	WEST COAST OF ACEH, SUMATRA 	5.47200 	95.24200 	249 									34.25 		4 														
* 		INDONESIA 	ACEH 	WEST COAST OF ACEH, SUMATRA 	5.42200 	95.24400 	244 									28.61 		4 														
* 		INDONESIA 	ACEH 	WEST COAST OF ACEH, SUMATRA 	5.42900 	95.24100 	245 									20.49 		4 														
* 		INDONESIA 	ACEH 	WEST COAST OF ACEH, SUMATRA 	5.42000 	95.24800 	243 									21.57 		5 														
* 		INDONESIA 	ACEH 	WEST COAST OF ACEH, SUMATRA 	5.41500 	95.25000 	243 									20.08 		5 														
* 		INDONESIA 	ACEH 	WEST COAST OF ACEH, SUMATRA 	5.41800 	95.24800 	243 									24.86 		5 														
* 		INDONESIA 	ACEH 	WEST COAST OF ACEH, SUMATRA 	5.46600 	95.24200 	249 									27.66 		5 														
* 		INDONESIA 	ACEH 	WEST COAST OF ACEH, SUMATRA 	5.46000 	95.24600 	248 									21.97 		5 														
* 		INDONESIA 	ACEH 	WEST COAST OF ACEH, SUMATRA 	5.45300 	95.24500 	247 									18.46 		5 														
* 		INDONESIA 	ACEH 	WEST COAST OF ACEH, SUMATRA 	5.46200 	95.24300 	248 									23.83 		5 														
* 		INDONESIA 	ACEH 	WEST COAST OF ACEH, SUMATRA 	5.49600 	95.22900 	252 									29.68 		4 														
* 		INDONESIA 	ACEH 	WEST COAST OF ACEH, SUMATRA 	5.45600 	95.24500 	247 									25.05 		4 														
* 		INDONESIA 	ACEH 	WEST COAST OF ACEH, SUMATRA 	5.44900 	95.24200 	247 									24.35 		4 														
* 		INDONESIA 	ACEH 	WEST COAST OF ACEH, SUMATRA 	5.44500 	95.24200 	246 									21.65 		4 														
* 		INDONESIA 	ACEH 	WEST COAST OF ACEH, SUMATRA 	5.44000 	95.24100 	246 									29.98 		5 														
* 		INDONESIA 	ACEH 	WEST COAST OF ACEH, SUMATRA 	5.42900 	95.23600 	245 									20.80 		4 														
* 		INDONESIA 	ACEH 	WEST COAST OF ACEH, SUMATRA 	5.44300 	95.24000 	246 									19.96 		5 														
* 		INDONESIA 	ACEH 	WEST COAST OF ACEH, SUMATRA 	5.45000 	95.24300 	247 									20.07 		4 														
* 		INDONESIA 	ACEH 	WEST COAST OF ACEH, SUMATRA 	5.45200 	95.24300 	247 									15.77 		4 														
* 		INDONESIA 	ACEH 	WEST COAST OF ACEH, SUMATRA 	5.45200 	95.24200 	247 									30.40 		4 														
* 		INDONESIA 	ACEH 	WEST COAST OF ACEH, SUMATRA 	5.45900 	95.24600 	248 									27.28 		5 														
* 		INDONESIA 	ACEH 	WEST COAST OF ACEH, SUMATRA 	5.46100 	95.24500 	248 									23.51 		5 														
* 		INDONESIA 	ACEH 	WEST COAST OF ACEH, SUMATRA 	5.46500 	95.24400 	248 									29.34 		4 														
* 		INDONESIA 	ACEH 	WEST COAST OF ACEH, SUMATRA 	5.47800 	95.24600 	250 									12.39 		4 														
* 		INDONESIA 	ACEH 	WEST COAST OF ACEH, SUMATRA 	5.46900 	95.24000 	249 									28.59 		4 														
* 		INDONESIA 	ACEH 	WEST COAST OF ACEH, SUMATRA 	5.47500 	95.23700 	250 									16.63 		4 														
* 		INDONESIA 	EAST JAVA 	PRIGI, S. JAVA 	-8.29000 	111.73000 	2184 	26 	4 	30 	3 	31 				.51 		2 		R 												
* 		INDONESIA 	LAMPUNG 	PANJANG, SE. SUMATRA 	-5.51000 	105.35000 	1441 	26 	4 	2 	3 	3 				.65 		2 		R 												
* 		INDONESIA 	NORTH SUMATRA 	AFULU, SUMATRA 	1.26169 	97.23066 	275 									3.90 	84.10 	4 														
* 		INDONESIA 	NORTH SUMATRA 	BARUS, SUMATRA 	2.00800 	98.40300 	318 									1.70 		5 														
* 		INDONESIA 	NORTH SUMATRA 	BELAWAN, SUMATRA 	3.78000 	98.72000 	322 	26 	4 	24 	3 	25 				.47 		2 		F 												
* 		INDONESIA 	NORTH SUMATRA 	GUNUNGSITOLI, NIAS ISLAND 	1.26670 	97.56670 	297 									1.50 		5 														
* 		INDONESIA 	NORTH SUMATRA 	HAYO, SUMATRA 	-.09493 	98.26431 	464 									.90 	14.00 	4 														
* 		INDONESIA 	NORTH SUMATRA 	HILIRIHONO, NIAS ISLAND 	.56800 	97.70900 	369 									2.90 		5 														
* 		INDONESIA 	NORTH SUMATRA 	HILIRIHONO, NIAS ISLAND 	.57400 	97.73200 	370 									2.50 	400.00 	5 														
* 		INDONESIA 	NORTH SUMATRA 	HUMANGA BEACH, SUMATRA 	1.48436 	97.34708 	263 									.90 	38.80 	5 														
* 		INDONESIA 	NORTH SUMATRA 	LAGUNDRI BAY, SUMATRA 	.57842 	97.73203 	369 									1.20 	40.00 	5 														
* 		INDONESIA 	NORTH SUMATRA 	LHOK LEUPUNG, SUMATRA 	4.69205 	95.53774 	157 									12.20 	903.30 	5 														
* 		INDONESIA 	NORTH SUMATRA 	LHOK LEUPUNG, SUMATRA 	4.69189 	95.53720 	157 									14.00 	856.00 	4 														
* 		INDONESIA 	NORTH SUMATRA 	LHOK LEUPUNG, SUMATRA 	4.69137 	95.53677 	157 									16.50 	780.30 	4 														
* 		INDONESIA 	NORTH SUMATRA 	LHOK LEUPUNG, SUMATRA 	4.69064 	95.53565 	157 									15.70 	632.40 	4 														
* 		INDONESIA 	NORTH SUMATRA 	MEDREHE, NIAS ISLAND 	1.00800 	97.40500 	309 									3.50 		5 														
* 		INDONESIA 	NORTH SUMATRA 	MEDREHE, NIAS ISLAND 	1.00300 	97.40500 	310 									1.50 		5 														
* 		INDONESIA 	NORTH SUMATRA 	MEDREHE, NIAS ISLAND 	1.01600 	97.39300 	308 									4.50 		5 														
* 		INDONESIA 	NORTH SUMATRA 	MUAWE VILLAGE, NIAS ISLAND 	1.39600 	97.17000 	259 									3.80 		5 														
* 		INDONESIA 	NORTH SUMATRA 	MUAWE VILLAGE, NIAS ISLAND 	1.40100 	97.21200 	261 									2.80 		5 														
* 		INDONESIA 	NORTH SUMATRA 	PASARSORKAM, SUMATRA 	1.87100 	98.56500 	341 									1.00 		5 														
* 		INDONESIA 	NORTH SUMATRA 	PULAU ASU, SUMATRA 	.90433 	97.28002 	312 									.90 	40.00 	4 														
* 		INDONESIA 	NORTH SUMATRA 	SIBOLGA, SUMATRA 	1.72900 	98.78500 	370 									1.50 		5 														
* 		INDONESIA 	NORTH SUMATRA 	SIBOLGA, SUMATRA 	1.71800 	98.79700 	372 									1.60 		5 														
* 		INDONESIA 	NORTH SUMATRA 	SIBOLGA, SUMATRA 	1.72900 	98.78500 	370 	26 	2 	46 	1 	47 				1.23 		2 		R 												
* 		INDONESIA 	NORTH SUMATRA 	SIBOLGA, SUMATRA 	1.71900 	98.79500 	372 									1.63 		5 														
* 		INDONESIA 	NORTH SUMATRA 	SIROMBU, NIAS ISLAND 	.95100 	97.42100 	315 									4.65 		5 														
* 		INDONESIA 	NORTH SUMATRA 	SIROMBU, NIAS ISLAND 	1.00800 	97.40500 	309 									5.30 		5 														
* 		INDONESIA 	NORTH SUMATRA 	SIROMBU, NIAS ISLAND 	.95100 	97.41900 	315 									4.60 		5 														
* 		INDONESIA 	NORTH SUMATRA 	SIROMBU, NIAS ISLAND 	.95700 	97.42400 	315 									2.00 	915.00 	5 														
* 		INDONESIA 	NORTH SUMATRA 	SIROMBU, NIAS ISLAND 	1.00400 	97.40900 	310 									4.50 		5 														
* 		INDONESIA 	NORTH SUMATRA 	SOUTH OF SIBOLGA, SUMATRA 	1.66400 	98.82600 	378 									1.50 		5 														
* 		INDONESIA 	NORTH SUMATRA 	TELUK BANDERA, SUMATRA 	-.51108 	98.32702 	507 									1.00 	100.00 	4 														
* 		INDONESIA 	WEST NUSA TENGGARA 	LEMBAR, LOMBOK 	-8.73000 	116.07000 	2612 	26 	5 	27 	4 	28 				.93 		2 		R 												
* 		INDONESIA 		ALL OF INDONESIA 												50.90 		5 			167540 	4 					4451.6 	4 	141000 	4 		
* 		KENYA 		ALL OF KENYA 												3.00 		5 			1 	1 					100 	4 				
* 		KENYA 		GOSHI ESTUARY 	-3.63797 	39.83356 	6275 											5 														
* 		KENYA 		KILIFI BEACH 	-3.62585 	39.86691 	6271 									.70 	3.00 	5 														
* 		KENYA 		LAMU 	-2.28200 	40.90900 	6140 	26 	9 	52 	8 	53 				.50 		2 		R 												
* 		KENYA 		MALINDI 	-3.23300 	40.08300 	6242 											5 			1 	1 										
* 		KENYA 		NGOMENI PENINSULA 	-3.01516 	40.18338 	6229 									3.00 	43.00 	5 														
* 		KENYA 		SHAURI MAYO BEACH 	-3.78623 	39.83356 	6277 									.50 		5 														
* 		MADAGASCAR 		ALL OF MADAGASCAR 												5.40 		5 			1 	1 										
* 		MADAGASCAR 		AMBILA 	-18.84417 	49.15388 	5673 									2.35 	30.00 	5 														
* 		MADAGASCAR 		AMBODIHAMPANA 	-15.08158 	50.37212 	5410 									2.52 	80.00 	5 														
* 		MADAGASCAR 		AMDINGOZABE 	-15.06193 	50.35913 	5411 									1.14 	136.00 	5 														
* 		MADAGASCAR 		AMDINGOZABE 	-15.06193 	50.35913 	5411 									1.65 	102.00 	4 														
* 		MADAGASCAR 		AMPAHANA 	-14.76483 	50.22443 	5414 									2.53 	50.00 	5 														
* 		MADAGASCAR 		AMPASIMASAY 	-24.32108 	47.34549 	6076 									3.20 	29.00 	5 														
* 		MADAGASCAR 		ANKARAMANY 	-24.43317 	47.30677 	6085 									2.70 	35.00 	5 														
* 		MADAGASCAR 		ANTALAHA 	-14.90050 	50.28227 	5413 									2.10 		4 														
* 		MADAGASCAR 		ANTALAHA 	-14.90037 	50.28148 	5413 									2.30 	28.00 	5 														
* 		MADAGASCAR 		BEANIKY 	-25.27869 	46.06108 	6237 									2.90 	19.00 	5 														
* 		MADAGASCAR 		BENAREVIKA 	-14.11560 	50.15953 	5398 									3.51 	29.00 	5 														
* 		MADAGASCAR 		BETANTY 	-25.56817 	45.53433 	6299 									2.30 	30.00 	5 														
* 		MADAGASCAR 		BETANTY 	-25.56941 	45.53209 	6299 									4.40 	34.00 	5 														
* 		MADAGASCAR 		BETANTY 	-25.56508 	45.53881 	6298 									4.80 	37.00 	5 														
* 		MADAGASCAR 		BETANTY 	-25.56952 	45.53097 	6299 									5.40 	28.00 	5 														
* 		MADAGASCAR 		FARAFANGANA 	-22.81895 	47.83588 	5964 									1.60 	32.00 	5 														
* 		MADAGASCAR 		FARAFANGANA 	-22.80939 	47.83716 	5964 									2.40 	25.00 	4 														
* 		MADAGASCAR 		FENOARIVO (FENERIVE) 	-17.38093 	49.41523 	5590 									2.50 	6.00 	5 														
* 		MADAGASCAR 		MAHAMBO 	-17.47523 	49.46362 	5589 									1.17 	7.00 	5 														
* 		MADAGASCAR 		MAHAVELONA (FOUL POINTE) 	-17.69017 	49.51995 	5592 									.77 	13.00 	5 														
* 		MADAGASCAR 		MAHAVELONA (FOUL POINTE) 	-17.67457 	49.51608 	5592 									.79 	4.00 	5 														
* 		MADAGASCAR 		MAHAVELONA (FOUL POINTE) 	-17.68528 	49.51823 	5592 									.72 	13.00 	5 														
* 		MADAGASCAR 		MANAFIAFY (SAINTE LUCE) 	-24.77650 	47.19987 	6110 									3.10 	34.00 	5 			1 	1 										
* 		MADAGASCAR 		MANAKARA BE 	-22.14631 	48.02324 	5918 									3.80 	58.00 	5 														
* 		MADAGASCAR 		MANAKARA BE 	-22.14344 	48.02286 	5918 									1.50 	21.00 	4 														
* 		MADAGASCAR 		MANAKARA BE 	-22.14344 	48.02286 	5918 									2.00 	10.00 	4 														
* 		MADAGASCAR 		MANAKARA BE 	-22.14515 	48.02395 	5918 									4.00 	30.00 	5 														
* 		MADAGASCAR 		MANAKARA BE 	-22.14362 	48.02430 	5918 									1.50 	38.00 	4 														
* 		MADAGASCAR 		MANAKARA BE 	-22.16200 	48.01556 	5919 									3.50 	59.00 	5 														
* 		MADAGASCAR 		MANAKARA BE 	-22.14942 	48.02202 	5918 									4.20 	61.00 	5 														
* 		MADAGASCAR 		MANAKARA BE 	-22.14718 	48.02309 	5918 									3.50 	34.00 	5 														
* 		MADAGASCAR 		MANAKARA NORTH 	-22.13989 	48.02431 	5917 									2.30 	43.00 	5 														
* 		MADAGASCAR 		MANAKARA NORTH 	-22.03352 	48.07116 	5908 									2.10 	25.00 	5 														
* 		MADAGASCAR 		MANAKARA PORT 	-22.14126 	48.02057 	5918 									1.60 		4 														
* 		MADAGASCAR 		MANAKATAFANA 	-17.06165 	49.52432 	5568 									1.92 	22.00 	5 														
* 		MADAGASCAR 		MANANJARY 	-21.26137 	48.34547 	5850 									2.40 	43.00 	5 														
* 		MADAGASCAR 		MANANJARY 	-21.24501 	48.34824 	5849 									1.00 	68.00 	5 														
* 		MADAGASCAR 		MANANJARY 	-21.24501 	48.34824 	5849 									2.20 	28.00 	4 														
* 		MADAGASCAR 		MANANJARY 	-21.26137 	48.34547 	5850 									2.20 	43.00 	5 														
* 		MADAGASCAR 		MANANJARY 	-21.22907 	48.35131 	5848 									2.40 	21.00 	5 														
* 		MADAGASCAR 		SAMBAVA 	-14.26990 	50.18163 	5401 									1.77 	71.00 	5 														
* 		MADAGASCAR 		SAMBAVA 	-14.27062 	50.18073 	5401 									1.91 	30.00 	5 														
* 		MADAGASCAR 		SOANIERANA-IVONGO 	-16.91903 	49.58707 	5556 									2.23 	20.00 	4 														
* 		MADAGASCAR 		SOANIERANA-IVONGO 	-16.91903 	49.58707 	5556 									2.00 	46.00 	5 														
* 		MADAGASCAR 		SOANIERANA-IVONGO 	-16.92005 	49.58700 	5556 									1.30 	12.00 	5 														
* 		MADAGASCAR 		TANAMBAO-DAOUD 	-13.92000 	50.13500 	5394 									2.50 		5 														
* 		MADAGASCAR 		TOAMASINA 	-18.15768 	49.42277 	5619 									.78 	55.00 	5 														
* 		MADAGASCAR 		TOAMASINA 	-18.15672 	49.42477 	5619 									.90 		4 														
* 		MADAGASCAR 		TOLAGNARO 	-25.03878 	46.99558 	6140 									4.10 	26.00 	5 														
* 		MADAGASCAR 		TOLAGNARO 	-25.03487 	46.98299 	6141 									2.20 	44.00 	5 														
* 		MADAGASCAR 		TOLAGNARO 	-25.02695 	46.99611 	6140 									2.90 	75.00 	5 														
* 		MADAGASCAR 		TOLAGNARO 	-25.03627 	46.99260 	6141 									2.00 	7.00 	5 														
* 		MADAGASCAR 		VOHEMAR 	-13.35765 	50.00357 	5390 									1.48 	9.00 	5 														
* 		MADAGASCAR 		VOHEMAR 	-13.35360 	50.01563 	5388 									3.19 	24.00 	5 														
* 		MADAGASCAR 		VOHEMAR 	-13.35335 	50.00787 	5389 									1.60 	10.00 	5 														
* 		MALAYSIA 		ALL OF MALAYSIA 												4.00 		5 			75 	2 					500 	4 				
* 		MALAYSIA 		GURNEY DRIVE, PENANG IS. 	5.43900 	100.30800 	547 									2.50 	200.00 	4 														
* 		MALAYSIA 		KAMPUNG PAYA 	5.59900 	100.34100 	559 									2.50 	150.00 	4 														
* 		MALAYSIA 		KAMPUNG PAYA 	5.61100 	100.34100 	559 									2.50 	70.00 	4 														
* 		MALAYSIA 		KAMPUNG TEPI SUNGAI 	5.58000 	100.33800 	557 									3.00 	400.00 	4 			11 	1 										1
* 		MALAYSIA 		KUALA TRIANG 	6.36100 	99.70900 	545 										500.00 	4 														
* 		MALAYSIA 		KUALA TRIANG 	6.35100 	99.72100 	546 										900.00 	4 														
* 		MALAYSIA 		MAINLAND 	5.57500 	100.33800 	557 									1.00 		4 														
* 		MALAYSIA 		MIAMI BEACH, PENANG IS. 	5.47600 	100.26600 	545 									3.00 	10.00 	4 			23 	1 										
* 		MALAYSIA 		MUARA SUNGAI PULAU BETONG, PENANG 	5.30600 	100.19200 	530 									2.70 	100.00 	5 														
* 		MALAYSIA 		MUARA SUNGAI PULAU BETONG, PENANG 	5.28000 	100.23900 	533 									2.70 	100.00 	4 					2 	1 								
* 		MALAYSIA 		PASIR PANJANG, PENANG IS. 	5.29500 	100.18300 	528 									2.00 	70.00 	4 			27 	1 	1 	1 								
* 		MALAYSIA 		PELANGI BEACH HOTEL, LANGKAWI 	6.30100 	99.72000 	542 									1.50 		4 														
* 		MALAYSIA 		PENANG ISLAND 	5.32600 	100.19600 	531 									1.40 	50.00 	10 														
* 		MALAYSIA 		PENANG ISLAND 	5.33800 	100.19500 	531 									2.60 	3000.00 	4 														
* 		MALAYSIA 		SOUTH OF KUALA TRIANG 	6.35600 	99.71500 	545 									3.30 		4 														1
* 		MALAYSIA 		SUNGAI BATU, PENANG IS. 	5.28000 	100.23900 	533 									1.80 	60.00 	4 														1
* 		MALAYSIA 		SUNGAI BATU, PENANG IS. 	5.28300 	100.23600 	533 									1.60 	90.00 	4 														1
* 		MALAYSIA 		SUNGAI CHENANG, LANGKAWI 	6.30400 	99.72100 	542 										500.00 	4 														
* 		MALAYSIA 		SUNGAI KUALA, MELAKA RIVER 	6.20100 	99.71800 	535 									4.00 	1000.00 	4 			1 	1 										
* 		MALAYSIA 		TANJUNG BUNGAH, PENANG IS. 	5.46700 	100.27700 	546 									2.50 		4 												1 		
* 		MALDIVES 		ALL OF MALDIVES 												4.43 		5 			108 	3 					470.1 	4 	8074 	4 		
* 		MALDIVES 		DHIFFUSHI, N. MALE 	4.44435 	73.71480 	2460 									2.20 	80.00 	4 														
* 		MALDIVES 		DHIFFUSHI, N. MALE 	4.44392 	73.71365 	2460 									2.30 	13.00 	4 														
* 		MALDIVES 		EMBUDHU FINOTHU, S. MALE 	4.18010 	73.52455 	2480 									2.93 		4 														
* 		MALDIVES 		EMBUDHU FINOTHU, S. MALE 	4.18010 	73.52455 	2480 									2.33 		4 														
* 		MALDIVES 		EMBUDHU FINOTHU, S. MALE 	4.18010 	73.52455 	2480 									1.83 		4 														
* 		MALDIVES 		ENBODOO VILLAGE, SOUTH MALE 	4.08300 	73.51200 	2481 									1.33 		5 														
* 		MALDIVES 		ENBODOO VILLAGE, SOUTH MALE 	4.08400 	73.51300 	2481 									1.18 		5 														
* 		MALDIVES 		EYDHAFUSHI, BAA 	5.10248 	73.07215 	2535 									2.00 	229.00 	4 														
* 		MALDIVES 		EYDHAFUSHI, BAA 	5.10142 	73.07308 	2535 									3.04 	64.00 	4 														
* 		MALDIVES 		EYDHAFUSHI, BAA 	5.10302 	73.07147 	2535 									1.61 	175.00 	4 														
* 		MALDIVES 		EYDHAFUSHI, BAA 	5.10177 	73.07245 	2535 									2.00 	178.00 	4 														
* 		MALDIVES 		EYDHAFUSHI, BAA 	5.10145 	73.07278 	2535 									2.11 	171.00 	4 														
* 		MALDIVES 		EYDHAFUSHI, BAA 	5.10265 	73.07197 	2535 									1.95 	192.00 	4 														
* 		MALDIVES 		FANADHOO, LAAMU 	1.83600 	73.50300 	2489 									1.93 		5 														
* 		MALDIVES 		FANADHOO, LAAMU 	1.83500 	73.50500 	2489 									4.43 		5 														
* 		MALDIVES 		FANADHOO, LAAMU 	1.83500 	73.50500 	2489 									3.22 		5 														
* 		MALDIVES 		FANADHOO, LAAMU 	1.84900 	73.51100 	2488 									3.03 		5 														
* 		MALDIVES 		FEYDHOO, SEENU 	.68100 	73.14400 	2541 									1.62 		5 														
* 		MALDIVES 		FONADHOO, LAAMU 	1.93235 	73.60000 	2477 									3.28 		4 			4 	1 										
* 		MALDIVES 		FONADHOO, LAAMU 	1.82463 	73.49520 	2490 									2.13 	115.00 	4 														
* 		MALDIVES 		FONADHOO, LAAMU 	1.82420 	73.49506 	2490 									1.52 	158.00 	4 														
* 		MALDIVES 		FONADHOO, LAAMU 	1.83240 	73.50333 	2489 									3.12 	130.00 	4 														
* 		MALDIVES 		FONADHOO, LAAMU 	1.92293 	73.54980 	2483 									2.87 	179.00 	4 														
* 		MALDIVES 		GAN 	-.68670 	73.15170 	2563 	26 	4 	16 	3 	17 				.70 		2 		R 												
* 		MALDIVES 		GAN, LAAMU 	1.94100 	73.54000 	2484 									1.73 		5 														
* 		MALDIVES 		GAN, LAAMU 	1.89800 	73.53700 	2485 									2.08 		5 														
* 		MALDIVES 		GAN, LAAMU 	1.92100 	73.54900 	2483 									2.41 		5 														
* 		MALDIVES 		GAN, LAAMU 	1.92300 	73.55000 	2483 									2.10 		5 														
* 		MALDIVES 		GAN, LAAMU 	1.93200 	73.55100 	2483 									2.71 		5 														
* 		MALDIVES 		GAN, LAAMU 	1.93300 	73.55200 	2483 									2.31 		5 														
* 		MALDIVES 		GAN, LAAMU 	1.94200 	73.54200 	2484 									2.60 		5 														
* 		MALDIVES 		GAN, LAAMU 	1.94200 	73.54000 	2484 									2.75 		5 														
* 		MALDIVES 		GAN, SEENU 	.69000 	73.15700 	2540 									1.79 		5 														
* 		MALDIVES 		GAN, SEENU 	.68700 	73.14400 	2541 									1.89 		5 														
* 		MALDIVES 		GAN, SEENU 	.68700 	73.15000 	2540 									2.07 		5 														
* 		MALDIVES 		GEMENDHOO, DHAALU 	2.79800 	73.02600 	2536 									3.17 		5 														
* 		MALDIVES 		GEMENDHOO, DHAALU 	2.79900 	73.02600 	2536 									2.74 		5 														
* 		MALDIVES 		GEMENDHOO, DHAALU 	2.79800 	73.02600 	2536 									3.09 		5 														
* 		MALDIVES 		GEMENDHOO, DHAALU 	2.79800 	73.02500 	2536 									2.71 		5 														
* 		MALDIVES 		HANIMAADHOO, HAA DHAALU 	6.74900 	73.16800 	2542 									2.01 		5 														
* 		MALDIVES 		HANIMAADHOO, HAA DHAALU 	6.76600 	73.17400 	2541 									1.18 		5 														
* 		MALDIVES 		HANIMAADHOO, HAA DHAALU 	6.76700 	73.16700 	2542 	26 	4 	30 	3 	31 				1.09 		2 		R 												
* 		MALDIVES 		HANIMAADHOO, HAA DHAALU 	6.76400 	73.18000 	2541 									1.57 		5 														
* 		MALDIVES 		HINNAVARU, LHAVIYANI 	5.49272 	73.41178 	2500 									1.26 	322.00 	4 														
* 		MALDIVES 		HINNAVARU, LHAVIYANI 	5.49218 	73.41317 	2500 									.98 	174.00 	4 														
* 		MALDIVES 		HINNAVARU, LHAVIYANI 	5.49195 	73.41360 	2500 									1.04 	128.00 	4 														
* 		MALDIVES 		HINNAVARU, LHAVIYANI 	5.49195 	73.41360 	2500 									1.24 	128.00 	4 														
* 		MALDIVES 		HINNAVARU, LHAVIYANI 	5.49288 	73.41188 	2500 									1.49 	311.00 	4 										1 				
* 		MALDIVES 		HINNAVARU, LHAVIYANI 	5.49373 	73.41225 	2500 									1.15 	263.00 	4 														
* 		MALDIVES 		HINNAVARU, LHAVIYANI 	5.49460 	73.41245 	2500 									1.30 	248.00 	4 														
* 		MALDIVES 		HINNAVARU, LHAVIYANI 	5.49463 	73.41283 	2500 									1.13 	206.00 	4 														
* 		MALDIVES 		HINNAVARU, LHAVIYANI 	5.49297 	73.41190 	2500 									1.30 	309.00 	4 														
* 		MALDIVES 		HITHADHOO, SEENU 	.62900 	73.11000 	2546 									1.95 		5 														
* 		MALDIVES 		HITHADHOO, SEENU 	.65100 	73.10800 	2546 									1.30 		5 														
* 		MALDIVES 		HITHADHOO, SEENU 	.60700 	73.09300 	2548 									1.31 		5 														
* 		MALDIVES 		HULHULE, N. MALE 	4.19453 	73.52565 	2480 									1.22 	104.00 	4 														1
* 		MALDIVES 		HULHUMALE, NORTH MALE 	4.18900 	73.53300 	2479 									3.09 		5 														
* 		MALDIVES 		HULHUMALE, NORTH MALE 	4.18900 	73.53500 	2479 									3.37 		5 														
* 		MALDIVES 		HULHUMALE, NORTH MALE 	4.19000 	73.53800 	2479 									1.64 		5 														
* 		MALDIVES 		HULHUMALE, NORTH MALE 	4.20100 	73.54500 	2478 									2.43 		5 														
* 		MALDIVES 		HULHUMALE, NORTH MALE 	4.19100 	73.53200 	2479 									2.57 		5 														
* 		MALDIVES 		HULHUMALE, NORTH MALE 	4.20100 	73.54100 	2478 									2.03 		5 														
* 		MALDIVES 		HURAA, N. MALE 	4.33356 	73.60093 	2472 									2.34 	200.00 	4 														
* 		MALDIVES 		HURAAN. MALE 	4.24918 	73.53676 	2479 									3.34 		4 														
* 		MALDIVES 		KADDHOO, LAAMU 	1.85800 	73.51900 	2487 									1.28 		5 														
* 		MALDIVES 		KANDHOLHUDHOO, RAA 	5.62015 	72.85435 	2563 									2.87 	147.00 	4 														
* 		MALDIVES 		KANDHOLHUDHOO, RAA 	5.61762 	72.85630 	2563 									3.10 	15.00 	4 			3 	1 										
* 		MALDIVES 		KANDHOLHUDHOO, RAA 	5.61753 	72.85620 	2563 									3.10 	28.00 	4 														
* 		MALDIVES 		KANDHOLHUDHOO, RAA 	5.61757 	72.85590 	2563 									3.05 	59.00 	4 														
* 		MALDIVES 		KANDHOLHUDHOO, RAA 	5.61765 	72.85588 	2563 									2.82 	57.00 	4 														
* 		MALDIVES 		KANDHOLHUDHOO, RAA 	5.61768 	72.85587 	2563 									2.74 	60.00 	4 														
* 		MALDIVES 		KANDHOLHUDHOO, RAA 	5.61768 	72.85587 	2563 									2.66 	60.00 	4 														
* 		MALDIVES 		KANDHOLHUDHOO, RAA 	5.61775 	72.85580 	2563 									2.42 	64.00 	4 														
* 		MALDIVES 		KANDHOLHUDHOO, RAA 	5.61803 	72.85578 	2563 									3.13 	61.00 	4 														
* 		MALDIVES 		KANDHOLHUDHOO, RAA 	5.61822 	72.85568 	2563 									2.72 	71.00 	4 														
* 		MALDIVES 		KANDHOLHUDHOO, RAA 	5.61832 	72.85583 	2563 									3.10 	54.00 	4 														
* 		MALDIVES 		KANDHOLHUDHOO, RAA 	5.61832 	72.85583 	2563 									3.39 	54.00 	4 														
* 		MALDIVES 		KANDHOLHUDHOO, RAA 	5.61850 	72.85565 	2563 									2.21 	68.00 	4 														
* 		MALDIVES 		KANDHOLHUDHOO, RAA 	5.61997 	72.85465 	2563 									2.95 	125.00 	4 														
* 		MALDIVES 		KANDHOLHUDHOO, RAA 	5.61858 	72.85493 	2563 									2.30 	143.00 	4 														
* 		MALDIVES 		KANDHOLHUDHOO, RAA 	5.61995 	72.85457 	2563 									3.02 	138.00 	4 														
* 		MALDIVES 		KEYODHOO, VAAVU 	3.46100 	73.54900 	2477 									2.00 		5 														
* 		MALDIVES 		KEYODHOO, VAAVU 	3.46100 	73.54900 	2477 									2.70 		5 														
* 		MALDIVES 		KEYODHOO, VAAVU 	3.46300 	73.55100 	2476 									2.18 		5 														
* 		MALDIVES 		KEYODHOO, VAAVU 	3.46100 	73.55000 	2476 									2.38 		5 														
* 		MALDIVES 		KEYODHOO, VAAVU 	3.46100 	73.55000 	2476 									2.89 		5 														
* 		MALDIVES 		KOLHUFUSHI, MEEMU 	2.77402 	73.42363 	2492 									2.23 	290.00 	4 														
* 		MALDIVES 		KOLHUFUSHI, MEEMU 	2.77225 	73.42503 	2492 									2.90 	30.00 	4 														
* 		MALDIVES 		KOLHUFUSHI, MEEMU 	2.77297 	73.42533 	2492 									2.83 	30.00 	4 														
* 		MALDIVES 		KOLHUFUSHI, MEEMU 	2.77343 	73.42473 	2492 									2.91 	129.00 	4 			16 	1 						1 				
* 		MALDIVES 		KOLHUFUSHI, MEEMU 	2.77385 	73.42442 	2492 									2.87 	192.00 	4 														
* 		MALDIVES 		KOLHUFUSHI, MEEMU 	2.77183 	73.42510 	2492 									2.76 	23.00 	4 														
* 		MALDIVES 		KULHUDHUFFUSHI, HAA DHAALU 	6.61400 	73.07100 	2551 									2.67 		5 														
* 		MALDIVES 		KULHUDHUFFUSHI, HAA DHAALU 	6.62400 	73.07600 	2550 									2.75 		5 														
* 		MALDIVES 		KULHUDHUFFUSHI, HAA DHAALU 	6.62200 	73.06900 	2551 									1.92 		5 														
* 		MALDIVES 		LAAMU ATOLL, FONADHOO IS. 	1.82400 	73.49500 	2490 									3.00 	30.00 	4 														
* 		MALDIVES 		LAAMU ATOLL, FONADHOO IS. 	1.82500 	73.49500 	2490 									3.00 	50.00 	4 														
* 		MALDIVES 		LAAMU ATOLL, FONADHOO IS. 	1.83200 	73.50300 	2489 									3.30 	50.00 	4 														
* 		MALDIVES 		LAAMU ATOLL, GAN IS. 	1.93200 	73.55200 	2483 									2.90 	30.00 	4 														
* 		MALDIVES 		LAAMU ATOLL, GAN IS. 	1.94200 	73.54400 	2483 									2.00 		4 														
* 		MALDIVES 		LAAMU ATOLL, GAN IS. 	1.92300 	73.55100 	2483 									2.70 	80.00 	4 														
* 		MALDIVES 		LAAMU ATOLL, GAN IS. 	1.92300 	73.55000 	2483 									2.70 	10.00 	4 														
* 		MALDIVES 		LAGUNA BEACH RESORT, SOUTH MALE 	4.12300 	73.43800 	2490 									1.31 		5 														
* 		MALDIVES 		LAGUNA BEACH RESORT, SOUTH MALE 	4.12300 	73.43800 	2490 									1.38 		5 														
* 		MALDIVES 		LAGUNA BEACH RESORT, SOUTH MALE 	4.12100 	73.43600 	2490 									.78 		5 														
* 		MALDIVES 		MADIFUSHI, THAA 	2.35632 	73.35522 	2502 									3.21 	37.00 	4 														
* 		MALDIVES 		MADIFUSHI, THAA 	2.35555 	73.35497 	2502 									2.85 	42.00 	4 														
* 		MALDIVES 		MADIFUSHI, THAA 	2.35608 	73.35490 	2502 									2.56 	82.00 	4 														
* 		MALDIVES 		MADIFUSHI, THAA 	2.35708 	73.35457 	2502 									2.10 	140.00 	4 														
* 		MALDIVES 		MADIFUSHI, THAA 	2.35750 	73.35568 	2502 									2.35 	40.00 	4 														
* 		MALDIVES 		MADIFUSHI, THAA 	2.35777 	73.35563 	2502 									2.76 	56.00 	4 														
* 		MALDIVES 		MADIFUSHI, THAA 	2.35802 	73.35587 	2502 									2.13 	48.00 	4 														
* 		MALDIVES 		MALE 	4.18000 	73.52000 	2481 	26 	4 	14 	3 	15 				1.08 		2 		R 												
* 		MALDIVES 		MALE, N. MALE 	4.17866 	73.51416 	2481 									1.25 	15.00 	4 														
* 		MALDIVES 		MALE, N. MALE 	4.18020 	73.50963 	2482 									1.35 		4 														
* 		MALDIVES 		MALE, N. MALE 	4.17208 	73.50235 	2483 									1.15 	82.00 	4 														1
* 		MALDIVES 		MALE, N. MALE 	4.16942 	73.50581 	2482 									1.45 	28.00 	4 														
* 		MALDIVES 		MALE, N. MALE 	4.16970 	73.51338 	2481 									2.05 	20.00 	4 														
* 		MALDIVES 		MALE, N. MALE 	4.17372 	73.51788 	2481 									1.15 	54.00 	4 														1
* 		MALDIVES 		MANNDHOO, LAAMU 	1.87600 	73.52600 	2486 									1.40 		5 														
* 		MALDIVES 		MARADHOO, SEENU 	.66500 	73.12000 	2544 									1.65 		5 														
* 		MALDIVES 		MARADHOO, SEENU 	.67200 	73.12600 	2543 									1.65 		5 														
* 		MALDIVES 		MARADHOO, SEENU 	.66100 	73.11600 	2544 									1.94 		5 														
* 		MALDIVES 		MARADHOO, SEENU 	.66100 	73.11600 	2544 									1.98 		5 														
* 		MALDIVES 		MULI, MEEMU 	2.92000 	73.58100 	2474 									2.98 		5 														
* 		MALDIVES 		MULI, MEEMU 	2.91900 	73.58100 	2474 									2.11 		5 														
* 		MALDIVES 		MULI, MEEMU 	2.92300 	73.58200 	2474 									2.63 		5 														
* 		MALDIVES 		NORTH MALE ATOLL, DHIFFUSHI IS. 	4.44400 	73.71400 	2460 									2.30 	70.00 	4 														
* 		MALDIVES 		NORTH MALE ATOLL, DHIFFUSHI IS. 	4.44300 	73.71500 	2460 									3.00 	100.00 	4 														
* 		MALDIVES 		NORTH MALE ATOLL, DHIFFUSHI IS. 	4.44300 	73.71500 	2460 									2.60 		4 														
* 		MALDIVES 		NORTH MALE ATOLL, FISH FACTORY 	4.24900 	73.53700 	2479 									1.50 	10.00 	4 														
* 		MALDIVES 		NORTH MALE ATOLL, HUHULE IS. 	4.19500 	73.52600 	2480 									2.00 	20.00 	4 														
* 		MALDIVES 		NORTH MALE ATOLL, HURAA IS. 	4.33400 	73.60100 	2472 									2.20 		4 														
* 		MALDIVES 		NORTH MALE ATOLL, HURAA IS. 	4.33300 	73.59900 	2472 									2.40 	15.00 	4 														
* 		MALDIVES 		NORTH MALE ATOLL, KUDA HURAA IS. 	4.32700 	73.59700 	2473 									1.50 		4 														
* 		MALDIVES 		NORTH MALE ATOLL, MALE IS. 	4.16900 	73.50600 	2482 									1.80 	40.00 	4 														
* 		MALDIVES 		NORTH MALE ATOLL, MALE IS. 	4.17000 	73.51300 	2481 									1.60 	15.00 	4 														
* 		MALDIVES 		NORTH MALE ATOLL, MALE IS. 	4.17000 	73.51700 	2481 									1.70 	10.00 	4 														
* 		MALDIVES 		NORTH MALE ATOLL, MALE IS. 	4.17400 	73.51800 	2481 									2.20 	20.00 	4 														
* 		MALDIVES 		NORTH MALE ATOLL, MALE IS. 	4.17900 	73.51400 	2481 									1.30 	70.00 	4 														
* 		MALDIVES 		NORTH MALE ATOLL, MALE IS. 	4.17900 	73.51300 	2481 									1.40 	10.00 	4 														
* 		MALDIVES 		NORTH MALE ATOLL, MALE IS. 	4.18000 	73.51000 	2482 									1.70 	10.00 	4 														
* 		MALDIVES 		NORTH MALE ATOLL, MALE IS. 	4.17200 	73.50200 	2483 									2.40 	30.00 	4 														
* 		MALDIVES 		RINBUDHOO, DHAALU 	2.92400 	72.89800 	2550 									2.26 		5 														
* 		MALDIVES 		RINBUDHOO, DHAALU 	2.92500 	72.89600 	2550 									2.71 		5 														
* 		MALDIVES 		RINBUDHOO, DHAALU 	2.92600 	72.89400 	2550 									3.18 		5 														
* 		MALDIVES 		SOUTH MALE ATOLL, ENBOODHOO FINOLHU 	4.10300 	73.52500 	2480 									2.80 		4 														
* 		MALDIVES 		SOUTH MALE ATOLL, ENBOODHOO FINOLHU 	4.10300 	73.52500 	2480 									1.70 	50.00 	4 														
* 		MALDIVES 		VADOO ISLAND RESORT, SOUTH MALE 	4.12400 	73.45800 	2487 									.65 		5 														
* 		MALDIVES 		VILUFUSHI, THAA 	2.50317 	73.30952 	2506 									3.07 	49.00 	4 														
* 		MALDIVES 		VILUFUSHI, THAA 	2.50329 	73.30969 	2506 									3.70 	28.00 	4 														
* 		MALDIVES 		VILUFUSHI, THAA 	2.50316 	73.30986 	2506 									3.75 	11.00 	4 														
* 		MALDIVES 		VILUFUSHI, THAA 	2.50317 	73.30986 	2506 									3.57 	10.00 	4 														
* 		MALDIVES 		VILUFUSHI, THAA 	2.50364 	73.30961 	2506 									3.43 	14.00 	4 														
* 		MALDIVES 		VILUFUSHI, THAA 	2.50375 	73.30960 	2506 									4.07 	8.00 	4 			18 	1 									192 	2
* 		MALDIVES 		VILUFUSHI, THAA 	2.50399 	73.30940 	2506 									3.74 	13.00 	4 														
* 		MALDIVES 		VILUFUSHI, THAA 	2.50444 	73.30935 	2506 									3.67 	4.00 	4 														
* 		MALDIVES 		VILUFUSHI, THAA 	2.50617 	73.30790 	2506 									3.27 	21.00 	4 														
* 		MALDIVES 		VILUFUSHI, THAA 	2.50546 	73.30759 	2506 									2.14 	72.00 	4 														
* 		MALDIVES 		VILUFUSHI, THAA 	2.50556 	73.30728 	2506 									3.03 	102.00 	4 														
* 		MALDIVES 		VILUFUSHI, THAA 	2.50423 	73.30899 	2506 									2.66 	39.00 	4 														
* 		MALDIVES 		VILUFUSHI, THAA 	2.50315 	73.30956 	2506 									3.71 	45.00 	4 														
* 		MALDIVES 		VILUFUSHI, THAA 	2.50322 	73.30929 	2506 									2.35 	74.00 	4 														
* 		MALDIVES 		VILUFUSHI, THAA 	2.50322 	73.30929 	2506 									2.77 	74.00 	4 														
* 		MALDIVES 		VILUFUSHI, THAA 	2.50333 	73.30892 	2506 									2.36 	111.00 	4 														
* 		MALDIVES 		VILUFUSHI, THAA 	2.50330 	73.30868 	2506 									3.29 	139.00 	4 														
* 		MALDIVES 		VILUFUSHI, THAA 	2.50356 	73.30856 	2506 									2.11 	135.00 	4 														
* 		MALDIVES 		VILUFUSHI, THAA 	2.50194 	73.31004 	2506 									3.44 	5.00 	4 														
* 		MALDIVES 		VILUFUSHI, THAA 	2.50247 	73.30857 	2506 									3.59 	163.00 	4 														
* 		MAURITIUS 		ANSE GOELANDS, RODRIGUES 	-19.70720 	63.37930 	4376 									1.00 		5 														
* 		MAURITIUS 		ANSE-AUX-ANGLAIS, RODRIGUES 	-19.67510 	63.43280 	4369 									1.72 		4 														
* 		MAURITIUS 		BAIE-AUX-HUITRES, RODRIGUES 	-19.69120 	63.40740 	4372 									2.15 	191.00 	5 														
* 		MAURITIUS 		BELLE MARE 	-20.16040 	57.75890 	4910 									1.34 		5 														
* 		MAURITIUS 		COTTON BAY, RODRIGUES 	-19.68500 	63.49630 	4364 									1.07 	147.00 	5 														
* 		MAURITIUS 		COTTON BAY, RODRIGUES 	-19.68520 	63.49630 	4364 									1.90 		5 														
* 		MAURITIUS 		GRAND BAIE, RODRIGUES 	-19.67380 	63.44920 	4368 									2.43 		4 														
* 		MAURITIUS 		GRAND BAIE, RODRIGUES 	-19.67480 	63.44910 	4368 									1.99 	451.00 	5 														
* 		MAURITIUS 		GRAND BAIE, RODRIGUES 	-19.67380 	63.44920 	4368 									1.73 		4 														
* 		MAURITIUS 		GRAND BAIE, RODRIGUES 	-19.67380 	63.44920 	4368 									2.15 		4 														
* 		MAURITIUS 		GRANDE BAIE, RODRIGUES 	-20.00050 	57.58150 	4918 									1.00 		5 														
* 		MAURITIUS 		PETIT GRAVIER, RODRIGUES 	-19.72810 	63.48330 	4368 									1.54 		5 														
* 		MAURITIUS 		PETIT GRAVIER, RODRIGUES 	-19.72890 	63.48250 	4368 									3.80 	24.00 	9 														
* 		MAURITIUS 		PETIT GRAVIER, RODRIGUES 	-19.72790 	63.48420 	4368 									2.88 		4 														
* 		MAURITIUS 		PETIT GRAVIER, RODRIGUES 	-19.72860 	63.48470 	4368 									2.60 		4 														
* 		MAURITIUS 		PORT LOUIS HARBOUR 	-20.15730 	57.50410 	4933 	26 	7 	46 	6 	47 				.98 		2 														
* 		MAURITIUS 		PORT MATHURIN, RODRIGUES 	-19.68400 	63.41860 	4371 									1.52 		4 														
* 		MAURITIUS 		PORT MATHURIN, RODRIGUES 	-19.68090 	63.41970 	4371 									1.59 	334.00 	5 														
* 		MAURITIUS 		PORT MATHURIN, RODRIGUES 	-19.68000 	63.42140 	4370 									1.76 		4 														
* 		MAURITIUS 		PORT MATHURIN, RODRIGUES 	-19.67950 	63.42390 	4370 									1.64 	85.00 	5 														
* 		MAURITIUS 		RIVIERE COCOS, RODRIGUES 	-19.74430 	63.40900 	4375 									1.00 		5 														
* 		MAURITIUS 		RODRIGUES ISLAND, PORT MATHURIN 	-19.68024 	63.42119 	4371 	26 	6 	40 	5 	41 						2 												1 		
* 		MAURITIUS 		SAINT-FRANCOIS, RODRIGUES 	-19.70260 	63.49590 	4365 									2.70 		4 														
* 		MAURITIUS 		SAINT-FRANCOIS, RODRIGUES 	-19.70260 	63.49590 	4365 									1.16 		5 														
* 		MEXICO 	BAJA CALIFORNIA SUR 	CABO SAN LUCAS 	22.88300 	-109.90000 	15983 	27 	6 	26 	29 	27 				.12 		2 														
* 		MEXICO 	COLIMA 	MANZANILLO 	19.05000 	-104.33300 	16694 									.40 		2 														
* 		MOZAMBIQUE 		MOZAMBIQUE 	-15.05000 	40.75000 	6401 											5 														
* 		MYANMAR (BURMA) 		ALL OF MYANMAR (BURMA) 												2.90 		5 			61 	2 					500 	4 				
* 		MYANMAR (BURMA) 		AUNG HLAING VILLAGE 	15.77200 	94.98400 	1389 									1.50 		5 													55 	2
* 		MYANMAR (BURMA) 		AYEYARWADDY DELTA 														5 			32 	1 			50 	1 		1 			550 	3
* 		MYANMAR (BURMA) 		DOLPHIN CLUB, SALON ISLAND 	9.99000 	98.48800 	797 									.40 		5 														
* 		MYANMAR (BURMA) 		KAING THAUNG ISLAND VILLAGE 	15.73300 	95.06300 	1384 									2.30 		5 			8 	1 									16 	1
* 		MYANMAR (BURMA) 		KAING THAUNG ISLAND, PAGODA 	15.73400 	95.06400 	1384 									1.90 		5 														
* 		MYANMAR (BURMA) 		KAPYET THAUNG VILLAGE 	15.80600 	94.73900 	1395 									2.00 		5 			17 	1 						1 	130 	1 		
* 		MYANMAR (BURMA) 		KONNAMAING CHAUNGWA VILLAGE 	10.03600 	98.52400 	803 									1.90 		5 			1 	1 						1 	8 	1 		
* 		MYANMAR (BURMA) 		KYAUKMATTAT VILLAGE 	13.58100 	98.15100 	1169 									.90 		5 														
* 		MYANMAR (BURMA) 		KYET LUT BEACH 	13.55900 	98.14000 	1167 									1.90 		5 														
* 		MYANMAR (BURMA) 		LAYYIN KWIN (AIRFIELD) VILLAGE 	15.79000 	94.80600 	1392 									.60 		5 			1 	1 						1 	16 	1 		
* 		MYANMAR (BURMA) 		MAUNGMAGAN BEACH 	14.14400 	98.09100 	1229 									1.80 		5 														
* 		MYANMAR (BURMA) 		MYAW YIT GYI PAGODA 	14.08800 	98.07000 	1223 									1.40 		5 														
* 		MYANMAR (BURMA) 		MYOMA JETTY, KAWTHAUNG 	9.97800 	98.55300 	799 									1.60 		5 														
* 		MYANMAR (BURMA) 		NYAWBYIN VILLAGE 	13.63500 	98.14600 	1175 									2.00 		5 														
* 		MYANMAR (BURMA) 		PAHTAW VILLAGE 	12.44900 	98.58700 	1059 									2.20 		5 														
* 		MYANMAR (BURMA) 		PALAUTONTON ISLAND 	10.02600 	98.51200 	802 									2.50 		5 			1 	1 								1 		
* 		MYANMAR (BURMA) 		RAKINE 														5 			21 	1 										
* 		MYANMAR (BURMA) 		SANN LAN VILLAGE 	13.94000 	98.07600 	1207 									2.90 		5 														
* 		MYANMAR (BURMA) 		TANNYOPADA VILLAGE 	10.09300 	98.51500 	809 									1.70 		5 														
* 		MYANMAR (BURMA) 		THABAWSEIK-KYAUKSENT VILLAGE 	14.10600 	98.09800 	1225 									1.60 		5 														
* 		MYANMAR (BURMA) 		THANDER KYUN VILLAGE 	12.49400 	98.51500 	1062 									.70 		5 														
* 		MYANMAR (BURMA) 		THIRIMYAING QUARTER, KAWTHAUNG 	10.00100 	98.53500 	800 									2.60 		5 			8 	1 						1 			83 	2
* 		MYANMAR (BURMA) 		THIT POKE VILLAGE 	15.78300 	94.97800 	1390 									1.70 		5 													2 	1
* 		MYANMAR (BURMA) 		YWARTHAYA VILLAGE, SALONLAY ISLAND 	10.00700 	98.48000 	799 									1.80 		5 														
* 		NEW CALEDONIA 		NOUMEA 	-22.24660 	166.41160 	8164 									.05 		2 														
* 		NEW ZEALAND 	BAY OF PLENTY 	TAURANGA 	-37.64109 	176.18118 	9388 	27 	2 	11 	25 	12 				.10 		2 	70 													
* 		NEW ZEALAND 	CANTERBURY 	LYTTELTON 	-43.60580 	172.72220 	9216 	27 	1 	59 	25 	0 				.48 		2 	54 													
* 		NEW ZEALAND 	WELLINGTON 	WELLINGTON 	-41.28460 	174.77910 	9334 	27 	1 	17 	24 	18 				.24 		2 	31 													
* 		NEW ZEALAND 		BLUFF HARBOR 	-46.58900 	168.32900 	8957 	26 	19 	23 	18 	24 				.22 		2 	37 													
* 		NEW ZEALAND 		CHARLESTON 	-41.90800 	171.43300 	9074 									.40 		2 														
* 		NEW ZEALAND 		CHATHAM ISLAND 	-43.95000 	-176.56700 	10073 									.18 		2 														
* 		NEW ZEALAND 		DOG ISLAND 	-46.65200 	168.41200 	8965 									.35 		2 														
* 		NEW ZEALAND 		GISBORNE 	-38.67540 	178.02300 	9564 	26 	19 	5 	18 	6 				.39 		2 	47 													
* 		NEW ZEALAND 		GREEN ISLAND 	-45.95230 	170.38670 	9092 									.40 		2 														
* 		NEW ZEALAND 		JACKSON BAY 	-43.97330 	168.61610 	8904 	26 	19 	17 	18 	18 				.91 		2 	26 													
* 		NEW ZEALAND 		KAIKOURA 	-42.41290 	173.70280 	9269 									.50 		2 														
* 		NEW ZEALAND 		KAINGAROA, CHATHAM ISLAND 	-43.73150 	-176.73300 	10058 									.30 		2 														
* 		NEW ZEALAND 		KAIPARA 	-36.36200 	174.18200 	9190 	26 	20 	47 	19 	48 				.22 		2 	78 													
* 		NEW ZEALAND 		LITTLE KAITERITERI 	-41.04800 	173.02700 	9185 									.60 		2 														
* 		NEW ZEALAND 		MANUKAU 	-37.07300 	174.67900 	9247 	26 	22 	53 	21 	54 				.31 		2 	54 													
* 		NEW ZEALAND 		MOTURIKI ISLAND 	-37.63040 	176.18600 	9388 									.16 		2 														
* 		NEW ZEALAND 		NELSON 	-41.26130 	173.27278 	9210 	27 	0 	5 	23 	6 				.64 		2 	45 													
* 		NEW ZEALAND 		OTAGO 	-45.75500 	170.68200 	9110 	26 	19 	23 	18 	24 				.27 		2 	29 													
* 		NEW ZEALAND 		PORT NAPIER 	-39.47570 	176.92010 	9481 	26 	22 	11 	21 	12 				.61 		2 	34 													
* 		NEW ZEALAND 		SUMNER HEAD 	-43.57000 	172.77300 	9219 									.50 		2 														
* 		NEW ZEALAND 		TARANAKI 	-38.97000 	174.46000 	9263 	26 	21 	11 	20 	12 				.60 		2 	33 													
* 		NEW ZEALAND 		TIMARU 	-44.39200 	171.25400 	9119 	26 	19 	5 	18 	6 				1.05 		2 	43 													
* 		NEW ZEALAND 		WAITEMATA 	-36.81100 	175.00700 	9271 	27 	2 	17 	25 	18 				.08 		2 	55 													
* 		NEW ZEALAND 		WESTGATE, PORT TARANAKI 	-39.06700 	174.03300 	9229 									.50 		2 														
* 		NEW ZEALAND 		WHANGAREI 	-35.97300 	174.46000 	9208 	27 	1 	29 	24 	30 				.26 		2 	37 													
* 		NEW ZEALAND 		WHITIANGA 	-36.83300 	-175.70900 	10092 									.25 		2 														
* 		OMAN 		AL KABAH 	20.13718 	57.81995 	4527 									1.50 	72.00 	5 														
* 		OMAN 		AL LABKI 	18.23859 	56.56582 	4587 									2.30 	447.00 	5 														
* 		OMAN 		AL SHOUYAMIYA 	17.88160 	55.60742 	4673 									1.48 	6.00 	5 														
* 		OMAN 		AL SHUAAYR 	19.50029 	57.71287 	4514 									2.40 	42.00 	5 														
* 		OMAN 		AL SHUAAYR 	19.50029 	57.71287 	4514 									5.40 	29.00 	9 														
* 		OMAN 		AN NAJDAH 	20.84741 	58.73710 	4464 									.40 	4.00 	5 														
* 		OMAN 		DHALKUT 	16.70413 	53.25172 	4884 									2.13 	184.00 	5 														
* 		OMAN 		DHALKUT 	16.70393 	53.25412 	4883 									1.64 		4 														
* 		OMAN 		DIRIF 	18.91070 	57.28212 	4537 									1.20 	15.00 	5 														
* 		OMAN 		HADBEEN 	17.20583 	55.23318 	4692 									1.55 	12.00 	5 														
* 		OMAN 		HADBEEN 	17.19630 	55.21850 	4693 									.13 	82.00 	5 														
* 		OMAN 		HADBEEN 	17.19630 	55.21850 	4693 									1.85 	22.00 	4 														
* 		OMAN 		HAQAL 	20.35828 	58.79884 	4439 									1.70 	42.00 	5 														
* 		OMAN 		HASIK 	17.42207 	55.28722 	4693 									.83 	4.00 	5 														
* 		OMAN 		HASIK 	17.44945 	55.27092 	4695 									1.04 	4.00 	5 														
* 		OMAN 		HAYTAM 	18.81316 	56.92918 	4569 									1.30 	25.00 	5 														
* 		OMAN 		MAHWAT ISLAND 	20.57478 	58.17527 	4508 									.70 	13.00 	5 														
* 		OMAN 		MIRBAT 	16.98613 	54.68722 	4742 									1.73 	22.00 	5 														
* 		OMAN 		MURGHSAIL 	16.87815 	53.77197 	4834 									2.88 	9.00 	5 														
* 		OMAN 		QAYSAD 	18.42390 	56.62197 	4587 									1.10 	162.00 	5 														
* 		OMAN 		RAKHYUT 	16.74588 	53.42552 	4867 									1.81 	27.00 	5 														
* 		OMAN 		RAKHYUT 	16.74490 	53.41733 	4868 									2.62 	59.00 	5 														
* 		OMAN 		RAS AL DUQM 	19.65993 	57.72089 	4519 									2.60 	43.00 	5 														
* 		OMAN 		RAS AL DUQM 	19.66614 	57.70798 	4520 									2.30 	48.00 	5 														
* 		OMAN 		RAS AL JAZIRAH 	20.57542 	58.93170 	4434 									1.80 	59.00 	5 														
* 		OMAN 		RAS AL JAZIRAH 	20.57542 	58.93170 	4434 									1.50 	24.00 	5 														
* 		OMAN 		RAS AL JAZIRAH 	20.58067 	58.92474 	4435 									2.00 	79.00 	5 														
* 		OMAN 		RAS AL JAZIRAH 	20.43837 	58.84107 	4438 									1.80 	29.00 	5 														
* 		OMAN 		RAS AL MADRAKAH 	18.97030 	57.80395 	4486 									1.80 	32.00 	5 														
* 		OMAN 		RAS AL MADRAKAH 	18.97013 	57.80364 	4486 									1.70 	42.00 	5 														
* 		OMAN 		RAYSUT 	16.93750 	54.00655 	4811 									2.50 		4 														
* 		OMAN 		RAYSUT 	16.96548 	54.00043 	4813 									1.24 	154.00 	5 														
* 		OMAN 		RAYSUT 	16.96367 	53.99978 	4813 									1.71 	88.00 	5 														
* 		OMAN 		RU 	20.46554 	58.78273 	4445 									1.30 	143.00 	5 														
* 		OMAN 		SADAH 	17.04825 	55.07482 	4704 									.82 	36.00 	5 														
* 		OMAN 		SADAH 	17.04948 	55.07288 	4704 									1.30 	13.00 	4 														
* 		OMAN 		SADAH 	17.04948 	55.07288 	4704 									.21 	58.00 	5 														
* 		OMAN 		SALALAH 	17.00010 	54.10903 	4803 									2.67 	13.00 	5 														
* 		OMAN 		SALALAH 	16.97602 	54.01005 	4812 									3.25 	71.00 	5 														
* 		OMAN 		SALALAH 	16.97585 	54.01010 	4812 									3.10 	35.00 	4 														
* 		OMAN 		SALALAH 	16.94100 	54.00800 	4811 	26 	8 	8 	7 	9 				1.31 		2 		R 												
* 		OMAN 		SALALAH 	16.99935 	54.10498 	4803 									2.34 	27.00 	5 														
* 		OMAN 		SERBARAT 	17.93347 	56.27334 	4607 									1.10 	25.00 	5 														
* 		OMAN 		SHANNAH 	20.74635 	58.73264 	4460 									1.05 		4 														
* 		OMAN 		SOUTH CAPE, MASIRAH 	20.16627 	58.63723 	4447 											5 														
* 		OMAN 		TAQAH 	17.03362 	54.40388 	4773 									2.44 	73.00 	5 														
* 		PERU 		CALLAO LA PUNTA 	-12.06900 	-77.16680 	18780 	27 	5 	49 	28 	50 				.34 		2 														
* 		REUNION (FRENCH TERRITORY) 		LE PORT 	-20.93330 	55.32420 	5175 									2.74 		5 														
* 		REUNION (FRENCH TERRITORY) 		REUNION 	-20.93500 	55.28470 	5178 	26 	7 	55 	6 	56 				.35 		2 		R 												
* 		REUNION (FRENCH TERRITORY) 		SAINT-GILLES 	-21.05310 	55.22380 	5190 									1.00 		4 														
* 		REUNION (FRENCH TERRITORY) 		SAINT-GILLES 	-21.05460 	55.22470 	5190 									1.30 		4 														
* 		REUNION (FRENCH TERRITORY) 		SAINT-GILLES 	-21.05260 	55.22350 	5190 									2.44 		5 									.15 	1 				
* 		REUNION (FRENCH TERRITORY) 		SAINT-GILLES 	-21.05220 	55.22310 	5190 									2.00 		5 														
* 		REUNION (FRENCH TERRITORY) 		SAINT-GILLES 	-21.05550 	55.22440 	5190 									1.30 		4 														
* 		REUNION (FRENCH TERRITORY) 		SAINT-GILLES 	-21.05570 	55.22350 	5190 									1.30 		5 														
* 		REUNION (FRENCH TERRITORY) 		SAINT-GILLES 	-21.05550 	55.22390 	5190 									.85 		4 														
* 		REUNION (FRENCH TERRITORY) 		SAINT-LEU 	-21.16830 	55.28610 	5190 									1.10 		4 														
* 		REUNION (FRENCH TERRITORY) 		SAINT-PIERRE 	-21.34410 	55.47540 	5181 									.50 		4 														
* 		REUNION (FRENCH TERRITORY) 		SAINT-PIERRE 	-21.34500 	55.47710 	5181 									1.40 		4 														
* 		REUNION (FRENCH TERRITORY) 		SAINT-PIERRE 	-21.34430 	55.47650 	5181 									.80 		4 														
* 		REUNION (FRENCH TERRITORY) 		SAINTE-MARIE 	-20.89300 	55.53590 	5153 									2.03 		5 									.5 	1 				
* 		REUNION (FRENCH TERRITORY) 		SAINTE-ROSE 	-21.12560 	55.78690 	5142 									1.95 		4 														
* 		REUNION (FRENCH TERRITORY) 		SAINTE-ROSE 	-21.12530 	55.78780 	5141 									2.00 		4 														
* 		RUSSIA 	KURIL ISLANDS 	SEVERO-KURILSK, PARAMUSHIR ISLAND 	50.68333 	156.13000 	7675 	27 	13 	30 	36 	31 				.15 		2 														
* 		SEYCHELLES 		ALL OF SEYCHELLES 												4.40 		5 			2 	1 					31 	4 				3
* 		SEYCHELLES 		ANSE AUX PINS, MAHE ISLAND 	-4.70362 	55.52172 	4570 									1.90 	50.00 	5 														
* 		SEYCHELLES 		ANSE BOILEAU, MAHE ISLAND 	-4.70628 	55.47890 	4575 									2.50 	53.00 	5 														
* 		SEYCHELLES 		ANSE FORBANS, MAHE ISLAND 	-4.78065 	55.52328 	4571 									2.80 	20.00 	5 														
* 		SEYCHELLES 		ANSE PETITE COUR, PRASLIN ISLAND 	-4.31043 	55.73578 	4539 									2.50 	225.00 	5 														
* 		SEYCHELLES 		ANSE POSSESSION, PRASLIN ISLAND 	-4.31212 	55.72685 	4540 									3.00 	65.00 	5 														
* 		SEYCHELLES 		ANSE ROYALE NORTH, MAHE ISLAND 												3.80 	100.00 	5 														
* 		SEYCHELLES 		ANSE ROYALE SOUTH, MAHE ISLAND 	-4.75200 	55.51542 	4572 									4.40 	100.00 	5 														
* 		SEYCHELLES 		ANSE VOLBERT, PRASLIN ISLAND 	-4.31433 	55.74420 	4538 									2.00 	100.00 	5 														
* 		SEYCHELLES 		ANSE VOLBERT, PRASLIN ISLAND 	-4.31238 	55.73978 	4538 									1.90 	100.00 	5 														
* 		SEYCHELLES 		ANSE Ã€ LA MOUCHE, MAHE ISLAND 	-4.73960 	55.49032 	4574 									3.50 	250.00 	5 														
* 		SEYCHELLES 		BAIE LAZARE, MAHE ISLAND 	-4.74132 	55.48700 	4574 									1.60 	20.00 	5 														
* 		SEYCHELLES 		BAIE STE ANNE, PRASLIN ISLAND 	-4.34167 	55.76667 	4536 									1.80 		5 														
* 		SEYCHELLES 		BEAU VALLON, MAHE ISLAND 	-4.60857 	55.43162 	4578 									1.70 	10.00 	5 														
* 		SEYCHELLES 		CHEVALIER BAY, PRASLIN ISLAND 	-4.29333 	55.70207 	4542 									3.10 	140.00 	5 														
* 		SEYCHELLES 		GRAND ANSE, MAHE ISLAND 	-4.67643 	55.44385 	4578 									4.30 		5 														
* 		SEYCHELLES 		GRANDE ANSE, PRASLIN ISLAND 	-4.33217 	55.71975 	4541 									3.60 	50.00 	5 														
* 		SEYCHELLES 		NORTHEAST POINT, MAHE ISLAND 	-4.58478 	55.46248 	4574 									2.20 	100.00 	5 														
* 		SEYCHELLES 		POINTE AU SEL, MAHE ISLAND 	-4.73123 	55.52487 	4570 									2.80 	35.00 	5 														
* 		SEYCHELLES 		POINTE LA RUE, MAHE ISLAND 	-4.67620 	55.52940 	4568 	26 	8 	16 	7 	17 				1.39 		2 		R 												
* 		SEYCHELLES 		SEYCHELLES AIRPORT, MAHE ISLAND 	-4.68208 	55.53290 	4568 									3.00 	200.00 	5 														
* 		SEYCHELLES 		VICTORIA DOWNTOWN, MAHE ISLAND 	-4.62325 	55.45870 	4575 									1.70 	200.00 	5 														
* 		SOMALIA 		ALL OF SOMALIA 												9.52 		5 			289 	3 					100 	4 		1 		
* 		SOMALIA 		BANDARBEYLA 	9.49649 	50.81292 	5022 									6.84 	63.30 	5 														
* 		SOMALIA 		BANDARBEYLA 	9.49755 	50.81258 	5022 									6.14 	44.40 	5 														
* 		SOMALIA 		BANDARBEYLA 	9.49592 	50.81331 	5021 									6.64 	41.30 	5 														
* 		SOMALIA 		BANDARBEYLA 	9.49407 	50.81420 	5021 									7.94 	45.90 	5 														
* 		SOMALIA 		BANDARBEYLA 	9.49186 	50.81546 	5021 									8.64 	45.20 	5 														
* 		SOMALIA 		BANDARBEYLA 	9.49094 	50.81599 	5021 									8.54 	42.20 	5 														
* 		SOMALIA 		BANDARBEYLA 	9.49316 	50.81461 	5021 									8.94 	48.60 	5 			7 	1 			30 	1 			102 	3 		
* 		SOMALIA 		BARGAAL 	11.28311 	51.07861 	5012 									5.09 	83.90 	5 														
* 		SOMALIA 		BARGAAL 	11.28567 	51.07848 	5012 									6.49 	132.30 	5 														
* 		SOMALIA 		EYL 	7.96001 	49.84540 	5116 									6.32 	216.30 	5 														
* 		SOMALIA 		EYL 	7.96542 	49.84935 	5115 									6.36 	226.70 	5 														
* 		SOMALIA 		EYL 	7.96071 	49.84294 	5116 									9.52 	500.70 	5 			95 	2 			80 	2 			48 	1 		
* 		SOMALIA 		FOAR 	10.31223 	50.89717 	5021 									6.37 	145.40 	5 														
* 		SOMALIA 		FOAR 	10.31144 	50.89736 	5021 									6.37 	122.30 	5 														
* 		SOMALIA 		FOAR 	10.30845 	50.89774 	5020 									5.97 	44.00 	5 														
* 		SOMALIA 		FOAR 	10.31077 	50.89758 	5021 									7.47 	62.30 	5 			2 	1 			6 	1 			50 	1 		1
* 		SOMALIA 		FOAR 	10.31333 	50.89751 	5021 									6.37 	169.50 	5 														
* 		SOMALIA 		XAAFUUN 	10.42228 	51.25936 	4982 									3.92 	198.00 	4 														
* 		SOMALIA 		XAAFUUN 	10.42515 	51.25942 	4982 									4.32 	509.20 	5 														
* 		SOMALIA 		XAAFUUN 	10.42793 	51.25533 	4983 									5.49 	662.50 	5 														
* 		SOMALIA 		XAAFUUN 	10.42834 	51.25541 	4983 									4.49 	704.00 	5 														
* 		SOMALIA 		XAAFUUN 	10.42105 	51.25939 	4982 									4.24 	64.30 	4 														
* 		SOMALIA 		XAAFUUN 	10.42260 	51.25969 	4982 									3.97 	239.80 	5 														
* 		SOMALIA 		XAAFUUN 	10.42168 	51.26221 	4982 									5.67 	230.60 	5 			179 	3 							812 	3 	400 	3
* 		SOMALIA 		XAAFUUN 	10.42135 	51.25944 	4982 									3.72 	97.30 	4 														
* 		SOMALIA 		XAAFUUN 	10.42185 	51.25931 	4982 									3.43 	149.80 	4 														
* 		SOMALIA 		XAAFUUN 	10.42161 	51.25924 	4982 									3.55 	122.60 	4 														
* 		SOMALIA 		XAAFUUN-SPIT 	10.42494 	51.19131 	4990 									4.87 	305.00 	5 														
* 		SOUTH AFRICA 		ALL OF SOUTH AFRICA 												1.50 		1 			2 	1 										
* 		SOUTH AFRICA 		BLUE HORIZON BAY 	-33.98000 	25.25000 	8449 											1 			1 	1 			2 	1 						
* 		SOUTH AFRICA 		CAPE TOWN 	-33.19270 	18.42000 	9050 	26 	15 	0 	14 	1 	27 	14 	1 	.44 		2 		F 												
* 		SOUTH AFRICA 		EAST LONDON 	-33.02000 	27.92000 	8182 	26 	12 	28 	11 	29 				.64 		2 		R 												
* 		SOUTH AFRICA 		MOSSEL BAY 	-34.18000 	22.08000 	8738 	26 	14 	1 	13 	2 				.78 		2 		R 												
* 		SOUTH AFRICA 		PORT ELIZABETH 	-33.96666 	25.63333 	8414 	26 	13 	12 	12 	13 				1.34 		2 		R 												
* 		SOUTH AFRICA 		PORT NOLLOTH 	-29.25000 	16.87000 	9127 	26 	16 	1 	15 	2 	27 	3 	52 	.25 		2 		R 												
* 		SOUTH AFRICA 		RICHARDS BAY 	-28.80000 	32.08000 	7672 	26 	12 	6 	11 	7 				.76 		2 		R 												
* 		SOUTH AFRICA 		SALDANHA 	-33.02000 	18.97000 	8996 	26 	15 	28 	14 	29 	27 	7 	1 	.37 		2 		F 												
* 		SOUTH AFRICA 		SIMON'S BAY 	-34.19000 	18.44000 	9067 	26 	14 	18 	13 	19 	27 	19 	21 	.43 		2 		R 												
* 		SOUTH AFRICA 		STRUISBAAI 	-34.79800 	20.05100 	8934 									1.50 		1 		F 												
* 		SRI LANKA 		ABALANGODA 	6.24600 	80.04700 	1782 									6.00 		4 														
* 		SRI LANKA 		ADDACACHCHENA 	7.25000 	81.86400 	1610 									5.00 	100.00 	4 														
* 		SRI LANKA 		AHANGAMA 	5.97400 	80.36100 	1743 									3.00 	50.00 	4 														
* 		SRI LANKA 		AKKARAIPATTU 	7.20900 	81.86000 	1609 									4.50 	200.00 	4 														
* 		SRI LANKA 		ALL OF SRI LANKA 												12.50 		5 			35322 	4 					1316.5 	4 	65275 	4 	38561 	4
* 		SRI LANKA 		AMBALAGODA BEACH 	6.22900 	80.05300 	1781 									4.72 		5 														
* 		SRI LANKA 		BALAPITIYA BEACH 	6.27400 	80.03600 	1784 									5.30 	50.00 	4 														
* 		SRI LANKA 		BENTOTA NORTH 	6.42400 	79.99500 	1791 									5.50 	130.00 	4 														
* 		SRI LANKA 		BERAWALA 	6.48600 	79.98300 	1794 									6.00 		4 														
* 		SRI LANKA 		BERUWALA FISHERY PORT 	6.47200 	79.97900 	1794 									2.35 		5 														
* 		SRI LANKA 		BERUWALA FISHERY PORT NORTH BEACH 	6.47900 	79.98300 	1793 									4.82 		5 														
* 		SRI LANKA 		BOOSA 	6.04776 	80.09014 	1774 									1.50 	30.00 	5 										1 		1 		
* 		SRI LANKA 		BOOSA 	6.04776 	80.09014 	1774 									2.50 		5 										1 				1
* 		SRI LANKA 		CHEDDIPALAYAM 	7.58400 	81.79000 	1628 									6.00 		4 														
* 		SRI LANKA 		CHINA BAY 	8.57200 	81.19200 	1724 									3.20 	10.00 	4 														
* 		SRI LANKA 		CHINA BAY FERRY 	8.51200 	81.19100 	1722 									3.30 		4 														
* 		SRI LANKA 		CHINA BAY-KINNAYA 	8.50376 	81.19094 	1721 									2.80 		4 														
* 		SRI LANKA 		CHINA BAY-MUTUR 	8.49240 	81.19206 	1721 									3.35 		4 														
* 		SRI LANKA 		CHINA BAY-MUTUR 	8.46315 	81.26444 	1712 									3.25 		4 														
* 		SRI LANKA 		COLOMBO 	6.94830 	79.85330 	1818 	26 	3 	49 	2 	50 				1.50 		2 		R 												
* 		SRI LANKA 		DEHIWALA 	6.87767 	79.85640 	1816 									3.48 		5 														
* 		SRI LANKA 		DICKWELLA 	5.96300 	80.69300 	1706 									5.54 		5 														
* 		SRI LANKA 		DODANDUWA 	6.08372 	80.14692 	1768 									3.60 		4 														
* 		SRI LANKA 		DODANDUWA 	6.10400 	80.12600 	1771 									3.98 		5 														
* 		SRI LANKA 		EVA HOTEL, TANGALLE 	6.03000 	80.79800 	1696 									7.50 		4 														
* 		SRI LANKA 		GALBOKKA 	6.32332 	80.03091 	1785 									4.26 		5 														
* 		SRI LANKA 		GALLE 	6.00973 	80.24915 	1755 									5.24 		4 														
* 		SRI LANKA 		GALLE CENTER 	6.02500 	80.21600 	1759 									6.00 	50.00 	4 														
* 		SRI LANKA 		GALLE CITY OFFICE 	6.03400 	80.21500 	1760 									3.93 		5 														
* 		SRI LANKA 		GALLE FORT 	6.02000 	80.22200 	1759 									10.00 		4 														
* 		SRI LANKA 		GALLE FORT 	6.02800 	80.21900 	1759 									4.89 		5 														
* 		SRI LANKA 		GALLE NORTH 	6.04800 	80.18900 	1763 									4.00 		4 														
* 		SRI LANKA 		GALLE PORT 	6.03300 	80.23300 	1758 									6.03 		5 														
* 		SRI LANKA 		GALLE PORT NORTH BEACH 	6.03700 	80.22400 	1759 									4.71 		5 														
* 		SRI LANKA 		GALLE PORT SOUTH BEACH 	6.03400 	80.23700 	1757 									4.79 		5 														
* 		SRI LANKA 		GIN RIVER 	6.06400 	80.17400 	1765 									4.10 		5 														
* 		SRI LANKA 		GIN RIVER 	6.08800 	80.18300 	1764 									1.75 		5 														
* 		SRI LANKA 		GIN RIVER 	6.07400 	80.17800 	1764 									2.11 		5 														
* 		SRI LANKA 		HAMBANTOTA 	6.11800 	81.09800 	1665 									10.00 		4 														
* 		SRI LANKA 		HAMBANTOTA 	6.12845 	81.12752 	1662 									6.10 		4 														
* 		SRI LANKA 		HAMBANTOTA 	6.12845 	81.12752 	1662 									11.00 		5 														
* 		SRI LANKA 		HAMBANTOTA 	6.12500 	81.12600 	1662 									11.00 		4 														
* 		SRI LANKA 		HAMBANTOTA 	6.13500 	81.13500 	1661 									8.80 		5 														
* 		SRI LANKA 		HAMBANTOTA 	6.13100 	81.12900 	1662 									7.38 		5 														
* 		SRI LANKA 		HAMBANTOTA HARBOR 	6.12400 	81.12700 	1662 									10.87 		5 														
* 		SRI LANKA 		HIKKADUWA 	6.12752 	80.10413 	1773 									4.20 		4 														
* 		SRI LANKA 		HIKKADUWA 	6.13200 	80.10200 	1774 									3.40 		5 														
* 		SRI LANKA 		HIKKADUWA 	6.07736 	80.06159 	1777 										34.00 	5 														
* 		SRI LANKA 		HIKKADUWA FISHERY HARBOR 	6.14200 	80.09900 	1774 									4.73 		5 														
* 		SRI LANKA 		IBRAL NAGAR NALALEVI 	8.66062 	81.21794 	1724 									4.65 		4 														
* 		SRI LANKA 		IBRAL NAGAR NALALEVI 	8.66027 	81.21918 	1724 									4.50 		4 														
* 		SRI LANKA 		IBRAL NAGAR NALALEVI 	8.66120 	81.21674 	1724 									4.45 		4 														
* 		SRI LANKA 		IBRAL NAGAR NALALEVI 	8.66183 	81.21650 	1724 									3.80 		4 														
* 		SRI LANKA 		IRRAKKAKANDI 	8.72500 	81.17700 	1731 									4.00 	100.00 	4 														
* 		SRI LANKA 		JAYADUWA/HABARADUWA 	5.99400 	80.30900 	1749 									3.00 		4 														
* 		SRI LANKA 		KAHAWA 	6.16500 	80.09000 	1776 									10.04 		5 														
* 		SRI LANKA 		KALKUDAH 	7.91900 	81.56600 	1662 									7.00 	500.00 	4 														
* 		SRI LANKA 		KALLADY 	7.72400 	81.71400 	1640 									6.00 		4 														
* 		SRI LANKA 		KALMUNAI 	7.40400 	81.84200 	1617 									6.00 	35.00 	4 														
* 		SRI LANKA 		KALMUNAI KUDDI 	7.40535 	81.84164 	1617 									6.20 	210.00 	4 														
* 		SRI LANKA 		KALMUNAI KUDDI 	7.42299 	81.83044 	1618 									7.00 	110.00 	4 														
* 		SRI LANKA 		KALUTARA 	6.60845 	79.94800 	1800 									3.82 		5 														
* 		SRI LANKA 		KALUTARA 	6.60845 	79.94800 	1800 											5 									15 	3 		1 		1
* 		SRI LANKA 		KALUTARA 	6.60845 	79.94800 	1800 									3.87 		5 														
* 		SRI LANKA 		KALUTARA NORTH 	6.60600 	79.94900 	1800 									4.00 	80.00 	4 														
* 		SRI LANKA 		KALUWANCHIKUDI 	7.52100 	81.80600 	1624 									7.00 	100.00 	4 														
* 		SRI LANKA 		KAMBURUGAMA 	5.94005 	80.49195 	1728 									2.40 		4 														
* 		SRI LANKA 		KARATIVU 	7.36441 	81.85432 	1614 									4.85 		4 														
* 		SRI LANKA 		KARATIVU 	7.38400 	81.84800 	1615 									7.00 		4 														
* 		SRI LANKA 		KATTANKUDY 	7.68333 	81.73333 	1637 											5 										1 				1
* 		SRI LANKA 		KATTATIVU 	7.68633 	81.74025 	1636 									3.70 		4 														
* 		SRI LANKA 		KATUKURUNDA 	6.33359 	79.57682 	1835 										61.00 	5 														
* 		SRI LANKA 		KATUKURUNDA (KALUTARA S.) 	6.56600 	79.95100 	1799 									4.50 	120.00 	4 														
* 		SRI LANKA 		KIRINDA 	6.23500 	81.33700 	1641 									9.26 		5 														
* 		SRI LANKA 		KOGGALA 	5.98400 	80.33200 	1746 									6.00 	500.00 	4 														
* 		SRI LANKA 		KOGGALA AIRPORT 	5.99200 	80.31900 	1748 									9.34 		5 														
* 		SRI LANKA 		KOMARI 	6.97600 	81.86400 	1602 									8.00 		4 														
* 		SRI LANKA 		KORALAWELLA 	6.74967 	79.88879 	1809 									4.55 		4 														
* 		SRI LANKA 		KUCHCHAVELI, SOUTHEAST OF (2KM) 	8.79039 	81.12103 	1739 									3.35 		4 														
* 		SRI LANKA 		LANCIGAMA BEACH, MARAWILA 	7.37600 	79.82300 	1831 									2.30 		5 														
* 		SRI LANKA 		MAHASEELAWA BEACH, YALA 	6.29200 	81.43600 	1632 									8.40 		5 														
* 		SRI LANKA 		MANKERI 	8.01396 	81.48953 	1673 									5.50 	134.70 	4 														
* 		SRI LANKA 		MARATUWA 	6.74800 	79.89000 	1809 									5.50 	70.00 	4 														
* 		SRI LANKA 		MATARA 	5.94300 	80.55000 	1721 									5.82 		5 														
* 		SRI LANKA 		MATARA/GANDARA 	5.93100 	80.58300 	1718 									7.50 		4 														
* 		SRI LANKA 		MATTAKULIYA, COLOMBO 	6.97300 	79.87000 	1816 									2.70 		5 														
* 		SRI LANKA 		MORATUWA 	6.76245 	79.88353 	1810 									3.56 		4 														
* 		SRI LANKA 		MORATUWA BEACH 	6.75500 	79.89000 	1809 									4.40 		5 														
* 		SRI LANKA 		MORATUWA BEACH 	6.75600 	79.89000 	1809 									3.80 		5 														
* 		SRI LANKA 		N OF BATTICALOA 	7.74434 	81.69267 	1643 									2.70 		4 														
* 		SRI LANKA 		NALAVELI 	8.70657 	81.18847 	1729 									4.10 	80.00 	4 														
* 		SRI LANKA 		NEGOMBO 	7.23500 	79.84100 	1826 									1.60 		5 														
* 		SRI LANKA 		NEGOMBO 	7.23800 	79.84100 	1826 									2.00 		5 														
* 		SRI LANKA 		NILAVELI 	8.68333 	81.20000 	1727 											5 										1 				1
* 		SRI LANKA 		NILAVELI 	8.67700 	81.20300 	1726 									5.00 		4 														
* 		SRI LANKA 		NINTAVUR 	7.00588 	81.00222 	1695 											5 														
* 		SRI LANKA 		NINTO 	7.34354 	81.86083 	1613 									4.50 		4 														
* 		SRI LANKA 		NONAGAMA 	6.09375 	80.98835 	1676 									8.71 		4 														
* 		SRI LANKA 		OLUVIL 	7.28900 	81.86600 	1611 									6.00 	100.00 	4 														
* 		SRI LANKA 		PAIYAGALA 	6.53200 	79.97800 	1795 									6.00 		4 														
* 		SRI LANKA 		PAIYAGALA STATION 	6.52200 	79.97800 	1795 									5.95 		5 														
* 		SRI LANKA 		PANADURA 	6.71548 	79.90334 	1807 									4.24 		5 														
* 		SRI LANKA 		PANADURA FISHERY PORT 	6.71700 	79.90200 	1807 									5.59 		5 														
* 		SRI LANKA 		PATANANGALA BEACH , YALA 	6.34400 	81.49700 	1626 									11.30 		5 														
* 		SRI LANKA 		PAYAGALA 	6.52122 	79.97835 	1795 									5.04 		5 										1 				1
* 		SRI LANKA 		PERALIYA 	6.14722 	80.11023 	1773 											5 										1 				
* 		SRI LANKA 		PINNATARA 	6.68967 	79.91306 	1805 									4.15 		5 														
* 		SRI LANKA 		PINNATARA 	6.68967 	79.91306 	1805 									3.47 		5 														
* 		SRI LANKA 		POLHENA 	5.93600 	80.52600 	1724 									2.68 		5 														
* 		SRI LANKA 		POTTUVIL 	6.87500 	81.84400 	1602 									9.00 	150.00 	4 														
* 		SRI LANKA 		POTTUVIL 	6.87400 	81.84400 	1602 									7.00 	230.00 	4 														
* 		SRI LANKA 		POTTUVIL 	6.86667 	81.81667 	1604 									6.00 		5 														
* 		SRI LANKA 		POTTUVIL 	6.86667 	81.81667 	1604 									6.10 		4 														
* 		SRI LANKA 		PUNAWATUNNA 	6.02600 	80.24600 	1756 									3.50 		4 														
* 		SRI LANKA 		RATHGAMA/DOANDUWA 	6.08600 	80.14600 	1768 									4.50 	50.00 	4 														
* 		SRI LANKA 		S. COAST 	5.94100 	80.49400 	1728 									5.50 		4 														
* 		SRI LANKA 		SEENIGAMA 	6.20100 	80.06400 	1779 									7.00 		4 														
* 		SRI LANKA 		SEENIGAMA 	6.16610 	80.08908 	1776 									5.05 		5 														
* 		SRI LANKA 		SINNAMUHATTUVARAM 	7.17300 	81.86000 	1608 									7.00 	120.00 	4 														
* 		SRI LANKA 		TALAHENA 	7.15500 	79.82800 	1825 									2.30 		5 														
* 		SRI LANKA 		TANGALLA 	6.02937 	80.79562 	1696 									3.24 		4 														
* 		SRI LANKA 		TANGALLA 	6.01163 	80.47717 	1731 									7.90 	14.80 	4 														
* 		SRI LANKA 		TANGALLE 	6.03100 	80.79900 	1696 									3.09 		5 														
* 		SRI LANKA 		TANGALLE 	6.03000 	80.79800 	1696 									7.00 		4 														
* 		SRI LANKA 		TELWATTE 	6.11096 	80.04268 	1780 										108.00 	5 														1
* 		SRI LANKA 		THIRANAGAMA 	6.11065 	80.12357 	1771 									4.55 		4 														
* 		SRI LANKA 		THIRANAGAMA 	6.11065 	80.12357 	1771 									6.81 		5 														
* 		SRI LANKA 		TRINCOMALEE 	8.57600 	81.23700 	1719 									3.40 	30.00 	4 														
* 		SRI LANKA 		TRINCOMALEE 	8.56173 	81.24202 	1718 									5.90 		4 														
* 		SRI LANKA 		TRINCOMALEE 	8.56173 	81.24202 	1718 									2.40 		5 														
* 		SRI LANKA 		TRINCOMALEE 	8.56173 	81.24202 	1718 									2.70 		4 														
* 		SRI LANKA 		TRINCOMALEE 	8.61808 	81.21845 	1722 									4.40 		4 														
* 		SRI LANKA 		TRINCOMALEE 	8.57936 	81.21380 	1722 									3.20 		4 														
* 		SRI LANKA 		TRINCOMALEE (MILITARY CHECKPOINT) 	8.56306 	81.23478 	1719 									2.50 		4 														
* 		SRI LANKA 		UNAWATUNA 	6.00800 	80.24200 	1756 									3.30 		5 														
* 		SRI LANKA 		UPPUVELI 	8.61600 	81.21900 	1722 									4.30 		4 														
* 		SRI LANKA 		USWETTAKEIYAWA 	7.08600 	79.82800 	1824 									2.60 		5 														
* 		SRI LANKA 		VENNAPUWA NORTH 	7.35600 	79.82700 	1830 									1.80 		5 														
* 		SRI LANKA 		WADDUWA 	6.67317 	79.92110 	1804 									3.61 		4 														
* 		SRI LANKA 		WADDUWA RESORT 	6.67800 	79.92100 	1804 									4.50 	120.00 	4 														
* 		SRI LANKA 		WAIKKALA 	7.28100 	79.84100 	1827 									1.60 		5 														
* 		SRI LANKA 		WAIKKALA 	7.28300 	79.84000 	1827 									2.70 		5 														
* 		SRI LANKA 		WALIGAMA 	5.96400 	80.42100 	1736 									4.86 		5 														
* 		SRI LANKA 		WELIGAMA 	5.96898 	80.44682 	1733 									2.73 		4 										1 		1 		
* 		SRI LANKA 		WELIGAMA/KAMBURUGAMU 	5.97200 	80.43100 	1735 									4.00 		4 														
* 		SRI LANKA 		WELLAWATTA 	6.52588 	79.51413 	1845 									1.50 	30.70 	5 														
* 		SRI LANKA 		YALA 	6.16639 	81.25503 	1649 									12.50 	390.00 	5 										1 		1 		
* 		SRI LANKA 		YALA 	6.16639 	81.25503 	1649 									4.65 	390.00 	5 										1 		1 		
* 		TANZANIA 		ALL OF TANZANIA 												3.50 		5 			13 	1 										
* 		TANZANIA 		BAGAMOYO - FISHING HARBOR 	-6.44017 	38.91025 	6416 									3.00 		5 														
* 		TANZANIA 		BAGAMOYO - OCEANIC BAY RESORT 	-6.42835 	38.90360 	6416 									3.00 		5 														
* 		TANZANIA 		BEACHCOMBER HOTEL 	-6.67942 	39.22458 	6385 									3.00 		5 														
* 		TANZANIA 		CHWAKA BAY RESORT HOTEL, ZANZIBAR 	-6.15563 	39.43705 	6354 									2.65 		5 														
* 		TANZANIA 		DAR-ES-SALAAM FISHING HARBOR, FERRY 	-6.81845 	39.30085 	6379 									2.40 		5 				1 						1 				
* 		TANZANIA 		DONGWE RESTAURANT THE DOOR 	-6.18032 	39.53105 	6344 									2.40 		5 														
* 		TANZANIA 		JAMBIANI RED MONKEY LODGE, ZANZIBAR 	-6.34270 	39.55717 	6343 									3.25 		5 										1 				1
* 		TANZANIA 		KIM BEACH - AT BERM 	-6.86335 	39.41087 	6368 									2.85 		5 														
* 		TANZANIA 		KIPEPEO BEACH, MAINLAND TANZANIA 	-6.85103 	39.36145 	6373 									2.40 		5 			2 	1 										
* 		TANZANIA 		KIWENGWA - ESTIMATE, ZANZIBAR 	-5.99612 	39.38150 	6357 									1.50 		5 														
* 		TANZANIA 		KIZIMKAZI, ZANZIBAR 	-6.45608 	39.47358 	6354 									1.50 		5 														
* 		TANZANIA 		KONDUCHI BEACH, MAINLAND TANZANIA 	-6.66848 	39.21867 	6386 									3.50 		5 											1 	1 		
* 		TANZANIA 		MATEMWE BEACH, ZANZIBAR 	-5.86848 	39.35385 	6358 									2.90 		5 														
* 		TANZANIA 		MBEGANI - INSTITUTE OF FISHERIES 	-6.47287 	38.97017 	6410 									2.50 		5 														
* 		TANZANIA 		MBEZI BEACH, MAINLAND TANZANIA 	-6.69817 	39.22763 	6385 									3.00 		5 			8 	1 										
* 		TANZANIA 		NUNGWI AQUARIUM, ZANZIBAR 	-5.72238 	39.30228 	6362 									1.50 		5 														
* 		TANZANIA 		PAJE - FLOW DEPTH ON REEF, ZANZIBAR 	-6.26048 	39.53660 	6344 									1.00 		5 														
* 		TANZANIA 		SILVER SANDS RESORT 	-6.65455 	39.21232 	6386 									3.30 		5 														
* 		TANZANIA 		UROA TAMARIND HOTEL, ZANZIBAR 	-6.10492 	39.42708 	6354 									1.50 		5 														
* 		TANZANIA 		ZANZIBAR 	-6.15000 	39.18000 	6382 	26 	10 	40 	9 	41 				.36 		2 		R 												
* 		THAILAND 	PHANG NGA 	NAM KHEM 	8.83678 	98.27489 	670 									5.12 		5 														
* 		THAILAND 	PHANG NGA 	NAM KHEM 	8.79608 	98.26153 	665 									6.99 		5 														
* 		THAILAND 	PHANG NGA 	NAM KHEM 	8.81331 	98.26622 	667 									5.12 		5 														
* 		THAILAND 	PHANG NGA 	NAM KHEM 	8.84900 	98.27097 	671 									4.00 		5 														
* 		THAILAND 	PHANG NGA 	NAM KHEM 	8.85014 	98.27153 	671 									8.50 		5 														
* 		THAILAND 	PHANG NGA 	NAM KHEM 	8.86356 	98.27322 	673 									4.20 		5 														
* 		THAILAND 	PHANG NGA 	NAM KHEM 	8.84783 	98.27536 	671 									.80 		5 														
* 		THAILAND 	PHANG NGA 	NAM KHEM 	8.84203 	98.27603 	670 									1.55 		5 														
* 		THAILAND 	PHANG NGA 	NAM KHEM 	8.85564 	98.26781 	671 									3.80 		5 														
* 		THAILAND 	PHANG NGA 	NAM KHEM 	8.85111 	98.26750 	671 									7.50 		5 														
* 		THAILAND 	PHANG NGA 	NAM KHEM 	8.85069 	98.27022 	671 									8.40 		5 														
* 		THAILAND 	PHANG NGA 	NAM KHEM 	8.83472 	98.27250 	670 									7.42 		5 														
* 		THAILAND 		ALL OF THAILAND 												19.60 		5 			8212 	4 					1000 	4 	4806 	4 		
* 		THAILAND 		BAN AO KHOEI 	9.29900 	98.38400 	722 									9.20 	180.00 	4 														
* 		THAILAND 		BAN AO LUK TUM 	9.20300 	98.27200 	707 									8.60 	74.00 	4 														
* 		THAILAND 		BAN BANG PHNG 	8.81200 	98.26600 	667 									13.10 	9.00 	4 														
* 		THAILAND 		BAN CHANG HAK 	9.66900 	98.55900 	767 									1.10 		5 														
* 		THAILAND 		BAN KAO LAK 	8.61100 	98.23800 	645 									7.80 		5 														
* 		THAILAND 		BAN KO DAM 	9.27700 	98.38600 	720 									1.10 		5 														
* 		THAILAND 		BAN MA KAP 	8.92300 	98.25800 	678 									6.00 	148.00 	4 														
* 		THAILAND 		BAN NA TAI 	8.29300 	98.27300 	615 									5.10 		5 														
* 		THAILAND 		BAN NA TAI 	8.27400 	98.27800 	613 									4.80 		4 														
* 		THAILAND 		BAN NAM KEM 	8.86400 	98.27400 	673 									6.40 		5 														
* 		THAILAND 		BAN NAM KIM 	8.85700 	98.26800 	672 									15.80 	63.00 	4 														
* 		THAILAND 		BAN NAM KIM 	8.86000 	98.27500 	672 									4.10 		4 														
* 		THAILAND 		BAN NAM KIM 	8.85300 	98.27200 	671 									5.80 	133.00 	4 														
* 		THAILAND 		BAN NAM KIM 	8.85900 	98.27200 	672 									6.40 	25.00 	4 														
* 		THAILAND 		BAN NIANG BEACH 	8.67100 	98.24300 	652 									7.60 		5 														
* 		THAILAND 		BAN NIANG BEACH 	8.70000 	98.24000 	654 									6.20 		5 														
* 		THAILAND 		BAN NIANG BEACH 	8.70000 	98.24000 	654 									7.90 		5 														
* 		THAILAND 		BAN NIANG BEACH 	8.67500 	98.24200 	652 									9.50 		5 														
* 		THAILAND 		BAN NOK NA 	8.99900 	98.25700 	686 									12.60 	136.00 	5 														
* 		THAILAND 		BAN PAK CHOK 	9.16000 	98.27100 	703 									6.60 	236.00 	4 														
* 		THAILAND 		BAN PAK KO 	8.88200 	98.27000 	674 									6.40 	263.00 	4 														
* 		THAILAND 		BAN PAK NAM 	9.95100 	98.59600 	798 									1.20 		5 														
* 		THAILAND 		BAN PAK NAM 	9.95100 	98.59600 	798 									2.02 		4 														
* 		THAILAND 		BAN PAK NAM FISHERING PORT 	9.94600 	98.59800 	797 									1.70 		5 														
* 		THAILAND 		BAN PAK NAM PORT 	9.97900 	98.60100 	801 									1.70 		5 														
* 		THAILAND 		BAN TAM NANG 	8.99300 	98.41200 	692 									.70 		5 														
* 		THAILAND 		BAN THALE NOK 	9.46000 	98.43700 	741 									6.80 	121.00 	4 														
* 		THAILAND 		BAN THALE NOK 	9.46000 	98.43700 	741 									6.20 	121.00 	4 														
* 		THAILAND 		BAN THUNG DAP 	9.02800 	98.25700 	689 									19.60 	30.00 	4 														
* 		THAILAND 		BAN THUNG WA 	8.37800 	98.25500 	623 									6.80 	444.00 	4 														
* 		THAILAND 		BANG RONG PIER, PHUKET 	8.04700 	98.41900 	598 									1.47 		5 														
* 		THAILAND 		BANG THAO BEACH, PHUKET 	8.00200 	98.29600 	587 									4.41 		5 														
* 		THAILAND 		CHALONG 	7.82100 	98.34500 	572 									4.00 		4 														
* 		THAILAND 		CHALONG BAY PIER, PHUKET 	7.81900 	98.40300 	575 									3.62 		5 														
* 		THAILAND 		FRIENDSHIP BEACH HOTEL, PHUKET 	7.79600 	98.34000 	569 									2.35 		5 														
* 		THAILAND 		HAD SAI DAM (BAN LA ONG) 	9.74400 	98.55200 	775 									3.70 	105.00 	4 														
* 		THAILAND 		HAT PRAPHAT 	9.37600 	98.40100 	730 									5.00 	939.00 	5 														
* 		THAILAND 		KA YU HARBOR (BAN LA ONG) 	9.78100 	98.55400 	778 									.32 		4 														
* 		THAILAND 		KA YU HARBOR (BAN LA ONG) 	9.78100 	98.55400 	778 									2.00 		5 														
* 		THAILAND 		KAMALA BEACH, PHUKET 	7.94700 	98.28200 	581 									5.29 		5 														
* 		THAILAND 		KAMALA BEACH, PHUKET 	7.95000 	98.28000 	581 									5.40 		5 														
* 		THAILAND 		KAMALA BEACH, PHUKET 	7.94700 	98.28300 	581 									4.85 		5 														
* 		THAILAND 		KARON BEACH (CENTRAL PART), PHUKET 	7.84200 	98.29700 	571 									4.49 		5 														
* 		THAILAND 		KARON BEACH (SOUTH PART), PHUKET 	7.82900 	98.29800 	570 									4.04 		5 														
* 		THAILAND 		KATA NOI BEACH, PHUKET 	7.80300 	98.30300 	568 									3.88 		5 														
* 		THAILAND 		KHAO LAK 	8.72900 	98.22600 	657 									8.86 		5 														
* 		THAILAND 		KHAO LAK 	8.18400 	98.29200 	605 									4.83 		5 														
* 		THAILAND 		KHAO LAK 	8.19700 	98.30000 	607 									3.11 		5 														
* 		THAILAND 		KHAO LAK 	8.27200 	98.28000 	613 									4.30 		5 														
* 		THAILAND 		KHAO LAK 	8.30400 	98.27500 	616 									4.28 		5 														
* 		THAILAND 		KHAO LAK 	8.73400 	98.22500 	657 									4.48 		5 														
* 		THAILAND 		KHAO LAK 	8.72600 	98.23200 	657 									6.24 		5 														
* 		THAILAND 		KHAO LAK 	8.74200 	98.25500 	659 									6.46 		5 														
* 		THAILAND 		KHAO LAK 	8.68300 	98.24400 	653 									10.62 		5 														
* 		THAILAND 		KHAO LAK 	8.66100 	98.25000 	651 									9.71 		5 														
* 		THAILAND 		KHAO LAK 	8.66100 	98.24900 	651 									9.35 		5 														
* 		THAILAND 		KHAO LAK 	8.64000 	98.25300 	649 									9.46 		5 														
* 		THAILAND 		KHAO LAK 	8.64000 	98.25200 	649 									8.35 		5 														
* 		THAILAND 		KHAO LAK 	8.64000 	98.25000 	649 									9.91 		5 														
* 		THAILAND 		KHAO LAK 	8.63700 	98.25100 	648 									8.71 		5 														
* 		THAILAND 		KHAO LAK 	8.63700 	98.25100 	648 									8.67 		5 														
* 		THAILAND 		KHAO LAK 	8.63600 	98.24900 	648 									9.50 		5 														
* 		THAILAND 		KHAO LAK 	8.63700 	98.25300 	649 									9.60 		5 														1
* 		THAILAND 		KHAO LAK 	8.63700 	98.25100 	648 									8.80 		5 														
* 		THAILAND 		KHAO LAK 	8.63500 	98.25000 	648 									9.45 		5 														
* 		THAILAND 		KO KOH KAO PORT 	8.87200 	98.27500 	673 									3.70 	43.00 	5 														
* 		THAILAND 		KO YAO, FISHING VILLAGE 	9.22200 	98.37500 	714 									1.00 		5 														
* 		THAILAND 		KRABI 	8.07000 	98.87000 	625 	26 	3 	45 	2 	46 				.84 		2 		F 												
* 		THAILAND 		KURABURI 	9.23000 	98.38000 	715 	26 	3 	32 	2 	33 				.70 		2 		F 												
* 		THAILAND 		LAEM PAKARANG 	8.73600 	98.22200 	657 									9.30 		5 														
* 		THAILAND 		LEAM HIM, PHUKET 	7.94300 	98.40100 	587 									.72 		5 														
* 		THAILAND 		MAKHAM BAY, PHUKET 	7.87000 	98.41700 	581 									1.39 		5 														
* 		THAILAND 		MOODONG CANAL, PHUKET 	7.84200 	98.37500 	576 									3.15 		5 														
* 		THAILAND 		NAI RAI 	8.31000 	98.27300 	617 									5.30 	534.00 	5 														
* 		THAILAND 		NAI YANG BEACH, PHUKET 	8.08700 	98.30000 	596 									4.07 		5 														
* 		THAILAND 		PATONG BEACH, PHUKET 	7.88700 	98.29600 	576 									5.44 		5 														
* 		THAILAND 		PATONG BEACH, PHUKET 	7.89400 	98.29900 	577 									5.48 		5 				1 						1 		1 		
* 		THAILAND 		PATONG BEACH, PHUKET 	7.89200 	98.29800 	576 									5.02 		5 														
* 		THAILAND 		PATONG BEACH, PHUKET 	7.90400 	98.30100 	578 									4.90 		5 														
* 		THAILAND 		PATONG BEACH, PHUKET 	7.88400 	98.29200 	575 									5.09 		5 														
* 		THAILAND 		PHALAI VILLAGE, PHUKET 	7.83900 	98.37300 	575 									2.75 		5 														
* 		THAILAND 		PHI PHI DON (NORTH COAST) 	7.73900 	98.77700 	589 									5.84 		5 														
* 		THAILAND 		PHI PHI DON (SOUTH COAST) 	7.74800 	98.77200 	589 									4.58 		5 														
* 		THAILAND 		PHUKET 	7.83000 	98.42000 	577 	26 	2 	55 	1 	56 				1.11 		2 		F 												
* 		THAILAND 		RAI DAN 	8.29700 	98.27200 	615 									6.80 	41.00 	5 														
* 		THAILAND 		RAMSON 	9.60200 	98.46900 	756 									1.08 		4 														
* 		THAILAND 		RAMSON 	9.60200 	98.47000 	757 									4.90 	329.00 	4 														
* 		THAILAND 		RAMSON 	9.60200 	98.47000 	757 									4.80 	329.00 	5 														
* 		THAILAND 		RANONG 	9.95000 	98.60000 	798 	26 	4 	3 	3 	1 				.71 		2 		F 												
* 		THAILAND 		RAWAI BEACH, PHUKET 	7.77200 	98.32800 	566 									2.43 		5 														
* 		THAILAND 		SATUN 	6.65000 	100.02000 	592 	26 	5 	15 	4 	16 				.29 		2 		F 												
* 		THAILAND 		SIRE VILLAGE, PHUKET 	7.87300 	98.42500 	581 									2.67 		5 														
* 		THAILAND 		TA POU NOI 	7.83400 	98.42200 	577 									2.53 		4 														
* 		THAILAND 		TA POU NOI 	7.83400 	98.42100 	577 									2.60 		5 														
* 		THAILAND 		TA POU NOI 	7.83400 	98.42100 	577 									4.70 		5 														
* 		THAILAND 		TAP LAM NAVY BASE 	8.57000 	98.22400 	640 									3.80 		5 														
* 		THAILAND 		TARUTAO 	6.70000 	99.65000 	564 	26 	3 	27 	2 	28 				.89 		2 		F 												
* 		THAILAND 		THAI MUANG 	8.39900 	98.26500 	625 									6.10 	114.00 	5 														
* 		THAILAND 		THAI MUANG, NAT. CONSERVATION PARK 	8.48400 	98.22800 	632 									5.20 	462.00 	5 														
* 		THAILAND 		THAI MUANG, VISITOR CENTER 	8.43600 	98.23800 	628 									6.30 	463.00 	5 														
* 		THAILAND 		TRANG 	7.50000 	99.30000 	602 	26 	4 	40 	3 	41 				.63 		2 		F 												
* 		TONGA 		NUKUALOFA (NUKU'ALOFA) 	-21.13800 	-175.18150 	10036 									.05 		2 														
* 		UK 		MILFORD HAVEN, WALES 	51.70700 	-5.05200 	10467 	27 	9 	38 	32 	40 						2 														
* 		UK 		NEWLYN, CORNWALL, ENGLAND 	50.10000 	-5.55360 	10535 	27 	7 	45 						.22 		2 	60 													
* 		UK TERRITORY 		CHAGOS ISLANDS 														5 														
* 		UK TERRITORY 		DIEGO GARCIA, CHAGOS ISLANDS 	-7.28300 	72.40000 	2858 	26 	4 	45 	3 	46 				.45 		2 		R 												
* 		UK TERRITORY 		DIEGO GARCIA, CHAGOS ISLANDS 	-7.28300 	72.40000 	2858 									1.90 		1 														
* 		UK TERRITORY 		EAGLE ISLAND, CHAGOS ISLANDS 	-6.18000 	71.34000 	2920 										100.00 	5 														
* 		UK TERRITORY 		PORT STANLEY, FALKLAND ISLANDS 	-51.68000 	-57.82000 	14113 	26 	22 	23 	21 	24 				.22 		2 														
* 		UK TERRITORY 		SIGNY, SOUTH ORKNEY ISLANDS 	-60.71700 	-45.60000 	12860 	26 	18 	38 	17 	39 				.26 		2 														
* 		UK TERRITORY 		ST. HELENA 	-15.96700 	-5.70000 	11347 	27 	2 	22 	25 	23 	28 	5 	53 	.02 		2 	45 	F 												
* 		USA 	AK 	ADAK, SWEEPER COVE, AK 	51.86300 	-176.63200 	9550 	27 	12 	0 						.11 		2 														
* 		USA 	AK 	KODIAK, AK 	57.73031 	-152.51387 	10954 	27 	16 	0 						.13 		2 	70 													
* 		USA 	AK 	SAND POINT, AK 	55.33700 	-160.50200 	10561 	27 	12 	30 						.14 		2 														
* 		USA 	AK 	SITKA, AK 	57.05200 	-135.34200 	11897 	27 	18 	15 	41 	16 				.04 		2 	48 													
* 		USA 	AK 	UNALASKA, DUTCH HARBOR, AK 	53.88300 	-166.53300 	10209 	27 	14 	50 						.07 		2 														
* 		USA 	AK 	YAKUTAT, AK 	59.55000 	-139.73300 	11529 	27 	16 	47 	39 	48 				.08 		2 	45 													
* 		USA 	CA 	ARENA COVE, CA 	38.91400 	-123.71100 	13817 									.19 		2 	6 													
* 		USA 	CA 	CRESCENT CITY, CA 	41.74560 	-124.18400 	13583 	27 	13 	5 						.31 		2 														
* 		USA 	CA 	LA JOLLA, CA 	32.86700 	-117.25700 	14698 	27 	9 	24 	32 	25 				.06 		2 														
* 		USA 	CA 	LOS ANGELES, CA 	33.71900 	-118.27200 	14564 	27 	9 	0 						.13 		2 														
* 		USA 	CA 	MONTEREY, CA 	36.60500 	-121.88800 	14105 	27 	11 	0 						.10 		2 														
* 		USA 	CA 	POINT REYES, CA 	37.99700 	-122.97500 	13932 									.20 		2 	33 													
* 		USA 	CA 	PORT SAN LUIS, CA 	35.17666 	-120.75500 	14286 	27 	12 	17 	35 	18 				.27 		2 														
* 		USA 	CA 	SAN DIEGO, CA 	32.71500 	-117.17400 	14715 	27 	8 	24 	31 	25 				.16 		2 														
* 		USA 	CA 	SAN FRANCISCO, CA 	37.80700 	-122.46500 	13980 									.08 		2 	60 													
* 		USA 	CA 	SANTA MONICA, CA 	34.00800 	-118.50000 	14527 	27 	11 	23 	34 	24 				.19 		2 														
* 		USA 	FL 	TRIDENT PIER, FL 	28.41500 	-80.59300 	16471 	27 	9 	11 	32 	12 				.17 		2 														
* 		USA 	HI 	HILO, HAWAII, HI 	19.73030 	-155.05530 	11871 	27 	3 	30 	26 	31 				.09 		2 														
* 		USA 	HI 	HONOLULU, OAHU, HI 	21.30670 	-157.86700 	11553 	27 	3 	46 	26 	47 				.05 		2 														
* 		USA 	HI 	KAHULUI, MAUI, HI 	20.89500 	-156.47700 	11703 	27 	3 	48 	26 	49 				.15 		2 														
* 		USA 	HI 	KAWAIHAE, HAWAII, HI 	20.03660 	-155.82900 	11785 	27 	2 	42 	25 	43 				.05 		2 														
* 		USA 	NJ 	ATLANTIC CITY, NJ 	39.35000 	-74.41700 	15172 	27 	8 	47 	31 	48 				.11 		2 														
* 		USA 	NJ 	CAPE MAY, NJ 	38.97000 	-74.96000 	15224 	27 	9 	35 	32 	36 				.06 		2 														
* 		USA 	WA 	NEAH BAY, WA 	48.36700 	-124.61200 	13066 	27 	10 	20 	33 	21 				.07 		2 														
* 		USA TERRITORY 	AS 	PAGO PAGO, AMERICAN SAMOA 	-14.27660 	-170.68900 	10473 									.01 		2 														
* 		USA TERRITORY 	PR 	ISLA DE MAGUEYES 	17.96885 	-67.04407 	17001 	27 	4 	59 	28 	0 				.04 		2 														
* 		USA TERRITORY 	PR 	PUNTA GUAYANILLA 	17.97700 	-66.76200 	16981 	27 	5 	47 	28 	48 				.02 		2 														
* 		USA TERRITORY 	PR 	SAN JUAN 	18.46200 	-66.11700 	16895 	27 	4 	47 	27 	48 				.02 		2 														
* 		USA TERRITORY 	VI 	ST. CROIX: LIMETREE 	17.69700 	-64.75300 	16860 	27 	5 	17 	28 	18 				.02 		2 														
* 		USA TERRITORY 	VI 	ST. THOMAS: CHARLOTTE AMALIE 	18.33300 	-64.91700 	16821 	27 	5 	41 	28 	42 				.09 		2 														
* 		VANUATU 		PORT VILA, EFATE ISLAND 	-17.75530 	168.30770 	8275 									.08 		2 														
* 		YEMEN 		ABADHAR 	12.35276 	54.06333 	4706 									2.81 	18.80 	5 														
* 		YEMEN 		ALL OF YEMEN 												6.11 		5 			2 	1 										
* 		YEMEN 		ARHER QARIYAH 	12.64378 	54.23122 	4693 									1.74 	12.00 	5 														
* 		YEMEN 		BEDHOOLA 	12.33822 	54.02038 	4711 									3.75 	37.00 	5 														
* 		YEMEN 		BEDHOOLA 	12.32952 	54.00735 	4712 									1.97 	50.50 	4 														
* 		YEMEN 		BEDHOOLA 	12.32906 	54.00783 	4712 									3.87 	8.20 	5 														
* 		YEMEN 		BEDHOOLA 	12.32917 	54.00726 	4712 									3.37 	10.40 	5 														
* 		YEMEN 		DAIHAM 	12.60909 	53.85832 	4733 									1.93 	14.30 	5 														
* 		YEMEN 		GHEBBAT 	12.61031 	53.78379 	4741 									.84 	64.50 	4 														
* 		YEMEN 		GHEBBAT 	12.61063 	53.78388 	4741 									2.44 	27.60 	5 														
* 		YEMEN 		HADIBOH 	12.65653 	54.02516 	4716 									2.15 	11.80 	5 														
* 		YEMEN 		HAMHARITEN 	12.60813 	54.31507 	4684 									1.69 	30.10 	5 														
* 		YEMEN 		MAHFARHAN 	12.40834 	54.22682 	4690 									3.44 	223.80 	5 														
* 		YEMEN 		MAHFARHAN 	12.40983 	54.22685 	4690 									4.17 	224.00 	5 										1 	50 	1 		
* 		YEMEN 		MAHFARHAN 	12.40991 	54.22666 	4690 									3.97 	203.70 	4 														
* 		YEMEN 		MAHFARHAN 	12.40872 	54.22781 	4690 									3.14 	105.60 	4 														
* 		YEMEN 		QALANSIYAH 	12.68991 	53.48402 	4774 									2.42 	15.90 	5 			1 	1 										
* 		YEMEN 		RAS ARSAL, SOCOTRA ISLAND 												2.00 	26.50 	5 														
* 		YEMEN 		SHAZHOR 	12.47117 	54.41113 	4671 									5.70 	27.20 	5 										1 	2 	1 		
* 		YEMEN 		SHAZHOR 	12.46983 	54.41071 	4671 									6.11 	132.40 	5 														
* 		YEMEN 		SHOAAB 	12.55080 	53.38595 	4782 									2.64 	18.00 	5 														
